,sigla,iata,nombre,municipio,departamento,categoria,latitud,longitud,propietario,explotador,longitud_pista,ancho_pista,pbmo,orientacion,elevacion,resolucion,fecha_construccion,fecha_vigencia,clase,tipo,numero_vuelos_origen,gcd_departamento,gcd_municipio
0,4JC,,JUANCHACO,Buenaventura,Valle del Cauca,Aeródromo,,,,,,,,,,,,,,,24.0,76,76109
1,7FO,,LA ISLA,Puerto Gaitán,Meta,Aeródromo,4.4211,-71.6271,LA ISLA Y EL ROSARIO S.A.,LA CEIBA S.A.,800.0,10.0,3000.0,,538.0," 1325,000",2015-06-05,2018-06-11,1A,Privado,2.0,50,50568
2,7FU,,LA ESCONDIDA,Puerto Gaitán,Meta,Aeródromo,4.6108,-71.1935,PALMAS SICARARE S.A.S.,COSARGO S.A.S.,1300.0,18.0,5000.0,,564.0," 1843,000",2013-04-26,2016-05-07,1A,Fumigación,30.0,50,50568
3,7FW,,MORICHITO,Hato Corozal,Casanare,Aeródromo,5.9188,-71.7932,CARMEN NARANJO,ROBERTO C. RIAÑO P.,800.0,15.0,3500.0,,720.0," 2220,000",2009-05-07,,1A,Privado,,85,85125
4,7FX,,CAROLINA DEL PRINCIPE,Carolina,Antioquia,Aeródromo,6.7248,-75.2909,MUNICIPIO,MUNICIPIO,400.0,16.0,1000.0,,6004.0," 6470,000",2013-11-19,,1A,Público,,5,5150
5,7FY,,DUBAI,Ayapel,Córdoba,Aeródromo,8.296,-75.0307,ANDRES D. LONDOÑO T.,ANDRES D. LONDOÑO T.,350.0,10.0,500.0,,82.0," 1212,000",2013-03-20,,1A,Privado,,23,23068
6,7FZ,,EL TRIUNFO,Orocué,Casanare,Aeródromo,4.8095,-71.667,ERNESTO J. PEREZ VILLAMIZAR,EL MISMO,880.0,15.0,3000.0,,475.0," 5532,000",2014-11-11,,1A,Privado,2.0,85,85230
7,7GA,,BARU - HIDROPUERTO,Cartagena de Indias,Bolívar,Aeródromo,10.2321,-75.5877,MAURICIO E. VASQUEZ M.,EL MISMO,450.0,20.0,500.0,,0.0," 6067,000",2012-10-25,2015-11-07,1A,Privado,,13,13001
8,7GB,,LA CAROLINA,El Paso,Cesar,Aeródromo,9.528,-73.7866,JORGE AGUDELO RESTREPO,JORGE AGUDELO REST.,350.0,10.0,500.0,,690.0," 5474,000",2009-10-06,,UL,Privado,,20,20250
9,7GC,,SAN FELIPE DEL PAUTO,Trinidad,Casanare,Aeródromo,5.2032,-70.8951,AGRAS S.A.S,AGRAS S.A.S,720.0,10.0,3000.0,,3125.0," 4505,000",2012-08-16,,1A,Privado,153.0,85,85430
10,7GD,,VELASQUEZ,Puerto Boyacá,Boyacá,Aeródromo,5.9482,-74.4575,FAC,MANSAROVAR,1500.0,18.0,10000.0,,617.0," 2135,000",2013-05-16,,3C,Privado,2325.0,15,15572
11,7GE,,LUCITANIA,Orocué,Casanare,Aeródromo,4.6954,-71.589,AGROPECUARIA CRAVO SUR,AGROPECUARIA CRAVO SUR,650.0,18.0,3000.0,,443.0," 1051,000",2014-02-28,2017-03-03,1A,Privado,,85,85230
12,7GF,,LA UNION,Paz de Ariporo,Casanare,Aeródromo,5.6283,-70.7032,MARTHA Y. VARGAS DE R.,GEOPARK CUERVA,640.0,18.0,3500.0,,335.0," 2136,000",2013-05-16,,1A,Privado,1122.0,85,85250
13,7GG,,LA ILUSION,Maní,Casanare,Aeródromo,4.5805,-72.4282,SIGRA S.A.,SIGRA S.A.,890.0,18.0,3500.0,,574.0," 1944,000",2013-05-03,2016-05-10,1A,Privado,2.0,85,85139
14,7GH,,LA VENTUROSA,Puerto Carreño,Vichada,Aeródromo,6.1391,-68.7779,MUNICIPIO,GOBERNACION,1000.0,12.0,9500.0,,246.0," 6782,000",2013-12-05,,1A,Público,54.0,99,99001
15,7GI,,GUAYABAL DEL CRAVO,Orocué,Casanare,Aeródromo,4.7223,-71.5943,KLAUS PUTH ARANGUREN,KLAUS PUTH ARANGUREN,750.0,12.0,2500.0,,442.0," 3710,000",2013-07-24,2016-08-01,1A,Privado,1.0,85,85230
16,7GK,,LAS VIOLETAS- CA,Castilla la Nueva,Meta,Aeródromo,3.8519,-73.7286,FRANCELINA CADENA,AEROCLUB DEL META,350.0,10.0,500.0,,609.0," 4132,000",2010-08-19,,UL,Privado,,50,50150
17,7GL,,LA JAGUA,La Jagua de Ibirico,Cesar,Aeródromo,9.5905,-73.2886,CARBONES DE LA JAGUA S.A.,CARBO. DE LA JAGUA S.A.,1200.0,18.0,7500.0,,787.0,"  171,000",2015-01-27,2018-02-06,2A,Privado,1070.0,20,20400
18,7GN,,LOS MANGOS,Ayapel,Córdoba,Aeródromo,8.2956,-75.0987,MANUEL LOPEZ ORTEGA,MANUEL LOPEZ ORTEGA,200.0,10.0,500.0,,90.0," 5190,000",2013-09-24,,UL,Privado,,23,23068
19,7GO,,MATABRAVA,San Luis de Palenque,Casanare,Aeródromo,5.2132,-71.6915,FRANCISCA REYES DIAZ,FRANCISCA REYES DIAZ,600.0,10.0,2000.0,,524.0," 5966,000",2014-12-15,,1A,Privado,1.0,85,85325
20,7GP,,EL PORVENIR - CA,Pijiño del Carmen,Magdalena,Aeródromo,9.491,-74.1909,LA CEIBA S.A.,LA CEIBA S.A.,300.0,10.0,500.0,,176.0,"  236,000",2014-01-21,,UL,Privado,,47,47545
21,7GQ,,LA PROVINCIA,Paz de Ariporo,Casanare,Aeródromo,5.6918,-70.11,CARLOS H. MONTENEGRO,CARLOS H. MONTENEGRO,670.0,15.0,2500.0,,430.0,"  399,000",2014-01-31,,1A,Privado,,85,85250
22,7GS,,EL ENCANTO,Cumaribo,Vichada,Aeródromo,4.6934,-70.9078,JUAN AQUILINO PEREZ P.,EL ENCANTO 1 S.A.S.,1200.0,20.0,5000.0,,544.0," 5964,000",2014-12-15,,1A,Fumigación,376.0,99,99773
23,7GU,,HATO GARIBAY,Maní,Casanare,Aeródromo,4.4656,-72.3273,AGROPECUARIA LA TAGUA,ROBERTO HERRERA OBREGON,750.0,10.0,5500.0,,482.0," 4212,000",2014-08-06,,1A,Privado,,85,85139
24,7GV,,REPRESA DE LAS CANARIAS,Paz de Ariporo,Casanare,Aeródromo,5.7658,-71.2503,OLGA BRAVO DE CANTOR,OLGA BRAVO DE CANTOR,610.0,15.0,3500.0,,652.0," 5236,000",2014-10-14,2017-12-01,1A,Privado,6.0,85,85250
25,7GX,,LA ATARRAYA - CA.,Ayapel,Córdoba,Aeródromo,8.2857,-75.0963,FELIPE BRAVO BOTERO,FELIPE BRAVO BOTERO,210.0,10.0,500.0,,91.0," 5714,000",2014-11-25,,UL,Privado,,23,23068
26,7GY,,LAS ACACIAS,Nemocón,Cundinamarca,Aeródromo,5.0949,-73.9054,JUAN BERNANDO SANINT G,EL MISMO,1350.0,20.0,10000.0,,8431.0,"  439,000",2015-02-27,2018-03-05,3A,Privado,,25,25486
27,7GZ,,COROZITO,Maní,Casanare,Aeródromo,4.6701,-72.0994,INVERSIONES LA PALMERA DE COROZITO,INV.LA PALMERA DE COROZITO,1200.0,18.0,,,497.0,"  832,000",2015-04-14,,2A,Privado,161.0,85,85139
28,7HA,,EL CONDOR,Flandes,Tolima,Aeródromo,4.2595,-74.8308,AEROTURBO DE COLOMBIA,LUIS FDO. BARRETO CAVIEDES,280.0,10.0,500.0,,992.0," 5730,000",2012-10-09,2015-12-03,UL,Privado,,73,73275
29,7HB,,HOTEL SAN DIEGO,Puerto Gaitán,Meta,Aeródromo,3.7693,-71.8179,MADYGAN S.A.S.,MADYGAN S.A.S.,800.0,18.0,4000.0,,725.0," 6730,000",2012-11-26,2015-12-03,2A,Privado,92.0,50,50568
30,7HC,,EL CAFUCHE,La Primavera,Vichada,Aeródromo,5.3152,-70.0184,ANDRES CARVAJAL MOLINA,ANDRES CARVAJAL MOLINA,850.0,18.0,4000.0,,384.0," 3826,000",2013-07-30,2016-08-01,1A,Privado,1.0,99,99524
31,7HD,,BOSQUES DE LA PRIMAVERA,La Primavera,Vichada,Aeródromo,5.3489,-69.7467,MARIA A. RIVERA AGUDELO,MARIA A. RIVERA AGUDELO,800.0,18.0,3000.0,,396.0," 1444,000",2015-06-17,,1A,Privado,,99,99524
32,7HE,,GUACHARACAS (COLOMBAIMA),Beltrán,Cundinamarca,Aeródromo,4.7371,-74.8021,EMPRESA GUACHARACAS,CCA. LTDA,700.0,10.0,3000.0,,797.0," 5920,000",2012-10-19,,1A,Privado,1.0,25,25086
33,7HF,,GAVILAN DE LA PASCUA,La Primavera,Vichada,Aeródromo,5.1166,-70.3806,RESGUARDO INDIGENA ORIPGA,RES. INDIGENA ORIPGA,1200.0,15.0,3500.0,,419.0," 7257,000",2012-12-20,,1A,Público,85.0,99,99524
34,7HG,,DOROTEA B1,Paz de Ariporo,Casanare,Aeródromo,5.5122,-71.0248,NEW GRANADA ENERGY,NEW GRANADA ENERGY,1000.0,18.0,,,404.0," 2362,000",2013-05-27,,2A,Privado,1029.0,85,85250
35,7HH,,HORIZONTES,Piedecuesta,Santander,Aeródromo,7.0017,-73.1037,DESARROLLOS METROPOLITANOS,DESARROLLOS METROPOLITANOS,610.0,12.0,3500.0,,4195.0," 5186,000",2013-09-24,,1A,Privado,,68,68547
36,7HJ,,MACOLLA,Maní,Casanare,Aeródromo,4.7713,-72.0714,GRAMERCY S.A.S.,AGROPECUARIA CACOLLA S.A.S.,950.0,18.0,5000.0,,548.0," 2134,000",2013-05-16,,1A,Privado,12.0,85,85139
37,7HK,,MULETOS- CA,Maní,Casanare,Aeródromo,4.5549,-72.1753,MULETOS S.A.S.,MULETOS S.A.S.,350.0,10.0,500.0,,790.0," 2142,000",2013-05-16,,UL,Privado,,85,85139
38,7HL,,LA MAPORA,Pore,Casanare,Aeródromo,5.6459,-71.9887,PAULA ANDREA CANO A.,PAULA ANDREA CANO,350.0,10.0,500.0,,497.0," 2199,000",2013-05-17,,1A,Privado,,85,85263
39,7HM,,LLANO CAUCHO,Cumaribo,Vichada,Aeródromo,4.4355,-70.6954,AGROINDUSTRIALES DEL ORIENTE,AGROINVERSIONES DEL ORIENTE S.A.S,900.0,15.0,12000.0,,434.0," 5189,000",2013-09-24,,1A,Privado,10.0,99,99773
40,7HN,,ARMENIA,Paz de Ariporo,Casanare,Aeródromo,5.787,-70.1835,LUIS JOSE CALA LOPEZ,LUIS JOSE CALA LOPEZ,800.0,15.0,3000.0,,380.0," 4734,000",2013-09-06,,1A,Privado,,85,85250
41,7HO,,EDGAR CALDAS POTES-CA,Calima,Valle del Cauca,Aeródromo,3.9159,-76.4813,ALEJANDRO A. CALDAS V.,ALEJANDRO A. CALDAS V.,350.0,10.0,400.0,,1462.0," 1311,000",2014-03-13,,1A,Privado,,76,76126
42,7HQ,,GENERAL ADELMO RUIZ M.,Ricaurte,Cundinamarca,Aeródromo,4.35,-74.7511,EDUARDO A. VIVEROS,ACAF,210.0,15.0,500.0,,987.0,"   46,000",2014-01-08,,1A,Privado,,25,25612
43,7HR,,RANCHO COLIBRI - CA,Roldanillo,Valle del Cauca,Aeródromo,4.4586,-76.1258,HENRY D. F. ORTIZ SILVA,HENRY D. F. ORTIZ SILVA,215.0,10.0,500.0,,3083.0," 7091,000",2013-12-19,2017-01-09,1A,Privado,,76,76622
44,7HS,,CASTILLO - CA,Manatí,Atlántico,Aeródromo,10.4089,-74.9963,DIANA MARIA SOLANO D.,DIANA MARIA SOLANO D.,360.0,10.0,500.0,,20.0,"  706,000",2014-02-12,,1A,Privado,,8,8436
45,7HT,,MANARE,Paz de Ariporo,Casanare,Aeródromo,5.9761,-70.1575,HERNAN GOMEZ NIÑO,HERNAN GOMEZ NIÑO,1100.0,23.0,4000.0,,334.0," 1577,000",2014-03-26,,1A,Privado,19.0,85,85250
46,7HU,,GUANAGUANARE,La Primavera,Vichada,Aeródromo,5.4739,-69.9014,INVERSIONES GUANAGUANARE,INV. GUANAGUANARE,800.0,10.0,5000.0,,400.0," 2132,000",2014-04-25,,1A,Privado,,99,99524
47,7HV,,LA BENDICION,La Primavera,Vichada,Aeródromo,6.0627,-69.1783,SERGIO ANDRES ESPINOSA F.,SERGIO A. ESPINOSA FLOREZ,1200.0,15.0,5000.0,,360.0," 2498,000",2014-05-12,,1A,Privado,47.0,99,99524
48,7HW,,CABARALEZ,Puerto Wilches,Santander,Aeródromo,7.3283,-73.7965,RICARDO FIGUEREDO M.,RICARDO FOGUEREDO M.,700.0,12.0,3500.0,,324.0," 3060,000",2014-06-10,,1A,Privado,,68,68575
49,7HX,,PIVIJAY,La Primavera,Vichada,Aeródromo,5.1288,-69.9716,FERNANDO CUSTAS PATACON,FERNANDO CUSTAS P.,900.0,20.0,3500.0,,426.0," 3063,000",2014-06-10,,1A,Privado,8.0,99,99524
50,7HY,,HOTEL DEL CAMPO - CA,Quimbaya,Quindío,Aeródromo,4.6123,-75.8132,JUAN B. URIBE S.,LUIS BERRENECHE RIVERA,180.0,10.0,500.0,,3828.0," 2492,000",2014-05-12,2017-07-09,1A,Privado,,63,63594
51,7HZ,,MAXIMENA,Maní,Casanare,Aeródromo,4.4723,-72.1094,PALMERAS MAXIMENA S.A.S,PALMERAS MAXIMENA,1300.0,18.0,5000.0,,426.0," 4213,000",2014-08-06,,1A,Privado,,85,85139
52,7IA,,MURIBA,Maní,Casanare,Aeródromo,4.5809,-72.2551,VITIS OLEI S.A.S.,VITIS OLEI S.A.S.,1300.0,18.0,5000.0,,432.0," 4214,000",2014-08-06,,1A,Privado,,85,85139
53,7IB,,MAJAGUILLO,Orocué,Casanare,Aeródromo,4.832,-71.6902,FELIPE GOMEZ H. y CIA.,FELIPE GOMEZ H. y CIA.,1000.0,20.0,4800.0,,499.0," 5386,000",2014-10-28,2017-11-05,1A,Privado,,85,85230
54,7IC,,VOLAR COLOMBIA,La Pintada,Antioquia,Aeródromo,5.7735,-75.603,CRISTIAN CAMILO MONCADA A.,CRISTIAN C. MONCADA A.,260.0,8.0,500.0,,2559.0,"   11,000",2015-01-05,,1A,Privado,,5,5390
55,7ID,,LA MACOYA,Yopal,Casanare,Aeródromo,5.2262,-72.1478,ELSON HERNANDO SIERRA,ELSON H. SIERRA QUICENO,580.0,15.0,3000.0,,474.0,"    9,000",2015-01-05,,1A,Privado,,85,85001
56,7IE,,LIMA,Fundación,Magdalena,Aeródromo,10.3794,-74.1114,JORGE SOLANO RECIO,JORGE SOLANO RECIO,700.0,16.0,3500.0,,395.0,"   10,000",2015-01-05,,1A,Privado,,47,47288
57,7IF,,LOS VENADOS,La Primavera,Vichada,Aeródromo,5.0666,-69.9988,GUILLERMO FRANCO RESTREPO,GUILLERMO FRANCO R.,1560.0,23.0,6500.0,,475.0,"  515,000",2015-03-10,,2A,Privado,,99,99524
58,7IG,,LA FORTUNA 1,San Martín,Meta,Aeródromo,3.611,-72.3412,LUIS C. CASTRO M.,RAFAEL FDO. GAVIRIA A.,800.0,18.0,4000.0,,482.0,"  640,000",2015-03-20,,1A,Privado,,50,50689
59,7IH,,LOS KIOSCOS,Puerto Gaitán,Meta,Aeródromo,3.4747,-72.2349,MARTHA I. PABON PADILLA,MARTHA I. PABON PADILLA,800.0,12.0,5000.0,,770.0,"  690,000",2015-03-31,,1A,Privado,,50,50568
60,7II,ECO,EL ENCANTO,El Encanto,Amazonas,Aeródromo,-1.7525,-73.2058,GOBERNACION,GOBERNACION,780.0,20.0,5000.0,,406.0,"  830,000",2015-04-15,,1A,Público,,91,91263
61,7IJ,,LA LORENA,Paz de Ariporo,Casanare,Aeródromo,5.6092,-70.421,BUSHIRO TAKEMOTO,BUSHIRO TAKEMOTO,800.0,15.0,3000.0,,347.0," 1443,000",2015-06-17,,1A,Privado,,85,85250
62,7NP,,EL CAIRANO,Santa Catalina,Bolívar,Aeródromo,10.7124,-75.2649,CARLOS E. GUERRERO,ENRIQUE MORALES NUÑEZ,215.0,10.0,400.0,,30.0,"  998,000",2012-03-01,,UL,Privado,,13,13673
63,7NQ,,EL PARAISO,La Primavera,Vichada,Aeródromo,5.1826,-69.6303,RUBEN D. VELASQUEZ,RUBEN D. VELASQUEZ,1100.0,20.0,3000.0,,387.0," 5533,000",2014-11-11,2017-12-02,1A,Privado,2.0,99,99524
64,7NR,,NUEVA ROMA,Plato,Magdalena,Aeródromo,9.968,-74.3303,JORGE SOLANO RECIO,JORGE SOLANO RECIO,550.0,10.0,3000.0,,462.0," 4503,000",2012-08-16,,1A,Privado,1.0,47,47555
65,7NS,,JAGUAR,Puerto Gaitán,Meta,Aeródromo,4.2161,-72.0275,CEPCOLSA,CEPCOLSA,1200.0,23.0,,,650.0," 4940,000",2012-09-06,2015-10-10,2B,Privado,980.0,50,50568
66,7NT,,OCELOTE,Puerto Gaitán,Meta,Aeródromo,4.2751,-71.6123,HOCOL S.A.,HOCOL S.A.,1200.0,20.0,,,690.0," 5922,000",2012-10-19,,2B,Privado,1159.0,50,50568
67,8CB,,BANCO DE LA REPUBLICA- CONDOTO,Condoto,Chocó,Aeródromo,,,,,,,,,,,,,,,7.0,27,27205
68,9AA,,BONAIRE  - CA,Ayapel,Córdoba,Aeródromo,8.2851,-75.0505,INDUSTRIAS DIPSA S.A.S.,INDUSTRIAS DIPSA S.A.S.,350.0,10.0,500.0,,100.0,"    8,000",2015-01-05,,UL,Privado,,23,23068
69,9AB,,GETSEMANI,Hato Corozal,Casanare,Aeródromo,6.1506,-70.0294,MUNICIPIO,MUNICIPIO,800.0,14.0,2000.0,,304.0," 2220,000",2004-06-10,,1A,Público,112.0,85,85125
70,9AC,,MARIA ALEJANDRA,Nunchía,Casanare,Aeródromo,5.0054,-72.3959,CIRO GUILLERMO VEGA N.,SAMBA LTDA.,640.0,10.0,2000.0,,734.0," 2493,000",2014-05-12,,1A,Fumigación,3.0,85,85225
71,9AD,,URACA - CA.,Puerto Colombia,Atlántico,Aeródromo,11.0062,-74.9224,NORA CARVAJALINO,ALAS DEL CARIBE,320.0,10.0,800.0,,204.0," 5624,000",2013-10-11,2016-11-12,UL,Privado,,8,8573
72,9AG,,LIBANO - CA,Bosconia,Cesar,Aeródromo,,,,,,,,,,,,,,,1.0,20,20060
73,9AH,,SAN ROQUE  - CA.,San Pedro,Valle del Cauca,Aeródromo,4.0039,-76.2209,IRMA HERNANDEZ DE M.,JAKOB OLIVIER,235.0,10.0,400.0,,3366.0," 5622,000",2013-10-11,,UL,Privado,,76,76670
74,9AI,,CAÑO GARZA,Paz de Ariporo,Casanare,Aeródromo,5.5917,-71.5894,PERENCO COLOMBIA LIMITED,PERENCO COLOMBIA LIMITED,640.0,15.0,12202.0,,530.0,"  933,000",2015-04-24,,1A,Privado,4578.0,85,85250
75,9AJ,,SAN LUIS DE PACA,Mitú,Vaupés,Aeródromo,0.8744,-70.3464,RESGUARDO INDIGENA,GOBERNACION DEL VAUPES,424.0,10.0,1650.0,,590.0," 3423,000",1997-09-16,,1A,Público,78.0,97,97001
76,9AK,,CANANARI,Mitú,Vaupés,Aeródromo,0.545,-70.9286,RESGUARDO INDIGENA,GOBERNACION DEL VAUPES,420.0,20.0,1650.0,,780.0," 3423,000",1997-09-16,,1A,Público,126.0,97,97001
77,9AL,,LAS GUABINAS,Orocué,Casanare,Aeródromo,,,,,,,,,,,,,,,1.0,85,85230
78,9AM,,SAN FERNANDO,Paz de Ariporo,Casanare,Aeródromo,,,,,,,,,,,,,,,10.0,85,85250
79,9AN,,MARAREY,Orocué,Casanare,Aeródromo,4.8281,-71.0808,JULIAN VALENCIA I. Y OTROS,JULIAN VALENCIA I. Y OTROS,700.0,15.0,4800.0,,498.0," 2001,000",2013-05-08,2016-05-09,1A,Privado,226.0,85,85230
80,9AO,,SANTA CLARA,Sabanalarga,Casanare,Aeródromo,4.4172,-72.7744,ARMANDO SANCHEZ M.,TAES LTDA.,800.0,10.0,2500.0,,610.0," 2137,000",2013-05-16,,1A,Fumigación,23.0,85,85300
81,9AR,,SAN PABLO,Mitú,Vaupés,Aeródromo,-0.7831,-70.3228,RESGUARDO INDIGENA,GOBERNACION DEL VAUPES,510.0,10.0,1650.0,,550.0," 3423,000",1997-09-16,,1A,Público,86.0,97,97001
82,9AS,,SIRENAS,Trinidad,Casanare,Aeródromo,5.2541,-71.1576,PERENCO COLOMBIA LIMITED,PERENCO COLOMBIA LIMITED,600.0,18.0,5000.0,,443.0," 3058,000",2014-06-10,2017-06-11,1A,Privado,2498.0,85,85430
83,9AT,,COROCITO,Puerto López,Meta,Aeródromo,3.9507,-72.2186,AGROINVERSIONES COROCITO,AGROINVERSIONES COROCITO,980.0,10.0,3000.0,,544.0," 1838,000",2013-04-26,,1A,Privado,7.0,50,50573
84,9AU,,LAS FURIAS,Nunchía,Casanare,Aeródromo,5.4039,-72.1228,MAURICIO CALA PEREZ,SFA LTDA.,800.0,10.0,2000.0,,688.0," 5611,000",2012-10-04,2015-10-09,1A,Fumigación,,85,85225
85,9AV,,EL NOGAL,Villavicencio,Meta,Aeródromo,3.9883,-73.2994,GLORIA L.TIUSO,AEROTEC LTDA.,610.0,10.0,2000.0,,817.0," 4739,000",2012-08-29,,1A,Fumigación,,50,50001
86,9AX,,SANTA CRUZ,Puerto López,Meta,Aeródromo,4.1318,-73.1814,JULIO STRAUCH D.,COMERCIALIZADORA ECO,650.0,10.0,2000.0,,659.0," 2685,000",2011-05-25,,1A,Fumigación,,50,50573
87,9AZ,,REMACHE SUR,San Luis de Palenque,Casanare,Aeródromo,5.0832,-71.1525,DESIDERIO CHAPARRO,PERENCO COLOMBIA LIMITED,600.0,18.0,5000.0,,459.0," 3058,000",2014-06-10,2017-06-11,1A,Privado,3353.0,85,85325
88,9BA,,CURUMANI,Curumaní,Cesar,Aeródromo,9.2222,-73.5722,MUNICIPIO,FADELCE,900.0,23.0,2000.0,,164.0," 2989,000",2008-07-02,,2A,Fumigación,,20,20228
89,9BB,,SAN MIGUEL,Puerto López,Meta,Aeródromo,4.1069,-72.89,ELIZABETH CRUZ BULLA,SAAC S.A.S,670.0,10.0,2000.0,,803.0,"  251,000",2012-02-01,2015-02-09,1A,Fumigación,105.0,50,50573
90,9BC,,CANTADELICIAS,Alpujarra,Tolima,Aeródromo,3.3873,-74.9338,MUNICIPIO,MUNICIPIO,700.0,15.0,12200.0,,4213.0," 4541,000",2005-10-13,,1A,Público,,73,73024
91,9BD,,CURALITO - UL,Valledupar,Cesar,Aeródromo,10.2729,-73.2798,JORGE LUIS PRIETO BERRIO,JORGE LUIS PRIETO B.,330.0,12.0,500.0,,1920.0," 1675,000",,2012-05-04,UL,Privado,7.0,20,20001
92,9BE,,LAS VEGAS,Paz de Ariporo,Casanare,Aeródromo,6.0072,-71.2842,ALEIDA JERONIMO NAVAS,ALEIDA JERONIMO NAVAS,740.0,15.0,3500.0,,430.0," 1657,000",2012-04-03,,1A,Privado,15.0,85,85250
93,9BF,,LA FRANCIA,El Paso,Cesar,Aeródromo,9.6394,-73.5282,SOCIEDAD COLOMBIAN NATURAL RESOURCES,EL MISMO,1100.0,18.0,,,213.0,"  962,000",2011-03-02,,1B,Privado,149.0,20,20250
94,9BG,,AGUAS BLANCAS,San Alberto,Cesar,Aeródromo,7.8197,-73.5719,PALMAS BELLAVISTA S.A.,CELTA LTDA.,800.0,15.0,3000.0,,174.0," 4942,000",2014-09-22,,1A,Fumigación,,20,20710
95,9BH,,GUAFITAS,Orocué,Casanare,Aeródromo,,,,,,,,,,,,,,,279.0,85,85230
96,9BI,,SAN FELIPE,Orocué,Casanare,Aeródromo,5.1037,-71.8425,MARIA LUCILA REYES ORDOÑEZ,MARIA LUCILA REYES O.,700.0,14.0,2000.0,,554.0,"  800,000",2010-02-18,,1A,Privado,10.0,85,85230
97,9BK,,JULIAN,Cabuyaro,Meta,Aeródromo,4.2711,-72.9869,HERNANDO JIMENEZ,ASAM LTDA,800.0,10.0,2500.0,,735.0," 3181,000",2009-06-24,2012-07-06,1A,Fumigación,,50,50124
98,9BL,,LOS HALCONES,Bugalagrande,Valle del Cauca,Aeródromo,3.9178,-76.3206,DIEGO TORRES NUÑEZ,DIEGO TORRES NUÑEZ,350.0,10.0,500.0,,3232.0," 6678,000",2012-11-22,2016-01-04,1A,Privado,10.0,76,76113
99,9BN,,EL SOÑADOR,Aguazul,Casanare,Aeródromo,5.2299,-72.4528,GLORIA M. ALVIRA R.,CELTA LTDA.,700.0,14.0,2000.0,,865.0,"  304,000",2010-01-27,2013-02-09,1A,Fumigación,,85,85010
100,9BO,,VENECIA DE GUANAPALO,San Luis de Palenque,Casanare,Aeródromo,5.3079,-71.9204,COLCONSTRUC LTDA,COLCONSTRUC LTDA.,1000.0,15.0,5500.0,,623.0," 4873,000",2014-09-16,,1A,Privado,38.0,85,85325
101,9BP,,EL CONCHAL - CA,El Cerrito,Valle del Cauca,Aeródromo,3.7273,-76.3902,ARMANDO ARAGON NAVIA,ARMANDO ARAGON NAVIA,200.0,10.0,400.0,,3139.0,"  326,000",2013-02-07,2016-04-01,1A,Privado,,76,76248
102,9BR,,SEVILLA,Hato Corozal,Casanare,Aeródromo,5.9234,-71.7139,HELI CALA LOPEZ,HELI CALA LOPEZ,700.0,15.0,3000.0,,682.0," 4729,000",2013-09-06,,1A,Privado,,85,85125
103,9BS,,LA COMARCA,Trinidad,Casanare,Aeródromo,,,,,,,,,,,,,,,3.0,85,85430
104,9BT,,ASA SAN MARTIN,Riohacha,La Guajira,Aeródromo,11.2889,-73.1756,ASA S EN C,ASA S. EN C.,830.0,15.0,4500.0,,49.0," 5612,000",2012-10-04,,1A,Fumigación,,44,44001
105,9BW,,LA FAZENDA,Puerto López,Meta,Aeródromo,4.3263,-72.2208,ALIAR S.A.,ALIAR S.A.,1200.0,12.0,5000.0,,568.0," 1941,000",2013-05-03,2016-05-07,2B,Fumigación,42.0,50,50573
106,9BX,,LA ESTRELLA-CA.,San Martín,Meta,Aeródromo,3.4802,-73.3276,CLUB LA LIBELULA,CLUB LA LIBELULA,300.0,75.0,500.0,,787.0,"  679,000",2011-02-15,,UL,Privado,,50,50689
107,9BY,,SAN EDUARDO,Orocué,Casanare,Aeródromo,4.6422,-71.8104,EDUARDO J. GONZALEZ A.,EDUARDO J- GONZALEZ,800.0,12.0,2500.0,,580.0," 1580,000",2014-03-26,,1A,Privado,12.0,85,85230
108,9BZ,,RIOSUCIO,Riosucio,Chocó,Aeródromo,7.4164,-77.0595,MUNICIPIO,MUNICIPIO,706.0,9.0,5670.0,,72.0," 3430,000",2014-06-27,,1A,Público,7.0,27,27615
109,9CA,,LAS AGUILAS -CA,Yumbo,Valle del Cauca,Aeródromo,3.5134,-76.4931,SERESTEL S.A.,CLUB DEPORT.LAS AGUILAS,320.0,10.0,500.0,,3100.0," 4939,000",2012-09-06,,1A,Privado,,76,76892
110,9CB,,CAMARUCOS,Paz de Ariporo,Casanare,Aeródromo,5.8754,-70.6583,ALCALDIA,ALCALDIA,1200.0,15.0,2000.0,,367.0," 4541,000",2006-10-27,2016-11-07,1A,Público,5.0,85,85250
111,9CC,,EL TOTUMO,Paz de Ariporo,Casanare,Aeródromo,5.9387,-71.2217,MUNICIPIO,MUNICIPIO,520.0,15.0,2000.0,,476.0," 4541,000",2006-10-27,2016-11-07,1A,Público,8.0,85,85250
112,9CD,,VARSOVIA,Paz de Ariporo,Casanare,Aeródromo,5.849,-70.3648,MUNICIPIO,MUNICIPIO,550.0,15.0,2000.0,,328.0," 4541,000",2006-10-27,2016-11-07,1A,Público,47.0,85,85250
113,9CE,,LA HERMOSA,Paz de Ariporo,Casanare,Aeródromo,5.5307,-70.4497,MUNICIPIO,MUNICIPIO,884.0,15.0,2000.0,,338.0," 4541,000",2006-10-27,2016-11-07,1A,Público,119.0,85,85250
114,9CF,,SAN ESTEBAN,Paz de Ariporo,Casanare,Aeródromo,5.4441,-70.8352,MUNICIPIO,MUNICIPIO,580.0,15.0,2000.0,,377.0," 4541,000",2006-10-27,2016-11-07,1A,Público,5.0,85,85250
115,9CG,,SAN JOSE DEL ARIPORO,Paz de Ariporo,Casanare,Aeródromo,6.0475,-70.0128,MUNICIPIO,MUNICIPIO,570.0,15.0,2000.0,,318.0," 4541,000",2006-10-27,2016-11-07,1A,Público,146.0,85,85250
116,9CH,,COLINERAS,Paz de Ariporo,Casanare,Aeródromo,6.0713,-70.3678,MUNICIPIO,MUNICIPIO,410.0,15.0,2000.0,,338.0," 4541,000",2006-10-27,2016-11-07,1A,Público,1.0,85,85250
117,9CI,,LA CAIMANA,Paz de Ariporo,Casanare,Aeródromo,6.052,-70.8134,MUNICIPIO,MUNICIPIO,615.0,15.0,2000.0,,400.0," 4541,000",2006-10-27,2016-11-07,1A,Público,11.0,85,85250
118,9CJ,,EMAUS,San Luis de Palenque,Casanare,Aeródromo,5.1483,-71.0453,LUIS F. CASTILLO SANTOS,LUIS F. CASTILLO SANTOS,740.0,10.0,2500.0,,430.0," 1945,000",2013-05-03,,1A,Privado,41.0,85,85325
119,9CK,,SANTA MARIA DEL CAFÉ,Hato Corozal,Casanare,Aeródromo,6.1111,-70.9888,MUNICIPIO,EL MISMO,510.0,15.0,2000.0,,427.0," 4543,000",2006-10-27,,1A,Público,,85,85125
120,9CL,,LA VENTUROSA,San Luis de Palenque,Casanare,Aeródromo,5.2388,-71.3035,MUNICIPIO,EL MISMO,620.0,15.0,2000.0,,459.0," 4542,000",2006-10-27,,1A,Público,1.0,85,85325
121,9CM,,MIRAMAR DE GUANAPALO,San Luis de Palenque,Casanare,Aeródromo,5.0541,-71.0012,MUNICIPIO,EL MISMO,425.0,15.0,2000.0,,394.0," 4542,000",2006-10-27,,1A,Público,1.0,85,85325
122,9CP,,LA SALVACION,Paz de Ariporo,Casanare,Aeródromo,5.9988,-70.6316,ALCALDIA,ALCALDIA,700.0,15.0,2000.0,,384.0," 4807,000",2006-11-14,,1A,Público,,85,85250
123,9CQ,,LOMA GRANDE - CA,Ayapel,Córdoba,Aeródromo,8.2937,-75.1176,O.V. OROZCO Y CIA. S.C.A.,EL MISMO,350.0,10.0,400.0,,1280.0," 3341,000",2010-06-30,,UL,Privado,,23,23068
124,9CR,,EL CAPRICHO,Puerto Gaitán,Meta,Aeródromo,4.2018,-72.1632,JORGE E. SALAZAR B.,EL MISMO,700.0,18.0,4500.0,,551.0,"  329,000",2013-02-07,2016-04-05,1A,Privado,1.0,50,50568
125,9CU,,COROCORA,Trinidad,Casanare,Aeródromo,5.3751,-70.969,DORA AVELLA VDA.DE PAN,PERENCO COLOMBIA LIMITED,740.0,18.0,5000.0,,430.0," 1000,000",2012-03-01,,1A,Privado,2486.0,85,85430
126,9CX,,SAN JUAN,Maní,Casanare,Aeródromo,4.8437,-72.3006,MARIA ILSE BERRIO,AGIL LTDA.,750.0,10.0,2000.0,,591.0," 1055,000",2014-02-28,2017-03-11,1A,Fumigación,2.0,85,85139
127,9CY,,LA MEJOR,Restrepo,Meta,Aeródromo,4.1538,-73.3205,JOSE A. REINA P.,SADELL S.A.S.,740.0,10.0,2000.0,,844.0," 1125,000",2015-05-14,,1A,Fumigación,1.0,50,50606
128,9CZ,,GRISMANIA,Aguazul,Casanare,Aeródromo,4.989,-72.5099,LUZ MARINA VARGAS,SFA LTDA.,900.0,10.0,2000.0,,669.0," 6670,000",2010-12-07,,1A,Fumigación,1.0,85,85010
129,9DA,,BALMORAL,Maní,Casanare,Aeródromo,4.8864,-72.3439,MELIDA OVALLE Y OTROS,AEROTEC LTDA.,840.0,10.0,2000.0,,652.0,"  694,000",2015-03-31,2017-04-08,1A,Fumigación,1.0,85,85139
130,9DB,,PALMAS DE TUMACO  -CA,San Andrés de Tumaco,Nariño,Aeródromo,1.496,-78.765,PALMAS DE TUMACO S.A.,PALMAS DE TUMACO S.A.,225.0,10.0,500.0,,136.0," 1897,000",2011-04-11,2014-06-08,UL,Privado,1.0,52,52835
131,9DC,,INGENIO LA CARMELITA,Riofrío,Valle del Cauca,Aeródromo,4.0727,-76.316,SOCIEDAD GARRIDO,ING. LA CARMELITA,300.0,10.0,500.0,,3087.0," 2961,000",2013-06-20,2015-08-05,1A,Fumigación,,76,76616
132,9DE,,LUNA PARK,La Primavera,Vichada,Aeródromo,5.128,-70.4931,DAVID ALFONSO MATTOS L.,DAVID ALFONSO MATTOS,1200.0,15.0,12000.0,,410.0," 1056,000",2014-02-28,2017-03-06,1A,Privado,97.0,99,99524
133,9DF,,EL PORTAL,San Alberto,Cesar,Aeródromo,,,,,,,,,,,,,,,2.0,20,20710
134,9DG,,EL LAGO - CA,Piedras,Tolima,Aeródromo,4.5575,-74.9003,BERNEY RODRIGUEZ,OSMANI RODRIGUEZ CARDOZO,350.0,10.0,500.0,,1050.0," 6744,000",2010-12-13,,UL,Privado,,73,73547
135,9DH,,HACIENDA LA JOYA,Córdoba,Bolívar,Aeródromo,9.6179,-74.8367,TRIPENTA S.A.,AGROTEMPO LTDA.,720.0,10.0,2000.0,,82.0,"    9,000",2013-01-03,2016-01-09,1A,Privado,,13,13212
136,9DI,,SAN FELIPE,San Felipe,Guainía,Aeródromo,1.915,-67.0776,GOBERNACION,GOBERNACION,1100.0,22.0,25000.0,,312.0,"  545,000",2008-02-13,,1A,Público,89.0,94,94883
137,9DJ,,LA PAULINA,La Paz,Cesar,Aeródromo,9.9129,-73.4795,AMA LTDA.,AMA LTDA.,725.0,15.0,2000.0,,210.0," 3939,000",2014-07-25,,1A,Fumigación,,20,20621
138,9DK,,EL VATICANO,Paratebueno,Cundinamarca,Aeródromo,4.287,-73.1876,ROMULO PINEDA GARCIA,HELICE LTDA.,800.0,10.0,2000.0,,738.0,"  999,000",2015-05-05,2018-06-02,1A,Fumigación,,25,25530
139,9DL,,LA PASTORA,Arauca,Arauca,Aeródromo,6.798,-70.9777,SAO E.U,SAO E.U.,740.0,10.0,2000.0,,600.0," 2139,000",2013-05-16,,1A,Fumigación,,81,81001
140,9DM,,LA VEREMOS,San Luis de Palenque,Casanare,Aeródromo,5.338,-71.6004,ALVARO PEREZ,HELICE LTDA.,840.0,15.0,2000.0,,574.0,"  119,000",2015-01-21,2018-03-09,1A,Fumigación,,85,85325
141,9DN,,SAN FRANCISCO,Puerto Gaitán,Meta,Aeródromo,4.26,-71.9146,PROYECTOS LA FAZENDA,AGROPECUARIA ALIAR S.A.,1200.0,18.0,5000.0,,712.0," 5521,000",2014-11-11,2017-11-12,2A,Fumigación,3.0,50,50568
142,9DO,,TALANQUERA,Puerto López,Meta,Aeródromo,4.141,-73.032,FERNANDO TOVAR TAMAYO,COMERCIALIZADORA ECO,740.0,10.0,2000.0,,179.0," 6016,000",2012-10-23,,1A,Fumigación,,50,50573
143,9DP,,SHANGRI-LA,Riohacha,La Guajira,Aeródromo,11.2786,-73.1283,CI. SAMARIA,ASA S.A.S.,650.0,10.0,3000.0,,82.0,"  833,000",,,1A,Fumigación,,44,44001
144,9LD,,LA LUCHA,Ciénaga,Magdalena,Aeródromo,10.97,-74.1833,FUMIGARAY S.A.,FUMIGARAY S.A.,750.0,10.0,3600.0,,567.0," 5967,000",2014-12-15,,1A,Fumigación,,47,47189
145,9LG,,VILLA GEORGINA,Tauramena,Casanare,Aeródromo,4.3625,-74.3214,SANTIAGO PULIDO NIÑO,COMERCIALIZAD. ECO,710.0,10.0,2000.0,,594.0,,2012-10-16,,1A,Fumigación,,85,85410
146,9LH,,INGENIO PICHICHI,Guacarí,Valle del Cauca,Aeródromo,3.5347,-76.1653,INGENIO PICHICHI S.A.,INGENIO PICHICHI,340.0,10.0,500.0,,3215.0," 2951,000",2013-06-20,2015-08-05,1A,Fumigación,,76,76318
147,9LI,,SAN SEBASTIAN,Cabuyaro,Meta,Aeródromo,4.3356,-72.7803,NELLY ZARATE,AEROTEC LTDA.,740.0,10.0,2000.0,,680.0," 4738,000",2012-08-20,,1A,Fumigación,30.0,50,50124
148,9LJ,,EL COROZO,Arauca,Arauca,Aeródromo,6.9136,-70.8562,NEBIO ECHEVERRY,FUMIVILLA,750.0,10.0,2000.0,,416.0," 2141,000",2013-05-16,,1A,Fumigación,,81,81001
149,9LK,,HATO VIEJO,Arauca,Arauca,Aeródromo,6.8964,-70.7791,COMERCIALIZADORA EL PROVEEDOR LTDA.,FUMIVILLA,750.0,10.0,2000.0,,416.0," 2141,000",2013-05-16,,1A,Fumigación,,81,81001
150,9LL,,CIENFUEGOS,Paz de Ariporo,Casanare,Aeródromo,5.5831,-71.7289,JAIRO GRANADOS CEIJA,SAO E.U.,800.0,10.0,2000.0,,574.0," 1315,000",2014-03-13,,1A,Fumigación,,85,85250
151,9LM,,LA TRINIDAD,Puerto Rico,Meta,Aeródromo,,,,,,,,,,,,,,,2.0,50,50590
152,9LN,,GUADUALITO,Nunchía,Casanare,Aeródromo,5.4593,-71.912,CUPERTINO CUEVAS D.,SANAR S.A.,700.0,10.0,3000.0,,639.0," 4943,000",2012-09-06,,1A,Fumigación,,85,85225
153,9LP,,LA REDENCION,Pore,Casanare,Aeródromo,5.6618,-71.8088,MARIA DEL S. MONTOYA,FRANCISCO H. MARTINEZ,750.0,10.0,2000.0,,636.0," 3053,000",2013-06-26,,1A,Privado,,85,85263
154,9LQ,,LA PONDEROSA,Puerto Gaitán,Meta,Aeródromo,4.6316,-71.2141,MONICA COLOMBIA LTDA.,MONICA COLOMBIA LTDA,1200.0,18.0,3000.0,,537.0," 5243,000",2012-09-19,,2A,Privado,25.0,50,50568
155,9LR,,LOS REMANSOS,Cimitarra,Santander,Aeródromo,6.5729,-74.2195,NELLY VALENCIA,AEROPENORT LTDA.,700.0,10.0,3000.0,,357.0," 4373,000",2009-08-21,2012-10-08,1A,Fumigación,,68,68190
156,9LS,,SAN LUIS,La Esperanza,Norte de Santander,Aeródromo,7.6382,-73.4381,CRIAGAN S.A.,AEROPENORT LTDA.,770.0,10.0,2000.0,,308.0," 7389,000",2012-12-28,2016-02-12,1A,Fumigación,,54,54385
157,9LT,,LOS GAVANES (LA MATA),Arauca,Arauca,Aeródromo,7.0093,-70.7743,FUMIGAR,FUMIVILLA,760.0,12.0,3000.0,,416.0," 2141,000",2013-05-16,,1A,Fumigación,,81,81001
158,9LU,,EL RODEO,Tauramena,Casanare,Aeródromo,4.5772,-72.6914,JEREMIAS VACA RIAÑO,ASAM LTDA.,800.0,10.0,2000.0,,746.0," 6069,000",2012-10-25,,1A,Fumigación,,85,85410
159,9LW,,EL PALMAR,Nunchía,Casanare,Aeródromo,5.396,-71.9116,MAURICIO MEDINA NIÑO,FIBA S.A.,700.0,10.0,3000.0,,629.0,"  472,000",2013-02-13,,1A,Fumigación,5.0,85,85225
160,9LX,,LA GAITANA,Cabuyaro,Meta,Aeródromo,4.2253,-73.0298,P.VICENTE PERALES,FACOL LTDA.,800.0,10.0,4500.0,,627.0," 1844,000",2013-04-26,,1A,Fumigación,,50,50124
161,9LY,,SAN ISIDRO II,Cumaral,Meta,Aeródromo,4.1585,-73.3408,MARIA A PACHE OCHOA,MARIA A. PACHECO O.,890.0,10.0,2000.0,,175.0," 4730,000",2013-09-06,,1A,Fumigación,,50,50226
162,9LZ,,GABRIELAS,Jamundí,Valle del Cauca,Aeródromo,3.1797,-76.5507,HAROLD BENAVIDEZ,FIBA S.A.,750.0,18.0,3000.0,,3215.0," 1129,000",2015-05-14,2018-07-06,1A,Fumigación,,76,76364
163,9M1,,TRES ESQUINAS AB,Solano,Caquetá,Aeródromo,,,,,,,,,,,,,,,1160.0,18,18756
164,9M2,,LARANDIA,Florencia,Caquetá,Aeródromo,,,,,,,,,,,,,,,824.0,18,18001
165,9MA,,EL DELIRIO,Arauca,Arauca,Aeródromo,6.9831,-70.882,CARMEN A. CABEZAS PEREZ,FUMIVILLA,800.0,10.0,3000.0,,430.0," 5180,000",2011-09-20,2014-10-11,1A,Fumigación,,81,81001
166,9MB,,EL TRIANGULO,Fundación,Magdalena,Aeródromo,10.318,-74.0252,GANADERIA EL TRIANGULO,GANADERIA EL TRIANGULO,700.0,14.0,2000.0,,196.0,"  172,000",2015-01-27,,1A,Privado,,47,47288
167,9MC,,LA MONICA,Tauramena,Casanare,Aeródromo,4.6856,-72.6005,MAURICIO TORRES CUBIDES,ASAM LTDA.,840.0,10.0,2000.0,,554.0," 4896,000",2011-09-06,,1A,Fumigación,,85,85410
168,9MD,,LA ABEJITA,Monterrey,Casanare,Aeródromo,5.0095,-72.3234,JOSE A. VARGAS P.,AGIL LTDA.,840.0,10.0,2000.0,,682.0," 5479,000",2011-09-30,2014-11-09,1A,Fumigación,,85,85162
169,9ME,,CACHIMBALITO - CA,Santander de Quilichao,Cauca,Aeródromo,3.1653,-76.4738,INCAUCA,INCAUCA.S.A. - ASOCAÑA,250.0,10.0,500.0,,3241.0," 2956,000",2013-06-20,2015-08-05,1A,Fumigación,,19,19698
170,9MG,,MADREVIEJA,Nunchía,Casanare,Aeródromo,5.4623,-71.9584,CELMIRA BARRAGAN F.,CELMIRA BARRAGAN F.,1000.0,10.0,2000.0,,640.0," 4509,000",2012-08-16,,1A,Fumigación,,85,85225
171,9MH,,SAN JUAN,San Martín,Meta,Aeródromo,3.7017,-73.3774,RODOLFO MENDEZ,MARIA A. PACHECO O.,740.0,10.0,2000.0,,870.0," 1840,000",2013-04-26,2016-05-03,1A,Fumigación,,50,50689
172,9MI,,LA FORTUNA,Puerto López,Meta,Aeródromo,4.1028,-72.978,SAAC S.A.S,SAAC S.A.S,780.0,15.0,3000.0,,690.0,,2012-04-03,2012-07-03,1A,Fumigación,,50,50573
173,9MJ,,AGROFORESTAL MATA AZUL,Santa Rosalía,Vichada,Aeródromo,5.2897,-70.6337,,RIOPAILA CASTILLA S.A.,1200.0,20.0,6500.0,,118.0," 1478,000",2012-03-23,,1A,Privado,,99,99624
174,9MK,,VILLA ISABELLA,Trinidad,Casanare,Aeródromo,5.2993,-71.3434,RAFAEL QUESADA,TAES LTDA.,800.0,10.0,2000.0,,620.0," 4313,000",2012-08-08,,1A,Fumigación,,85,85430
175,9ML,,MIRADOR,Trinidad,Casanare,Aeródromo,5.4326,-71.6009,ANGELICA VEGA,TAES LTDA.,790.0,10.0,2000.0,,620.0," 4314,000",2012-08-08,,1A,Fumigación,,85,85430
176,9MM,,EL CARIBE,Paz de Ariporo,Casanare,Aeródromo,5.7198,-71.4963,REGULO GAMA OJEDA,FARO LTDA.,800.0,10.0,2000.0,,585.0," 1684,000",2013-04-18,2016-05-03,1A,Fumigación,,85,85250
177,9MN,,EL PEDRAL BONANZA,Puerto Wilches,Santander,Aeródromo,7.2417,-73.8151,,AEROPENORT LTDA.,800.0,10.0,3000.0,,282.0,,2012-05-07,2012-08-07,1A,Fumigación,,68,68575
178,9MO,,SAN NICOLAS,Tauramena,Casanare,Aeródromo,4.4703,-72.4575,CARLOS E. CONTRERAS,ASAM LTDA.,840.0,10.0,2000.0,,585.0," 4510,000",2012-08-16,,1A,Fumigación,,85,85410
179,9MP,,LOS LOBOS,Tauramena,Casanare,Aeródromo,4.4748,-72.7478,AGROVIMART S.A.,AGIL LTDA.,800.0,10.0,3000.0,,580.0," 1685,000",2013-04-18,2016-05-03,1A,Fumigación,,85,85410
180,9MQ,,EL RASTRO,Cumaribo,Vichada,Aeródromo,4.7022,-70.8617,EL RASTRO 1 S.A.S.,EL RASTRO  1 S.A.S,800.0,15.0,2000.0,,545.0," 7391,000",2012-12-28,,1A,Fumigación,,99,99773
181,9MR,,LOS GANSOS,Cumaribo,Vichada,Aeródromo,4.6764,-70.9997,LOS GANSOS 1 S.A.S.,LOS GANSOS 1 S.AS.,900.0,40.0,2000.0,,544.0," 7390,000",2012-12-28,,1A,Fumigación,,99,99773
182,9MS,,BETANIA,Trinidad,Casanare,Aeródromo,5.5319,-71.6812,DIOSELINO ACOSTA,SAO E.U.,800.0,10.0,2000.0,,2030.0," 1216,000",2013-03-20,,1A,Fumigación,1.0,85,85430
183,9MT,,AGUAS CLARAS,Sabana de Torres,Santander,Aeródromo,7.2731,-73.5626,EDGAR MEZA ORTIZ,EDGAR MEZA ORTIZ,800.0,10.0,2500.0,,652.0," 1681,000",2013-04-18,,1A,Fumigación,,68,68655
184,9MV,,MARIA JUANA,Aguazul,Casanare,Aeródromo,5.0054,-72.3959,BLANCA E. BULLA PULIDO,SAAC S.A.S.,800.0,10.0,2000.0,,1191.0," 2137,000",2014-04-25,,1A,Fumigación,,85,85010
185,9MW,,LAS NUBES,Puerto Gaitán,Meta,Aeródromo,4.2563,-71.7977,AGMO NUBES INVER.S.A.S,AGMO NUBES INVERSIONES,1000.0,18.0,4500.0,,1030.0," 1942,000",2013-05-03,2016-05-08,1A,Fumigación,2.0,50,50568
186,9MX,,EL SILENCIO,Paz de Ariporo,Casanare,Aeródromo,5.7555,-71.6583,PEDRO A. VARGAS BECERRA,AEROTEC LTDA.,900.0,10.0,2000.0,,577.0," 2130,000",2014-04-25,,1A,Fumigación,,85,85250
187,9MY,,AFGANISTAN,Paz de Ariporo,Casanare,Aeródromo,5.886,-71.408,JOSE IVAN CORTES P.,SANDRA PATRICIA YATE,900.0,10.0,2000.0,,577.0," 2131,000",2014-04-25,2017-05-06,1A,Fumigación,,85,85250
188,9MZ,,LA FORTALEZA,Paz de Ariporo,Casanare,Aeródromo,5.7953,-71.7571,HENRY MARTINEZ C.,FAAC S.A.S.,840.0,10.0,2000.0,,640.0," 4938,000",2014-09-22,,1A,Fumigación,,85,85250
189,9NA,,LOS GUIRES,Hato Corozal,Casanare,Aeródromo,6.1853,-71.521,EDISON DELGADO,FAAC S.A.S.,840.0,10.0,2000.0,,538.0," 4938,000",2014-09-22,,1A,Fumigación,,85,85125
190,9NB,,LAS PALMAS,La Gloria,Cesar,Aeródromo,8.5803,-73.6619,NAVIAGRI - NAVILOG S.A.,CELTA LTDA.,1000.0,15.0,2500.0,,554.0," 5531,000",2014-11-11,,1A,Fumigación,,20,20383
191,9NC,,LA DALIA,Arauca,Arauca,Aeródromo,6.9687,-70.962,HORACIO E. MARTINEZ G.,HORACIO E. MARTINEZ G.,700.0,10.0,2500.0,,390.0,"  438,000",2015-02-27,2018-03-03,1A,Fumigación,,81,81001
192,9ND,,VILLA VERONICA,Trinidad,Casanare,Aeródromo,5.3884,-71.5896,CRISTINA I. GONZALEZ,TAES LTDA.,800.0,10.0,2000.0,,564.0,"  120,000",2015-01-21,2018-03-06,1A,Fumigación,,85,85430
193,9NE,,SAN CARLOS - CA,Tuluá,Valle del Cauca,Aeródromo,4.0588,-76.2704,MAYAGUEZ S.A.,MAYAGUEZ S.A.,300.0,10.0,500.0,,3320.0,"  620,000",2015-03-19,,1A,Fumigación,,76,76834
194,9NF,,RENSO,Trinidad,Casanare,Aeródromo,5.2417,-71.1909,MARTHA L. PAN A.,TAES LTDA.,800.0,10.0,2000.0,,432.0,"  692,000",2015-03-31,,1A,Fumigación,,85,85430
195,9NG,,REMOLINOS,Puerto López,Meta,Aeródromo,4.2053,-72.6639,BLANCA E. BULLA PULIDO,ECO LTDA.,840.0,10.0,2000.0,,586.0,"  835,000",2015-04-14,,1A,Fumigación,,50,50573
196,9NH,,LOS ARUCOS,Maní,Casanare,Aeródromo,4.9461,-72.2181,LUIS A. SANTOS,SAAC S.A.S.,840.0,10.0,2000.0,,600.0,"  693,000",2015-03-31,,1A,Fumigación,,85,85139
197,9NI,,LA BENDICION DE ARAUCA,Arauca,Arauca,Aeródromo,6.9496,-70.7562,AGROPECUARIA MARIPANATO SAS,HORACIO E. MARTINEZ G.,800.0,10.0,2500.0,,410.0," 1126,000",2015-05-14,,1A,Fumigación,,81,81001
198,9NJ,,BELGRADO,Maní,Casanare,Aeródromo,4.3026,-72.3026,FLORINDA ADAN GARCIA,SAAC S.A.S.,840.0,10.0,2000.0,,682.0,"  834,000",2015-04-14,,1A,Fumigación,,85,85139
199,9NK,,MEXICO,Trinidad,Casanare,Aeródromo,5.495,-71.5189,CARLOS A. ARIZA,SAO S.A.S.,800.0,10.0,2000.0,,568.0,"  997,000",2015-05-05,,1A,Fumigación,,85,85430
200,9NL,,EL TESORO,Trinidad,Casanare,Aeródromo,5.3072,-71.3732,RENSO AMAYA BECERRA,SAO S.A.S.,900.0,10.0,2000.0,,516.0," 1327,000",2015-06-05,2018-07-09,1A,Fumigación,,85,85430
201,A01,,CAMPO ALEGRE,Inírida,Guainía,Aeródromo,1.8653,-69.0101,GOBERNACION,GOBERNACION,450.0,15.0,2000.0,,577.0," 1333,000",2013-03-26,,1A,Público,182.0,94,94001
202,A02,,CAÑO COLORADO,Inírida,Guainía,Aeródromo,2.2774,-68.3599,GOBERNACION,GOBERNACION,1100.0,15.0,12202.0,,413.0," 4419,000",2013-08-23,,1C,Público,7.0,94,94001
203,A03,,FORTUL,Fortul,Arauca,Aeródromo,6.7817,-71.7791,GOBERNACION,MUNICIPIO,700.0,13.0,4000.0,,730.0," 2036,000",2010-04-23,,1A,Público,2.0,81,81300
204,A04,,SANTA ROSA DEL SUR,Santa Rosa del Sur,Bolívar,Aeródromo,7.9629,-76.034,MUNICIPIO,MUNICIPIO,720.0,18.0,5000.0,,61.0," 5959,000",2014-12-15,,1A,Público,258.0,13,13688
205,ABT,,AGUA BLANCA,Piedras,Tolima,Aeródromo,4.4656,-74.9948,SOCIEDAD CULTIVOS SAN JOSE,CRUZ VERDE,680.0,10.0,2000.0,,1994.0," 4508,000",2012-08-18,2015-09-03,1A,Fumigación,17.0,73,73547
206,ACD,ACD,ALCIDES FERNANDEZ,Acandí,Chocó,Regional,8.4969,-77.2739,INCORA LTDA,MUNICIPIO,1200.0,16.0,,,50.0," 1072,000",1969-09-15,,3A,Público,2564.0,27,27006
207,ACI,,EL MONASTERIO,Acacías,Meta,Aeródromo,3.9587,-73.4425,EFA LTDA.,EFA LTDA.,680.0,10.0,2000.0,,948.0," 2634,000",2012-05-24,,1A,Fumigación,4.0,50,50006
208,ACL,ACL,AGUACLARA,Sabanalarga,Casanare,Aeródromo,4.7333,-73.0583,CORREGIMIENTO,CORREGIMIENTO,800.0,25.0,12202.0,,1033.0," 3660,000",2007-08-14,,1C,Público,2.0,85,85300
209,ACP,,ACAPULCO,Nunchía,Casanare,Aeródromo,5.4086,-71.8694,YOLANDA CAMACHO V.,MARIA A. PACHECO OCHOA,870.0,10.0,2000.0,,656.0," 4895,000",2011-09-06,2014-09-09,1A,Fumigación,,85,85225
210,ACR,ACR,ARARACUARA,Solano,Caquetá,Regional,-0.6008,-72.3981,GOBERNACION,GOBERNACION,1300.0,30.0,27000.0,,800.0,"   31,000",1958-02-05,,3C,Público,1778.0,18,18756
211,ADN,,ANDES,Andes,Antioquia,Aeródromo,,,,,,,,,,,,,,,,5,5034
212,ADZ,ADZ,GUSTAVO ROJAS PINILLA,San Andrés,San Andrés islas,Internacional,12.5837,-81.7113,AEROCIVIL,AEROCIVIL,2380.0,36.0,,,18.0,"  352,000",1968-05-17,,4D,Aerocivil,76692.0,88,88001
213,AER,,AEROFLANDES - C.A.,Flandes,Tolima,Aeródromo,4.2171,-74.8454,AEROFLANDES,CLUB.ULTR-LA LIBELULA,240.0,10.0,500.0,,1049.0," 1211,000",2013-03-20,2016-04-10,UL,Privado,,73,73275
214,AFC,,FABAL-COALCESAR,Aguachica,Cesar,Aeródromo,8.2415,-73.6901,COALCESAR,COALCESAR LTDA,650.0,15.0,2000.0,,197.0,"  441,000",,,1A,Fumigación,133.0,20,20011
215,AFD,,FADELCE,Armenia,Quindío,Aeródromo,,,,,,,,,,,,,,,5.0,63,63001
216,AFI,AFI,EL RIO,Amalfi,Antioquia,Aeródromo,6.8954,-75.0475,AEROCIVIL,AEROCIVIL,970.0,20.0,3500.0,,4831.0,"  551,000",1968-10-07,,2A,Aerocivil,258.0,5,5031
217,AGB,,AGUA BLANCA,Espinal,Tolima,Aeródromo,4.1839,-74.8931,FARCA S.A. - COMODATO,SANIDAD VEGETAL CRUZ,750.0,10.0,2000.0,,1095.0," 7095,000",2013-12-19,,1A,Fumigación,4.0,73,73268
218,AGC,,EL FARO,Aguachica,Cesar,Aeródromo,,,,,,,,,,,,,,,8.0,20,20011
219,AGH,,HACARITAMA,Aguachica,Cesar,Aeródromo,8.2473,-73.5821,AEROCIVIL,AEROCIVIL,1310.0,25.0,12202.0,,700.0," 9248,000",1987-07-27,,2C,Aerocivil,1245.0,20,20011
220,AGI,,EL PARAISO,Aguachica,Cesar,Aeródromo,8.1258,-73.5806,SOCIEDAD CHARRY NARVAEZ,CELTA LTDA.,600.0,10.0,2500.0,,328.0," 1127,000",2015-05-14,2018-06-11,1A,Fumigación,6.0,20,20011
221,AGJ,,JAMAICA,Aguazul,Casanare,Aeródromo,5.0905,-72.4462,VICTOR H-TORRES Z.,AVIOCOL LTDA.,750.0,10.0,2000.0,,781.0," 1054,000",2014-02-28,2017-04-08,1A,Fumigación,2.0,85,85010
222,AGT,,AGUA BLANCA,Piedras,Tolima,Aeródromo,,,,,,,,,,,,,,,17.0,73,73547
223,AGU,,MARIA ANGELICA,Aguazul,Casanare,Aeródromo,5.0546,-72.4471,GERMAN ERAZO,CELTA LTDA.,800.0,15.0,2000.0,,720.0," 4736,000",2013-09-06,,1A,Fumigación,5.0,85,85010
224,AGY,,BASE PRINCIPAL CELTA,Aguachica,Cesar,Aeródromo,8.2002,-73.6313,CIA. EN LABORES TEC Y A,CELTA LTDA.,800.0,15.0,2500.0,,305.0," 5318,000",2014-10-21,2017-11-12,1A,Fumigación,543.0,20,20011
225,AGZ,,AGUAZUL,Aguazul,Casanare,Aeródromo,,,,,,,,,,,,,,,10.0,85,85010
226,AIH,,LA MANGA,Aipe,Huila,Aeródromo,,,,,,,,,,,,,,,1.0,41,41016
227,ALR,,ALFEMAR,Juradó,Chocó,Aeródromo,,,,,,,,,,,,,,,389.0,27,27372
228,ALT,,ALTAMIRA,Orocué,Casanare,Aeródromo,4.7586,-71.6386,PALMAR DE ALTAMIRA S.A.S.,PALMAR DE ALTAMIRA S.A.A,1100.0,15.0,5000.0,,492.0," 6124,000",2014-12-24,,1A,Privado,208.0,85,85230
229,ALV,,EL DIAMANTE,Alvarado,Tolima,Aeródromo,4.5694,-74.9337,ELIAS ACOSTA Y CIA LTDA,CRUZ VERDE,620.0,10.0,2000.0,,1312.0," 4728,000",2013-09-06,,1A,Fumigación,2.0,73,73026
230,AMA,,LA AMALIA,Ciénaga,Magdalena,Aeródromo,10.867,-74.1458,ADMINISTRACIONES Y SERVICIOS AEREOS S.A.S.,ASA S.A.S.,800.0,10.0,3000.0,,482.0," 5716,000",2014-11-25,2017-12-02,1A,Fumigación,,47,47189
231,AMB,,EL SANTUARIO,Ambalema,Tolima,Aeródromo,4.9029,-74.7797,HACIENDA ZAPAYAN S.A.,HACIENDA ZAPAYAN S.A.,750.0,10.0,2800.0,,830.0,,2015-06-04,2015-07-04,1A,Fumigación,2.0,73,73030
232,AMN,,PORTUGALITO,Armenia,Quindío,Aeródromo,,,,,,,,,,,,,,,2.0,63,63001
233,ANN,,ANA MARIA,Agustín Codazzi,Cesar,Aeródromo,,,,,,,,,,,,,,,2.0,20,20013
234,APO,APO,ANTONIO ROLDAN BETANCOURT,Carepa,Antioquia,Nacional,7.8118,-76.7164,AEROCIVIL,EN CONCESION- SOACN(Sociedad Operadora de Aeropuertos Centro Norte,2180.0,30.0,,,46.0," 1590,000",1969-06-10,,4C,Aerocivil,40556.0,5,5147
235,APY,API,APIAY - FAC,Villavicencio,Meta,Aeródromo,4.0761,-73.5627,FAC,F A C,1800.0,40.0,,,1200.0,,,,4D,Militar,378.0,50,50001
236,ARA,,LA RUBIERA,Arauca,Arauca,Aeródromo,,,,,,,,,,,,,,,41.0,81,81001
237,ARC,,PERENCO,Yopal,Casanare,Aeródromo,,,,,,,,,,,,,,,17.0,85,85001
238,ARE,,EL CEDRITO -CA,Armenia,Quindío,Aeródromo,,,,,,,,,,,,,,,18.0,63,63001
239,ARG,,ARAGUANEY,Yopal,Casanare,Aeródromo,5.413,-72.285,SANAR S.A.S,SANAR S.A.S.,850.0,10.0,4000.0,,796.0,"  705,000",2014-02-12,,1A,Fumigación,10.0,85,85001
240,ARO,ARO,ARBOLETES,Arboletes,Antioquia,Aeródromo,8.8394,-76.43,MUNICIPIO,MUNICIPIO,1100.0,10.0,6000.0,,13.0," 4381,000",2002-09-04,,2B,Público,5.0,5,5051
241,ARQ,ARQ,EL TRONCAL,Arauquita,Arauca,Aeródromo,7.0211,-71.3889,AEROCIVIL,AEROCIVIL,960.0,12.0,12202.0,,509.0," 1073,000",1969-09-15,,2C,Aerocivil,70.0,81,81065
242,ASA,,ASA-COPEY,El Copey,Cesar,Aeródromo,,,,,,,,,,,,,,,1.0,20,20238
243,ATC,,ATACO,Ataco,Tolima,Aeródromo,3.5837,-75.3891,MUNICIPIO,MUNICIPIO,800.0,15.0,4000.0,,1519.0,"  156,000",1957-07-23,,2A,Público,1.0,73,73067
244,AUC,AUC,SANTIAGO PEREZ QUIROZ,Arauca,Arauca,Nacional,7.0689,-70.737,AEROCIVIL,AEROCIVIL,2100.0,30.0,,,418.0,"  984,000",1987-02-02,,4C,Aerocivil,25923.0,81,81001
245,AUR,,EL CORAJE,Ariguaní,Magdalena,Aeródromo,10.0247,-74.067,CAMAGUEY S.A.,CAMAGUEY S.A.,720.0,15.0,4000.0,,282.0," 7094,000",2013-12-19,,1A,Privado,30.0,47,47058
246,AXM,AXM,EL EDEN,Armenia,Quindío,Internacional,4.452893,-75.767286,,,,,,,,,,,,,48572.0,63,63001
247,AYC,,LA GLORIA,La Gloria,Cesar,Aeródromo,,,,,,,,,,,,,,,3.0,20,20383
248,BAA,,BANCO CAFETERO,Manizales,Caldas,Aeródromo,,,,,,,,,,,,,,,2.0,17,17001
249,BAC,,BANCO DE LA REPUBLICA,Medellín,Antioquia,Aeródromo,,,,,,,,,,,,,,,2.0,5,5001
250,BAL,,INGENIO RISARALDA,Balboa,Risaralda,Aeródromo,4.8948,-75.9044,INGENIO RISARALDA,ING.RISARALDA-ASOCAÑA,250.0,10.0,500.0,,3034.0," 2954,000",2013-06-20,2015-08-05,1A,Fumigación,,66,66075
251,BAN,,BANCO LARGO,Nunchía,Casanare,Aeródromo,5.4631,-72.0631,JAVIER CHINCHILLA MUNAR,SFA- LTDA,840.0,10.0,2000.0,,692.0," 7056,000",2012-12-07,,1A,Fumigación,,85,85225
252,BAQ,BAQ,ERNESTO CORTISSOZ,Barranquilla,Atlántico,Internacional,10.8896,-74.7809,AEROCIVIL,GRUPO AEROPORTUARIO DEL CARIBE S.A.S.,3000.0,45.0,,,98.0," 1152,000",2015-05-15,,4E,Aerocivil,125956.0,8,8001
253,BAR,,GUAICARAMO,Barranca de Upía,Meta,Aeródromo,4.4605,-72.9509,GUAICARAMO S.A.,GUAICARAMO S.A.,800.0,18.0,5500.0,,649.0," 7236,000",2013-12-27,,1A,Fumigación,17.0,50,50110
254,BAT,,BANCO DE OCCIDENTE,Cali,Valle del Cauca,Aeródromo,,,,,,,,,,,,,,,12.0,76,76001
255,BBA,,PIZARRO,Bajo Baudó,Chocó,Aeródromo,4.9608,-77.3633,MUNICIPIO,MUNICIPIO,1000.0,10.0,,,10.0," 6365,000",2008-12-30,,1A,Público,4944.0,27,27077
256,BCA,,CERREJON CENTRAL,Barrancas,La Guajira,Aeródromo,,,,,,,,,,,,,,,9.0,44,44078
257,BCO,,JULIA CAROLINA,Bosconia,Cesar,Aeródromo,,,,,,,,,,,,,,,132.0,20,20060
258,BCU,,OREGANAL,Barrancas,La Guajira,Aeródromo,,,,,,,,,,,,,,,1.0,44,44078
259,BEC,,BECERRIL,Becerril,Cesar,Aeródromo,9.6628,-73.2744,MUNICIPIO,FUMILLANOS,1300.0,27.0,3500.0,,320.0," 2989,000",2008-07-02,,3B,Fumigación,51.0,20,20045
260,BEE,,BENEFICENCIA DEL TOLIMA,Ibagué,Tolima,Aeródromo,,,,,,,,,,,,,,,86.0,73,73001
261,BER,,BECERRIL,Becerril,Cesar,Aeródromo,,,,,,,,,,,,,,,1.0,20,20045
262,BGA,BGA,PALONEGRO,Bucaramanga,Santander,Internacional,7.127269,-73.182945,,,,,,,,,,,,,143503.0,68,68001
263,BGN,,EL MILAGRO,Bugalagrande,Valle del Cauca,Aeródromo,,,,,,,,,,,,,,,4.0,76,76113
264,BIC,,BERASTEGUI,Ciénaga de Oro,Córdoba,Aeródromo,8.8845,-75.6835,AEROCIVIL,AEROCIVIL,1530.0,20.0,2000.0,,48.0,"  984,000",1987-02-02,,0B,Aerocivil,1.0,23,23189
265,BIZ,,BIZERTA,Nunchía,Casanare,Aeródromo,5.4225,-71.9936,CELMIRA BARRAGAN F.,FUMIVILLA LTDA,700.0,10.0,2000.0,,639.0,"  151,000",2013-01-25,,1A,Fumigación,1.0,85,85225
266,BJA,,BERLIN,Villavieja,Huila,Aeródromo,,,,,,,,,,,,,,,3.0,41,41872
267,BJE,,LA CASCAJERA,Barrancabermeja,Santander,Aeródromo,,,,,,,,,,,,,,,19.0,68,68081
268,BMG,,BARRANCO MINAS,Barranco Minas,Guainía,Aeródromo,3.4907,-69.8097,GOBERNACION,DEPARTAMENTO,900.0,15.0,,,125.0," 2477,000",1972-09-11,,1A,Público,3058.0,94,94343
269,BNA,,BUENOS AIRES -FADELCE,Pailitas,Cesar,Aeródromo,,,,,,,,,,,,,,,2.0,20,20517
270,BNI,,BOLUGA,Venadillo,Tolima,Aeródromo,4.6903,-74.8894,MARGOT URIBE DE SAMPER Y CIA,CRUZ VERDE,640.0,10.0,3000.0,,1092.0," 2172,000",2012-04-30,,1A,Fumigación,,73,73861
271,BNO,,BUENOS AIRES,Puerto Wilches,Santander,Aeródromo,7.462,-73.7464,AGRICOLA BUFALERA DE COLOMBIA,EL MISMO,1060.0,18.0,3500.0,,229.0," 7239,000",2012-12-19,,1A,Privado,26.0,68,68575
272,BNP,,BUENOS AIRES -FADELCE,Pailitas,Cesar,Aeródromo,9.02,-73.6725,FADELCE LTDA,FADELCE LTDA,840.0,15.0,2000.0,,82.0,"   24,000",2009-01-07,2012-02-12,2A,Fumigación,2.0,20,20517
273,BOC,,SAN MARTIN,Bosconia,Cesar,Aeródromo,,,,,,,,,,,,,,,147.0,20,20060
274,BOG,BOG,EL DORADO,"Bogotá, D.C.","Bogotá, D.C.",Internacional,4.7017,-74.1469,AEROCIVIL,EN CONCESION CODAD,3800.0,60.0,,,8356.0,"  320,000",1959-12-04,,4E,Aerocivil,1028334.0,11,11001
275,BQL,,BARRANQUILLITA,Miraflores,Guaviare,Aeródromo,1.5467,-72.3258,GOBERNACION,INS POL BARRANQUILLITA,700.0,15.0,5000.0,,800.0," 2989,000",,,1A,Público,79.0,95,95200
276,BSA,,LA ESPERANZA,Barbosa,Santander,Aeródromo,5.9485,-73.6092,GOBERNACION,MUNICIPIO,1000.0,16.0,,,5308.0,"  306,000",,,2A,Público,228.0,68,68077
277,BSC,BSC,JOSE CELESTINO MUTIS,Bahía Solano,Chocó,Regional,6.2031,-77.395,MUNICIPIO,MUNICIPIO,1200.0,30.0,,,80.0,"  551,000",,,2C,Público,21146.0,27,27075
278,BUN,BUN,BUENAVENTURA-GERARDO TOBAR LOPEZ,Buenaventura,Valle del Cauca,Nacional,3.8196,-76.9899,AEROCIVIL,AEROCIVIL,1200.0,30.0,,,44.0," 1026,000",1967-08-28,,2C,Aerocivil,4776.0,76,76109
279,BUO,,BUENOS AIRES,Yopal,Casanare,Aeródromo,5.149,-72.3519,GILMA MARTINEZ DE B.,SERFABA S.A.S.,800.0,10.0,2000.0,,732.0," 3061,000",,,1A,Fumigación,8.0,85,85001
280,BVA,,BUENAVISTA,Distracción,La Guajira,Aeródromo,10.8874,-72.9007,EJERCITO,EJERCITO,1420.0,30.0,29000.0,,850.0,,,,3C,Militar,1338.0,44,44098
281,BYA,,EL TAMBO,Cartagena de Indias,Bolívar,Aeródromo,10.4817,-75.4136,JORGE I. AGUDELO RESTREPO,JORGE I. AGUDELO RESTREPO,350.0,15.0,2313.0,,100.0," 4218,000",,,1A,Privado,,13,13001
282,CAA,,CAÑO GANDUL,San Luis de Palenque,Casanare,Aeródromo,5.1725,-71.1419,PERENCO COLOMBIA LIMITED,PERENCO COLOMBIA LIMITED,600.0,16.0,3000.0,,431.0," 5603,000",,,1A,Privado,7741.0,85,85325
283,CAC,,CAMPO CAPOTE,Vélez,Santander,Aeródromo,6.75,-73.9167,INDERENA,INDERENA,500.0,20.0,2300.0,,500.0," 2302,000",,,1A,Público,11.0,68,68861
284,CAD,,INGENIO MAYAGUEZ,Candelaria,Valle del Cauca,Aeródromo,3.3948,-76.3238,INGENIO MAYAGUEZ S.A.,ING. MAYAGUEZ-ASOCAÑA,200.0,10.0,500.0,,3320.0," 2958,000",,2015-08-05,1A,Fumigación,1.0,76,76130
285,CAG,,CASACARA CAYTA,Agustín Codazzi,Cesar,Aeródromo,9.9281,-73.2531,FADELCE LTDA,FADELCE LTDA,900.0,20.0,4000.0,,384.0," 3055,000",,,1A,Fumigación,27.0,20,20013
286,CAH,,EL VISO INCORA,Campoalegre,Huila,Aeródromo,,,,,,,,,,,,,,,2.0,41,41132
287,CAL,,CALIMA,Aguachica,Cesar,Aeródromo,8.2854,-73.643,CELTA LTDA,CELTA LTDA.,900.0,15.0,2500.0,,427.0," 1127,000",,2018-06-11,1A,Fumigación,64.0,20,20011
288,CAM,,CABO MARZO,Juradó,Chocó,Aeródromo,6.8794,-77.678,SERVICIALES LTDA.,SERVICIALES LTDA.,700.0,18.0,5000.0,,16.0," 4418,000",,2016-10-02,1A,Privado,34.0,27,27372
289,CAN,,CANARIAS,Nunchía,Casanare,Aeródromo,5.472,-72.1533,SERRANO HERRERA Y CIA,EL MISMO,740.0,10.0,2500.0,,735.0," 3940,000",2014-07-25,,1A,Fumigación,1.0,85,85225
290,CAO,,"CENTRO ADMINISTRATIVO ""MARANDUA""",Cumaribo,Vichada,Aeródromo,5.3345,-67.8646,INDERENA,INDERENA,1780.0,28.0,33112.0,,500.0," 1413,000",,,3B,Público,1154.0,99,99773
291,CAP,,CAMPO ALEGRE,San Luis de Palenque,Casanare,Aeródromo,5.4053,-71.1293,ALIRIO CORREA Y OTROS,SERFABA S.A.S.,700.0,10.0,2000.0,,656.0," 1207,000",,,1A,Fumigación,61.0,85,85325
292,CAQ,,JUAN H.WHITE,Caucasia,Antioquia,Regional,7.968,-75.1982,AEROLINEA DE ANTIOQUIA,AEROLINEA DE ANTIOQ.,1080.0,23.0,,,207.0," 5052,000",2014-10-02,2017-10-03,2B,Privado,15994.0,5,5154
293,CAR,CCO,CARIMAGUA,Puerto López,Meta,Aeródromo,4.5649,-71.3367,ICA,EL MISMO,1336.0,23.0,25000.0,,700.0,"  657,000",,,3B,Público,2033.0,50,50573
294,CAS,,CASA COIMA,Mutatá,Antioquia,Aeródromo,,,,,,,,,,,,,,,8.0,5,5480
295,CAT,,CALICANTO,Alvarado,Tolima,Aeródromo,4.4878,-75.0106,ERNESTO NAVARRO Y CIA,CRUZ VERDE,640.0,10.0,3000.0,,2166.0," 1735,000",,,1A,Fumigación,1.0,73,73026
296,CAV,,CUMACHAGUA,Santa Rosalía,Vichada,Aeródromo,4.0167,-70.8833,CORREGIMIENTO(MUNICIPIO),CORREGIMIENTO(MUNICIPIO),547.0,35.0,2500.0,,440.0," 3660,000",,,1A,Público,22.0,99,99624
297,CBA,,LOS GAVANES,Cabuyaro,Meta,Aeródromo,4.2078,-72.9822,FAGAN S. EN C.,FAGAN S. EN C.,680.0,15.0,2000.0,,850.0," 5185,000",,2016-10-03,1A,Fumigación,21.0,50,50124
298,CBR,,EL CARMEN DE BOLIVAR,El Carmen de Bolívar,Bolívar,Aeródromo,9.6842,-75.1261,MUNICIPIO,MUNICIPIO,1500.0,28.0,12202.0,,590.0,"  247,000",,,3C,Público,73.0,13,13244
299,CBU,,PETRIBA,Cabuyaro,Meta,Aeródromo,4.3617,-72.8275,GRACER S.A.,ASAM LTDA,850.0,10.0,2000.0,,620.0," 2003,000",,,1A,Fumigación,1.0,50,50124
300,CBY,,LA ARABIA,Cabuyaro,Meta,Aeródromo,4.3933,-72.9892,GERMAN REYES GARCIA,SADELL  LTDA.,800.0,10.0,2000.0,,577.0," 4736,000",,2015-09-11,1A,Fumigación,6.0,50,50124
301,CCH,,EL PACIFICO,Cartagena del Chairá,Caquetá,Aeródromo,,,,,,,,,,,,,,,1.0,18,18150
302,CDA,,LA ESMERALDA - CA,Candelaria,Valle del Cauca,Aeródromo,3.38,-76.3983,INCAUCA S.A.,INCAUCA S.A.,250.0,10.0,500.0,,3166.0," 2957,000",,,1A,Fumigación,21.0,76,76130
303,CDY,,CIUDAD YARI,San Vicente del Caguán,Caquetá,Aeródromo,1.5833,-73.8667,MUNICIPIO,MUNICIPIO,880.0,40.0,12202.0,,1000.0," 3660,000",,,1A,Público,5.0,18,18753
304,CEB,,EL CEBRUNO,Ayapel,Córdoba,Aeródromo,8.3292,-75.1323,MUNICIPIO AYAPEL,MUNICIPIO AYAPEL,944.0,15.0,5670.0,,1280.0," 7092,000",,,2A,Público,125.0,23,23068
305,CFB,,CALIFORNIA,Morales,Bolívar,Aeródromo,,,,,,,,,,,,,,,1.0,13,13473
306,CGA,,LA CEIBA,Ciénaga,Magdalena,Aeródromo,10.7913,-74.1049,CALIMA S.A.,CALIMA S.A.,740.0,10.0,4500.0,,147.0," 1837,000",,2016-05-03,1A,Fumigación,2.0,47,47189
307,CGW,CRC,SANTA ANA,Cartago,Valle del Cauca,Aeródromo,4.7584,-75.9561,MUNICIPIO,MUNICIPIO,2200.0,40.0,,,2977.0," 1319,000",,,4D,Público,1103.0,76,76147
308,CHA,,CHICORAL ESTRA,Espinal,Tolima,Aeródromo,4.2022,-74.9697,ESTRA LTDA,ESTRA LTDA,620.0,10.0,2000.0,,1270.0," 5613,000",,,1A,Fumigación,3.0,73,73268
309,CHM,,CHAPARRAL,San Martín,Meta,Aeródromo,,,,,,,,,,,,,,,1.0,50,50689
310,CHO,,CHICAMOCHA,Villavicencio,Meta,Aeródromo,,,,,,,,,,,,,,,9.0,50,50001
311,CHP,,LA CHAPA,Hato Corozal,Casanare,Aeródromo,5.9333,-71.45,CORREGIMIENTO,CORREGIMIENTO,500.0,30.0,3500.0,,620.0," 3660,000",,,1A,Público,14.0,85,85125
312,CIE,,LA CHEKA,Ciénaga,Magdalena,Aeródromo,10.665,-74.1967,CALIMA S.A.,CALIMA S.A.,660.0,10.0,4500.0,,111.0," 6178,000",,,1A,Fumigación,2.0,47,47189
313,CIM,CIM,GUSTAVO ROJAS PINILLA,Cimitarra,Santander,Aeródromo,6.3674,-73.9706,AEROCIVIL,AEROCIVIL,1500.0,40.0,12202.0,,735.0,"  644,000",1967-06-05,,3C,Aerocivil,338.0,68,68190
314,CJI,,LA LIBELULA,Cajicá,Cundinamarca,Aeródromo,,,,,,,,,,,,,,,1.0,25,25126
315,CLA,,LA UNION,Castilla la Nueva,Meta,Aeródromo,3.3317,-73.295,RUBIELA AVILA S.,COMERCIALIZADORA ECO,750.0,10.0,2000.0,,250.0," 4941,000",,2015-11-06,1A,Fumigación,22.0,50,50150
316,CLM,,CALAMAR GUAVIARE,San José del Guaviare,Guaviare,Aeródromo,1.9624,-72.645,MUNICIPIO,MUNICIPIO,1000.0,16.0,2950.0,,540.0,"  538,000",,,2A,Público,1380.0,95,95001
317,CLO,CLO,ALFONSO BONILLA ARAGON,Palmira,Valle del Cauca,Internacional,3.5431,-76.3817,AEROCIVIL,CONCESION AEROCALI S.A.,3000.0,45.0,,,3174.0,"  984,000",1987-02-02,,4E,Aerocivil,207439.0,76,76520
318,CMA,,CANAIMA,Villavicencio,Meta,Aeródromo,,,,,,,,,,,,,,,8.0,50,50001
319,CMP,,CAMPOALEGRE,Campoalegre,Huila,Aeródromo,,,,,,,,,,,,,,,38.0,41,41132
320,CMR,,LA MARIA,Cumaral,Meta,Aeródromo,4.2436,-73.2131,HELICE LTDA.,HELICE LTDA.,660.0,15.0,2000.0,,738.0,"  117,000",,2018-03-09,1A,Fumigación,15.0,50,50226
321,CNL,,LAS CAÑAS,Candelaria,Valle del Cauca,Aeródromo,3.3064,-76.3357,MAR 2 S.A.S.,FUMIVALLE,740.0,15.0,4500.0,,3451.0," 1213,000",,2016-05-09,1A,Fumigación,,76,76130
322,CNU,,SAN VICENTE,Castilla la Nueva,Meta,Aeródromo,3.8111,-73.4372,JOSE S. VANEGAS,FARO LTDA.,800.0,10.0,2000.0,,977.0,"  689,000",,,1A,Fumigación,1.0,50,50150
323,COA,,COFA -PALMIRA,Palmira,Valle del Cauca,Aeródromo,,,,,,,,,,,,,,,1.0,76,76520
324,COG,COG,CONDOTO MANDINGA,Condoto,Chocó,Regional,5.072,-76.6766,AEROCIVIL,AEROCIVIL,1150.0,18.0,,,166.0,"  984,000",1987-02-02,,2C,Aerocivil,5130.0,27,27205
325,COL,,COLOMBAIMA,Beltrán,Cundinamarca,Aeródromo,,,,,,,,,,,,,,,3.0,25,25086
326,COZ,,TAMACA,Agustín Codazzi,Cesar,Aeródromo,,,,,,,,,,,,,,,4.0,20,20013
327,CPB,CPB,CAPURGANA,Acandí,Chocó,Regional,8.6305,-77.3502,ACCION COMUNAL,ACCION COMUNAL,950.0,10.0,,,12.0," 1784,000",,,1A,Público,6004.0,27,27006
328,CPC,,CUPICA,Bahía Solano,Chocó,Aeródromo,6.6987,-77.4832,ALCALDIA,ALCALDIA,870.0,15.0,,,16.0," 5732,000",,,1A,Público,341.0,27,27075
329,CPE,,CAPELLANIA,Ariguaní,Magdalena,Aeródromo,,,,,,,,,,,,,,,1.0,47,47058
330,CPL,CPL,NAVAS PARDO,Chaparral,Tolima,Aeródromo,3.7238,-75.4654,AEROCIVIL,AEROCIVIL,1200.0,15.0,,,2729.0,"  499,000",1968-07-20,,2C,Aerocivil,538.0,73,73168
331,CRA,,CINERA,San José de Cúcuta,Norte de Santander,Aeródromo,8.1708,-72.4746,ASOZULIA,ASOZULIA,900.0,10.0,5000.0,,305.0," 6327,000",,,1A,Fumigación,92.0,54,54001
332,CRL,,SANTA BARBARA,Cumaral,Meta,Aeródromo,4.2329,-73.2523,UNIPALMA S.A.,UNIPALMA S.A.,850.0,18.0,3000.0,,800.0," 7055,000",,,1A,Privado,63.0,50,50226
333,CRM,,CURUMANI,Curumaní,Cesar,Aeródromo,,,,,,,,,,,,,,,46.0,20,20228
334,CRN,,CORRAL NUEVO,Plato,Magdalena,Aeródromo,,,,,,,,,,,,,,,58.0,47,47555
335,CRR,,CERRITOS,Ambalema,Tolima,Aeródromo,4.8422,-74.7758,URUEÑA Y VILLA CIA S. EN C.,SANIDAD VEGETAL CRUZ,640.0,10.0,2000.0,,807.0," 6174,000",,,1A,Fumigación,,73,73030
336,CRS,,CRAVO SUR,Yopal,Casanare,Aeródromo,,,,,,,,,,,,,,,4.0,85,85001
337,CRU,CUO,CARURU,Carurú,Vaupés,Aeródromo,1.0135,-71.2961,MUNICIPIO,MUNICIPIO,1000.0,20.0,12200.0,,646.0,"   62,000",,,2B,Público,4108.0,97,97161
338,CRY,,EL VERGEL,Cabuyaro,Meta,Aeródromo,4.2065,-73.0026,AVIAL LTDA,AVIAL LTDA.,740.0,15.0,2000.0,,540.0,"  998,000",,,1A,Fumigación,2.0,50,50124
339,CST,,CENTRAL CASTILLA,Pradera,Valle del Cauca,Aeródromo,3.3629,-76.2891,RIOPAILA CASTILLA S.A.,RIOPAILA CASTILLA  S.A.,1000.0,10.0,5670.0,,204.0," 4735,000",,2016-09-10,1A,Fumigación,,76,76563
340,CTG,CTG,RAFAEL NUÑEZ,Cartagena de Indias,Bolívar,Internacional,10.442,-75.5123,AEROCIVIL,CONCESION-SACSA,2380.0,45.0,,,7.0," 4501,000",2012-08-16,,4D,Aerocivil,131998.0,13,13001
341,CTO,,INGENIO LA CABAÑA -C.A.,Aipe,Huila,Aeródromo,3.1749,-75.3983,INGENIO LA CABAÑA S.A.,INGENIO LA CABAÑA S.A.,340.0,10.0,500.0,,3329.0," 2953,000",,2015-08-05,1A,Fumigación,1.0,41,41016
342,CTP,,COTOPRIX,Riohacha,La Guajira,Aeródromo,,,,,,,,,,,,,,,2.0,44,44001
343,CUA,,LAS DELICIAS,Cumaral,Meta,Aeródromo,,,,,,,,,,,,,,,6.0,50,50226
344,CUC,CUC,CAMILO DAZA,San José de Cúcuta,Norte de Santander,Internacional,7.9274,-72.5116,AEROCIVIL,AEROCIVIL -ORIENTE S.A.S.,1920.0,45.0,,,1027.0,"  984,000",1987-02-02,,4D,Aerocivil,72216.0,54,54001
346,CUM,,EL VISO,Campoalegre,Huila,Aeródromo,2.7313,-75.3219,SANIDAD VEGETAL CRUZ VERDE,SANIDAD VEGETAL CRUZ VERDE,600.0,10.0,2500.0,,1299.0," 2136,000",,,1A,Fumigación,20.0,41,41132
347,CUS,TAU,CUSIANA,Tauramena,Casanare,Aeródromo,4.9633,-72.6281,ALFONSO HUM. FERNANDEZ,CELTA LTDA.,700.0,10.0,2000.0,,886.0," 7274,000",,,1A,Fumigación,4.0,85,85410
348,CUT,,CUATRO VIENTOS - CA,Melgar,Tolima,Aeródromo,4.2188,-74.7278,SOCIEDAD CAMILO POSADA Y CIA,CLUB ULTR-LA LIBELULA,250.0,10.0,500.0,,1025.0," 1841,000",,,UL,Privado,,73,73449
349,CVN,CVE,COVEÑAS,Coveñas,Sucre,Aeródromo,9.401,-75.6913,ARC MINDEFENSA,ARC MINDEFENSA,1220.0,28.0,12202.0,,31.0,"  984,000",,,2C,Militar,875.0,70,70221
350,CVT,,CRUZ VERDE,Ibagué,Tolima,Aeródromo,4.3917,-75.1327,CRUZ VERDE,CRUZ VERDE,540.0,10.0,2000.0,,3041.0," 1735,000",,,1A,Fumigación,6.0,73,73001
351,CYO,,EL EDEN,Cabuyaro,Meta,Aeródromo,,,,,,,,,,,,,,,1.0,50,50124
352,CZI,,LA DILIA,Agustín Codazzi,Cesar,Aeródromo,,,,,,,,,,,,,,,11.0,20,20013
353,CZU,CZU,LAS BRUJAS,Corozal,Sucre,Regional,9.3325,-75.2853,AEROCIVIL,EN CONCESION-SOACN(Sociedad Operadora de Aeropuertos Centro Norte,1430.0,22.0,,,519.0," 1862,000",1971-07-19,,3C,Aerocivil,14822.0,70,70215
354,DAR,,DARIEN CALIMA,Calima,Valle del Cauca,Aeródromo,,,,,,,,,,,,,,,2.0,76,76126
355,DJV,SJH,SAN JUAN DEL CESAR,San Juan del Cesar,La Guajira,Aeródromo,10.7419,-72.9911,MUNICIPIO,MUNICIPIO,800.0,15.0,5700.0,,696.0," 5855,000",,,1A,Público,2.0,44,44650
356,DZI,,FADECO,Agustín Codazzi,Cesar,Aeródromo,,,,,,,,,,,,,,,506.0,20,20013
357,EAS,,EL ALGARROBO,San Marcos,Sucre,Aeródromo,,,,,,,,,,,,,,,354.0,70,70708
358,EBG,EBG,EL TOMIN,El Bagre,Antioquia,Regional,7.5965,-74.8089,SOCIEDAD MINEROS A/QUIA,EL MUNICIPIO,1300.0,15.0,,,180.0," 2443,000",,,1A,Público,6662.0,5,5250
359,ECB,,EL ACEITUNO,Ibagué,Tolima,Aeródromo,4.3481,-75.0245,CULTIVOS Y SEMILLAS EL ACEITU,CRUZ VERDE,720.0,10.0,4500.0,,2277.0," 5916,000",,,1A,Fumigación,3.0,73,73001
360,ECC,,EL CARMEN DE CHUCURI,El Carmen de Chucurí,Santander,Aeródromo,6.7406,-73.5544,MUNICIPIO,MUNICIPIO,700.0,12.0,12000.0,,1200.0," 2488,000",,,1A,Público,203.0,68,68235
361,ECJ,,EL CORAJE,Ariguaní,Magdalena,Aeródromo,,,,,,,,,,,,,,,30.0,47,47058
362,ECM,,EL CARMEN DE GUAMAL,Guamal,Magdalena,Aeródromo,9.1703,-74.2119,MUNICIPIO,MUNICIPIO,870.0,27.0,2300.0,,75.0," 3660,000",,,1A,Público,,47,47318
363,ECO,,ECOPETROL,Barrancabermeja,Santander,Aeródromo,,,,,,,,,,,,,,,5.0,68,68081
364,ECR,,EL CHORRO,Gamarra,Cesar,Aeródromo,,,,,,,,,,,,,,,1.0,20,20295
365,ECU,,LA FE,El Copey,Cesar,Aeródromo,10.1302,-74.0383,PALMERAS DE LA COSTA,PALMERAS DE LA COSTA,850.0,15.0,5000.0,,304.0," 2496,000",,,1A,Privado,2.0,20,20238
366,EEA,,EL ESFUERZO,Manatí,Atlántico,Aeródromo,10.4119,-74.9619,INAT,INAT,717.0,12.0,2000.0,,140.0," 2989,000",,,1A,Público,,8,8436
367,EEB,,EL ESPINO,El Espino,Boyacá,Aeródromo,6.4883,-72.5047,MUNICIPIO,MUNICIPIO,820.0,15.0,5670.0,,7119.0," 4239,000",,,1B,Público,2.0,15,15248
368,EET,,EL ESCOBAL,Ibagué,Tolima,Aeródromo,4.3956,-75.0708,INVERSIONES AGROPECUARIAS DOIMA,SANIDAD VEGETAL CRUZ,600.0,13.0,2000.0,,2450.0,"  401,000",2014-01-31,2017-03-07,1A,Fumigación,,73,73001
369,EGI,,EL GILGAL,Acandí,Chocó,Aeródromo,,,,,,,,,,,,,,,2.0,27,27006
370,EGY,,EL GUAYABAL,Patía,Cauca,Aeródromo,2.08,-76.9827,ERNESTO DE LIMA LEFRANC,ERNESTO DE LIMA LEFRANC,950.0,15.0,2500.0,,2697.0," 5621,000",,2016-11-12,1A,Privado,,19,19532
371,EJA,EJA,YARIGUIES,Barrancabermeja,Santander,Nacional,7.0244,-73.8068,AEROCIVIL,AEROCIVIL -ORIENTE S.A.S.,1800.0,45.0,61100.0,,414.0,"  115,000",1965-09-02,,3C,Aerocivil,27366.0,68,68081
372,EJU,,EL JUNCAL,Palermo,Huila,Aeródromo,2.8471,-75.3133,ASOJUNCAL,SANIDAD VEGETAL CRUZ VERDE,620.0,10.0,2000.0,,1509.0," 4949,000",2010-10-01,,1A,Fumigación,2.0,41,41524
373,ELA,ECR,EL CHARCO,El Charco,Nariño,Aeródromo,2.4408,-78.1,MUNICIPIO,MUNICIPIO,800.0,12.0,6400.0,,32.0,"  737,000",,,1A,Público,1419.0,52,52250
374,ELB,ELB,LAS FLORES,El Banco,Magdalena,Aeródromo,9.0428,-73.9715,AEROCIVIL,AEROCIVIL,1225.0,28.0,19045.0,,110.0," 1374,000",1978-04-06,,3B,Aerocivil,589.0,47,47245
375,ELC,,EL CAIRO,Castilla la Nueva,Meta,Aeródromo,,,,,,,,,,,,,,,2.0,50,50150
376,ELE,,EL RECREO,San Luis de Palenque,Casanare,Aeródromo,5.3206,-72.5778,HENRY POLANIA C.,SAO E.U.,840.0,10.0,2000.0,,551.0," 2495,000",,2017-06-10,1A,Fumigación,37.0,85,85325
377,ELH,,EL LIMONAR,Campoalegre,Huila,Aeródromo,2.6205,-75.3624,SANIDAD VEGETAL CRUZ VERDE,SANIDAD VEGETAL CRUZ VERDE,600.0,10.0,2500.0,,1936.0," 2136,000",,,1A,Fumigación,6.0,41,41132
378,ELI,,EL PARAISO,Nunchía,Casanare,Aeródromo,5.5576,-72.0041,JULIO PEREZ MORA,SANAR LTDA.,900.0,10.0,2000.0,,669.0," 4943,000",,,1A,Fumigación,2.0,85,85225
379,ELM,,EL MARNE,Rionegro,Santander,Aeródromo,7.4233,-73.3806,JORGE LUIS OTERO SANCHEZ,JORGE LUIS OTERO SANCHEZ,760.0,18.0,4000.0,,416.0," 4874,000",,,1A,Privado,575.0,68,68615
380,ELO,,EL RODEO,Orocué,Casanare,Aeródromo,,,,,,,,,,,,,,,49.0,85,85230
381,ELP,,EL PAILON,Candelaria,Valle del Cauca,Aeródromo,,,,,,,,,,,,,,,1.0,76,76130
382,ELR,,EL RECUERDO,Flandes,Tolima,Aeródromo,,,,,,,,,,,,,,,1.0,73,73275
383,ELS,,COMUNEROS,Socorro,Santander,Aeródromo,6.3835,-73.2573,MUNICIPIO,MUNICIPIO,720.0,15.0,5000.0,,5250.0,"  306,000",,,1A,Público,37.0,68,68755
384,ELT,,INGENIO PROVIDENCIA,El Cerrito,Valle del Cauca,Aeródromo,3.6383,-76.3038,INGENIO PROVIDENCIA,ING. PROVIDENCIA-ASOCAÑA,250.0,10.0,500.0,,3667.0," 2959,000",,2015-08-05,1A,Fumigación,1.0,76,76248
385,ELU,,EL RUBY,Castilla la Nueva,Meta,Aeródromo,3.7811,-73.4817,NATALY RODRIGUEZ,FARO LTDA.,670.0,10.0,2000.0,,987.0,"  689,000",,,1A,Fumigación,1.0,50,50150
386,ELZ,,EL ZAMURO,Yopal,Casanare,Aeródromo,5.1244,-72.3369,BERNARDO CEDANO SABOGAL,SFA. LTDA,860.0,10.0,2000.0,,656.0," 5611,000",,2015-10-09,1A,Fumigación,,85,85001
387,EOC,,EL RETIRO,San Vicente del Caguán,Caquetá,Aeródromo,,,,,,,,,,,,,,,16.0,18,18753
388,EOH,EOH,OLAYA HERRERA,Medellín,Antioquia,Nacional,6.2204,-75.5904,INVIAS,EN CONCESION-SOACN(Sociedad Operadora de Aeropuertos Centro Norte),1800.0,38.0,20455.0,,4920.0," 1466,000",,,1A,Aerocivil,293591.0,5,5001
389,EPR,,EL PARAISO,Ibagué,Tolima,Aeródromo,4.387,-75.026,JOSE M. MELENDRO,CRUZ VERDE,630.0,10.0,2000.0,,2303.0," 1735,000",,,1A,Fumigación,10.0,73,73001
390,EPY,,CAYTA,El Copey,Cesar,Aeródromo,,,,,,,,,,,,,,,6.0,20,20238
391,ESP,,ASTA,Espinal,Tolima,Aeródromo,,,,,,,,,,,,,,,5.0,73,73268
392,ESS,,ANIVERSARIO ESTRA,Espinal,Tolima,Aeródromo,4.125,-74.9086,ESTRA LTDA,ESTRA LTDA,600.0,10.0,3000.0,,1079.0," 5613,000",,,1A,Fumigación,,73,73268
393,ETA,,EL TAPON,Puerto Carreño,Vichada,Aeródromo,5.15,-69.1833,INDERENA,INDERENA,1080.0,20.0,12202.0,,500.0," 1412,000",,,2B,Público,2.0,99,99001
394,ETO,,EL TORNILLO,Rionegro,Santander,Aeródromo,7.6222,-73.608,INVERSIONES GERBEL S.A.S.,CELTA LTDA.,1020.0,18.0,2000.0,,230.0," 7086,000",,,1A,Fumigación,41.0,68,68615
395,ETR,,EL TRIUNFO,Ambalema,Tolima,Aeródromo,4.8647,-74.8037,ORGANIZACIÓN PAJONALES S.A.,ORGANIZACIÓN PAJONALES,900.0,15.0,4000.0,,840.0,"  390,000",,,2A,Fumigación,1.0,73,73030
396,EVC,,EL VIGIA,Villanueva,Casanare,Aeródromo,4.5543,-72.9157,EDUARDO VALENZUELA PLATA,FUMIVILLA LTDA,660.0,10.0,2000.0,,662.0," 2471,000",,2016-06-12,1A,Fumigación,5.0,85,85440
397,EYP,EYP,EL ALCARAVAN,Yopal,Casanare,Nacional,5.3191,-72.3842,AEROCIVIL,AEROCIVIL,2250.0,30.0,,,1016.0,"  984,000",1987-02-02,,3C,Aerocivil,92726.0,85,85001
398,FCA,,FASCA,Aguazul,Casanare,Aeródromo,5.1553,-72.5208,SFA LTDA.,SFA. LTDA.,750.0,10.0,2000.0,,868.0," 7054,000",,,1A,Fumigación,257.0,85,85010
399,FDA,,FUNDACION,Fundación,Magdalena,Aeródromo,,,,,,,,,,,,,,,16.0,47,47288
400,FEO,,GUANAYAS,Fuente de Oro,Meta,Aeródromo,3.354,-73.5778,RAFAEL AYALA CELY INV. GUANAYA Y CIA S EN C.,RAFAEL AYALA ..INVERSIONES GUANAYAS,820.0,10.0,2000.0,,820.0," 5067,000",,,1A,Fumigación,,50,50287
401,FLA,FLA,GUSTAVO ARTUNDUAGA PAREDES,Florencia,Caquetá,Nacional,1.589,-75.5643,AEROCIVIL,AEROCIVIL,1500.0,30.0,,,803.0,"  984,000",1987-02-02,,3C,Aerocivil,16997.0,18,18001
402,FLD,,AEROSPORT - C.A.,Flandes,Tolima,Aeródromo,4.2331,-74.8347,CLUB COLOMBIANO DE AVIA.,CLUB. COL.AVIACION DEPORTIVA,350.0,10.0,500.0,,1030.0," 7240,000",,,UL,Privado,1.0,73,73275
403,FLR,,LAS FLORES,Agustín Codazzi,Cesar,Aeródromo,,,,,,,,,,,,,,,5.0,20,20013
404,FNO,,LA CANDELARIA,Fuente de Oro,Meta,Aeródromo,3.4214,-73.7258,GIOVANNI H.  OROZCO MOJICA,FARI LTDA,726.0,10.0,2000.0,,984.0," 1658,000",,,1A,Fumigación,6.0,50,50287
405,FOO,,LA LUNA,Fuente de Oro,Meta,Aeródromo,3.4492,-73.5844,GIOVANNI OROZCO,FARI LTDA,800.0,10.0,2000.0,,935.0," 4445,000",,,1A,Fumigación,10.0,50,50287
406,FRO,,FRONTINO EL PLATEADO,Frontino,Antioquia,Aeródromo,6.7221,-76.1465,MUNICIPIO,MUNICIPIO,800.0,18.0,5000.0,,5577.0," 5958,000",,,1A,Público,276.0,5,5284
407,FTE,,CAÑO BLANCO,Fuente de Oro,Meta,Aeródromo,,,,,,,,,,,,,,,6.0,50,50287
408,FUL,,SAN LUIS,Fuente de Oro,Meta,Aeródromo,3.5019,-73.6697,FARI LTDA.,FARI LTDA,1000.0,15.0,2000.0,,980.0," 4506,000",,2015-10-02,2A,Fumigación,31.0,50,50287
409,FUN,,ALGARROBO FANOR,Fundación,Magdalena,Aeródromo,,,,,,,,,,,,,,,3.0,47,47288
410,FUO,,MAJAGUAL,Fuente de Oro,Meta,Aeródromo,3.3903,-73.6964,MARIO GUTIERREZ PERDOMO,ASEM LTDA.,940.0,10.0,3000.0,,1049.0," 2949,000",,2016-07-10,1A,Fumigación,,50,50287
411,FUR,,HALCONES,Fuente de Oro,Meta,Aeródromo,3.3731,-73.6133,FARI LTDA.,FARI LTDA,700.0,10.0,2000.0,,853.0," 1658,000",,,1A,Fumigación,,50,50287
412,FUT,,LOS SABANALES,Fuente de Oro,Meta,Aeródromo,3.3697,-73.4639,MISAEL RODRIGUEZ CASTAÑEDA,FAGA LTDA.,720.0,10.0,2000.0,,849.0,"   76,000",,,1A,Fumigación,1.0,50,50287
413,GAM,,LA NENA CAYTA,Gamarra,Cesar,Aeródromo,,,,,,,,,,,,,,,24.0,20,20295
414,GAN,,EL PROGRESO,Granada,Meta,Aeródromo,,,,,,,,,,,,,,,57.0,50,50313
415,GCA,GCA,GUACAMAYAS,San Vicente del Caguán,Caquetá,Aeródromo,2.2833,-74.95,CORREGIMIENTO(MUNICIPIO),CORREGIMIENTO(MUNICIPIO),810.0,18.0,11500.0,,1500.0," 3660,000",,,1A,Público,4.0,18,18753
416,GER,,GERMANIA,Gamarra,Cesar,Aeródromo,8.3306,-73.6949,INVERSIONES GERBEL S.A.S.,CELTA LTDA.,950.0,14.0,2000.0,,246.0," 7086,000",,,1A,Fumigación,40.0,20,20295
417,GIR,GIR,SANTIAGO VILA,Flandes,Tolima,Regional,4.2753,-74.7961,AEROCIVIL,AEROCIVIL,1600.0,28.0,,,931.0,"  115,000",,,3C,Aerocivil,2143.0,73,73275
418,GLJ,,LA JAGUA,Garzón,Huila,Aeródromo,2.1464,-75.6942,MINISTERIO DE DEFENSA,EJERCITO NACIONAL,1334.0,40.0,12202.0,,2622.0,"  984,000",,,2B,Militar,170.0,41,41298
419,GMO,,EL GUAMO ASTA,Guamo,Tolima,Aeródromo,3.9976,-74.9576,ASTA S.A.,SANIDAD VEGETAL CRUZ,650.0,10.0,2000.0,,1119.0," 6175,000",,,1A,Fumigación,,73,73319
420,GOV,,GUADUALITO,Palmira,Valle del Cauca,Aeródromo,,,,,,,,,,,,,,,17.0,76,76520
421,GPI,GPI,JUAN CASIANO,Guapí,Cauca,Regional,2.57,-77.898,AEROCIVIL,AEROCIVIL,1300.0,16.0,,,164.0,"  245,000",1960-08-17,,3C,Aerocivil,7490.0,19,19318
422,GRM,,GUERIMA,Puerto Carreño,Vichada,Aeródromo,3.6299,-70.3231,GOBERNACION,DEPARTAMENTO,1220.0,20.0,,,416.0,"13268,000",,,2B,Público,1744.0,99,99001
423,GRN,,MALVINAS,Granada,Meta,Aeródromo,3.4208,-73.7653,FREDY REYES VALDERRAMA,SADELL S.A.S.,700.0,10.0,2000.0,,1150.0," 1124,000",,,1A,Fumigación,97.0,50,50313
424,GTT,,GANADERIA EL TRIUNFO,Honda,Tolima,Aeródromo,5.1694,-74.7652,GARETH HYWEL HUGHES ART.,GARETH HYWEL HUGHES ART.,900.0,18.0,3000.0,,774.0,"  704,000",,2017-03-07,1A,Privado,,73,73349
425,GUE,,LA ESTRELLA,Guacarí,Valle del Cauca,Aeródromo,,,,,,,,,,,,,,,6.0,76,76318
426,GUI,,GUINULERO,San Andrés de Tumaco,Nariño,Aeródromo,,,,,,,,,,,,,,,5.0,52,52835
427,GUN,,GUAMITOS,Palermo,Huila,Aeródromo,2.9142,-75.3967,AGROPECUARIA GUAMITOS LTDA,TEA S.A.,690.0,10.0,2000.0,,1817.0,,,2013-03-12,1A,Fumigación,,41,41524
428,GUR,,LA BASE FUMIVALLE,Guacarí,Valle del Cauca,Aeródromo,3.7766,-76.3217,MAR 2 S.A.S.,ARFA S.A.,640.0,10.0,2000.0,,3278.0,"  400,000",,2017-02-06,1A,Fumigación,4.0,76,76318
429,GUS,,GUSTAVO ROJAS PINILLA,Tunja,Boyacá,Aeródromo,5.5423,-73.3443,AEROCIVIL,COMODATO MUNICIPIO,1100.0,20.0,5670.0,,8954.0," 1291,000",,,2A,Aerocivil,604.0,15,15001
430,GUT,,GUADALAJARA,Ibagué,Tolima,Aeródromo,4.3869,-75.1566,HELICE,HELICE,900.0,10.0,3000.0,,3005.0,"  168,000",,,1A,Fumigación,,73,73001
431,GYM,,FLAMINIO S. CAMACHO,Chía,Cundinamarca,Aeródromo,4.8125,-74.0651,AEROCIVIL,AEROCIVIL,1720.0,20.0,7000.0,,8386.0,"  984,000",1987-02-02,,2B,Aerocivil,4571.0,25,25175
432,HAC,,EL TRIUNFO,Puerto Triunfo,Antioquia,Aeródromo,5.9222,-74.7258,MUNICIPIO,MUNICIPIO,1150.0,11.0,7000.0,,820.0," 2070,000",,2014-06-10,2A,Público,860.0,5,5591
433,HCO,,EL CAIRO,Hato Corozal,Casanare,Aeródromo,6.0647,-71.2044,ELVIRA SARMIENTO,ELVIRA SARMIENTO,700.0,15.0,2000.0,,443.0," 5835,000",,2016-12-04,1A,Privado,111.0,85,85125
434,HCZ,,HATO LA AURORA,Hato Corozal,Casanare,Aeródromo,6.0331,-71.3819,LIGIA PLATA Y OTRO,BARRAGAN PLATA JORGE,800.0,15.0,3500.0,,485.0," 6728,000",,,1A,Privado,26.0,85,85125
435,HEA,,HELIVALLE,Palmira,Valle del Cauca,Aeródromo,,,,,,,,,,,,,,,,76,76520
436,HEV,,LA ELVIRA,Obando,Valle del Cauca,Aeródromo,4.6159,-75.9659,FUMINORTE S.A.S.,FUMINORTE S.A.S.,740.0,12.0,2000.0,,3083.0," 5965,000",,,1A,Fumigación,,76,76497
437,HLE,,HATO LA ESPERANZA,Puerto Gaitán,Meta,Aeródromo,,,,,,,,,,,,,,,4.0,50,50568
438,HOA,,HOSPITAL DE CALDAS,Manizales,Caldas,Aeródromo,,,,,,,,,,,,,,,2.0,17,17001
439,HOB,,HONDURAS,María la Baja,Bolívar,Aeródromo,9.9722,-75.3742,INCORA LTDA,EL MISMO,800.0,10.0,2000.0,,50.0,"  804,000",,,1A,Público,,13,13442
440,HOP,,HATO DE OPIA,Ibagué,Tolima,Aeródromo,4.4232,-75.0013,INBERAR LTDA.,CRUZ VERDE,540.0,10.0,2000.0,,2703.0," 1735,000",,,1A,Fumigación,1.0,73,73001
441,HRA,HRR,LA HERRERA,Rioblanco,Tolima,Aeródromo,3.2167,-75.85,MUNICIPIO,MUNICIPIO,430.0,10.0,5760.0,,5740.0," 3660,000",,,1A,Público,,73,73616
442,HTC,,EL DANUBIO,Hato Corozal,Casanare,Aeródromo,6.2611,-71.2247,CARMEN DELIA DELGADO,CARMEN DELIA DELGADO,740.0,15.0,2400.0,,440.0," 4315,000",,,1A,Privado,35.0,85,85125
443,HTZ,HTZ,HATO COROZAL,Hato Corozal,Casanare,Aeródromo,6.1535,-71.7616,AEROCIVIL,AEROCIVIL,1040.0,14.0,12202.0,,830.0,"  502,000",1967-05-05,,2C,Aerocivil,195.0,85,85125
444,IBE,IBE,PERALES,Ibagué,Tolima,Nacional,4.4217,-75.1336,AEROCIVIL,AEROCIVIL,1800.0,30.0,,,3114.0,"  984,000",1987-02-02,,3C,Aerocivil,36819.0,73,73001
445,IDA,,CESAR GAVIRIA TRUJILLO,Inírida,Guainía,Regional,3.8536,-67.9063,GOBERNACION,GOBERNACION,1930.0,30.0,,,311.0,"  499,000",,,3C,Público,4942.0,94,94001
446,IGO,IGO,JAIME ORTIZ BETANCUR,Chigorodó,Antioquia,Aeródromo,7.6772,-76.683,MUNICIPIO,MUNICIPIO,840.0,18.0,6400.0,,170.0," 4545,000",2012-08-17,,1A,Público,250.0,5,5172
447,INA,,INDIRA,Turbo,Antioquia,Aeródromo,7.9444,-76.6969,UNIBAN,CALIMA S.A.,870.0,15.0,4500.0,,33.0," 1425,000",,,1A,Fumigación,5.0,5,5837
448,IPI,IPI,SAN LUIS,Aldana,Nariño,Internacional,0.8619,-77.6718,AEROCIVIL,AEROCIVIL,1770.0,28.0,,,9740.0,"  455,000",1969-05-19,,3C,Aerocivil,4193.0,52,52022
449,IRH,,IRHO,San Alberto,Cesar,Aeródromo,7.7345,-73.4343,INDUPALMA LTDA.,INDUPALMA LTDA.,730.0,15.0,5000.0,,305.0,"  170,000",,2018-02-12,1A,Fumigación,561.0,20,20710
450,ISP,,ISA,Palmira,Valle del Cauca,Aeródromo,,,,,,,,,,,,,,,1.0,76,76520
451,ITG,,LA PROVIDENCIA,Ituango,Antioquia,Aeródromo,7.1653,-75.7253,MUNICIPIO,MUNICIPIO,750.0,12.0,6000.0,,5166.0,"   39,000",,2018-02-01,1A,Público,1127.0,5,5361
452,ITU,,ITUANGO,Ituango,Antioquia,Aeródromo,,,,,,,,,,,,,,,8.0,5,5361
453,JAB,,JABALCON,Saldaña,Tolima,Aeródromo,3.8422,-75.0336,INCORA LTDA,INCORA,740.0,10.0,2000.0,,984.0,"  984,000",,,1A,Público,2.0,73,73671
454,JDI,,UDELVA - CA,Jamundí,Valle del Cauca,Aeródromo,3.2354,-76.5047,ERNESTO ANDRADE Y OTROS,CLUB AEREO DEPORTIVO UL.,320.0,10.0,400.0,,3200.0," 4502,000",,2015-09-04,UL,Privado,,76,76364
455,JUR,JUO,JURADO,Juradó,Chocó,Aeródromo,7.0731,-77.7285,MUNICIPIO,MUNICIPIO,800.0,20.0,6671.0,,13.0," 1503,000",,,1A,Público,552.0,27,27372
456,LAA,,LA BASTILLA,Guamo,Tolima,Aeródromo,4.0899,-74.9071,INVERSIONES BAZARA S.A.,SANIDAD VEGETAL CRUZ,700.0,10.0,2000.0,,1112.0," 5385,000",,2017-11-05,1A,Fumigación,3.0,73,73319
457,LAB,,LA  BARQUEREÑA,Nunchía,Casanare,Aeródromo,,,,,,,,,,,,,,,9.0,85,85225
458,LAC,,LA CABAÑA,Cumaral,Meta,Aeródromo,4.3019,-73.3697,HACIENDA LA CABAÑA,HACIENDA LA CABAÑA,1000.0,10.0,5500.0,,175.0,"  688,000",,2018-04-07,1A,Privado,7.0,50,50226
459,LAD,,LA DILIA,Agustín Codazzi,Cesar,Aeródromo,9.8985,-73.4221,MURGAS MUÑOZ HERMANOS,CARLOS R. MURGAS G.,800.0,15.0,5000.0,,312.0," 4625,000",,2010-10-01,1A,Privado,7.0,20,20013
460,LAE,,LA PALESTINA,Palestina,Caldas,Aeródromo,5.0333,-75.6204,MUNICIPIO DE MANIZALES,INFICALDAS-INFIMANIZALES,1800.0,30.0,,,4723.0," 5364,000",,,4C,Público,1.0,17,17524
461,LAF,,LA FUGA,Puerto López,Meta,Aeródromo,4.0564,-72.2481,INVERSIONES CALDERON DOUSDEBES,CARLOS A. GUTIERREZ C.,870.0,10.0,3000.0,,656.0," 5963,000",,,1A,Privado,,50,50573
462,LAH,,LA CAMPECHANA,Maní,Casanare,Aeródromo,4.8871,-72.3151,JOSE A. ROSAS BARRERA,FUMIVILLA LTDA,800.0,10.0,2000.0,,609.0," 2138,000",,,1A,Fumigación,1.0,85,85139
463,LAJ,,LAJITAS,Puerto López,Meta,Aeródromo,4.1564,-72.9076,COMPENSAR,COMPENSAR,800.0,15.0,5000.0,,787.0," 6350,000",,2015-12-04,1A,Privado,6.0,50,50573
464,LAL,,CRAVO SUR (antes la pista),Orocué,Casanare,Aeródromo,4.8274,-71.6626,J.LONDOÑO R Y CIA,J.LONDOÑO R Y CIA,800.0,18.0,4500.0,,482.0," 5384,000",,2017-11-04,1A,Privado,52.0,85,85230
465,LAM,,LA COLINA,Villavicencio,Meta,Aeródromo,4.0644,-73.3839,ERNESTO PEDRAZA GALEANO,AEROTEC LTDA.,850.0,19.0,6250.0,,1058.0,"  691,000",,,1A,Fumigación,145.0,50,50001
466,LAO,,LOS ALMENDROS,Carepa,Antioquia,Aeródromo,7.8083,-76.6519,SANVEL. LTDA.,FUMIGARAY,700.0,16.0,4000.0,,134.0," 1314,000",,,1A,Fumigación,32.0,5,5147
467,LAP,,LA CARPETA,Paz de Ariporo,Casanare,Aeródromo,,,,,,,,,,,,,,,1.0,85,85250
468,LAR,,LA ARROBLEDA,Caloto,Cauca,Aeródromo,3.1023,-76.419,INCUBADORA SANTANDER,INCUBADORA SANTANDER,780.0,15.0,5700.0,,3320.0," 6472,000",,2016-12-02,1A,Privado,1264.0,19,19142
469,LAT,,LA MATUA,San Diego,Cesar,Aeródromo,,,,,,,,,,,,,,,1.0,20,20750
470,LAU,,LAS JUANAS,Castilla la Nueva,Meta,Aeródromo,3.8233,-73.5322,GILBERTO GALINDO M.,SADELL  LTDA.,690.0,10.0,3000.0,,1082.0," 4735,000",,,1A,Fumigación,7.0,50,50150
471,LAV,,LA VICTORIA,La Paz,Cesar,Aeródromo,10.0621,-73.2583,AMA LTDA.,AMA LTDA.,800.0,18.0,2000.0,,300.0," 3939,000",,,1A,Fumigación,2.0,20,20621
472,LAY,,LA YE,Ciénaga,Magdalena,Aeródromo,11.0038,-74.2133,INVERSIONES AGROPECUARIAS DEL LITORAL LTDA.,CALIMA S.A.,930.0,18.0,4500.0,,55.0," 3943,000",,,1A,Fumigación,,47,47189
473,LBR,,LAS BRISAS,Villavicencio,Meta,Aeródromo,,,,,,,,,,,,,,,114.0,50,50001
474,LCB,,LA CAROLINA,Córdoba,Bolívar,Aeródromo,,,,,,,,,,,,,,,3.0,13,13212
475,LCH,LCR,VIRGILIO BARCO VARGAS,La Chorrera,Amazonas,Regional,-1.4564,-72.8011,CAJA AGRARIA,COMISARIA DEL AMAZONAS,1500.0,21.0,,,593.0,"  916,000",,,2A,Público,1754.0,91,91405
476,LCI,,LA CACICA,San Martín,Cesar,Aeródromo,7.9861,-73.5779,LA CACICA LTDA.,LA CACICA LTDA.,600.0,18.0,3000.0,,265.0," 5525,000",,2017-12-03,1A,Privado,24.0,20,20770
477,LCM,,LA CANDELARIA,Fuente de Oro,Meta,Aeródromo,,,,,,,,,,,,,,,6.0,50,50287
478,LCT,,LETICIA,Alvarado,Tolima,Aeródromo,4.463,-75.0359,ALVARO SIERRA FIGUEROA,SANIDAD VEGETAL CRUZ,840.0,10.0,2000.0,,860.0," 6352,000",,,1A,Fumigación,17.0,73,73026
479,LEB,,LA GAVIOTA,Plato,Magdalena,Aeródromo,,,,,,,,,,,,,,,1.0,47,47555
480,LEM,,LA ESMERALDA,Villavicencio,Meta,Aeródromo,4.0883,-73.3678,GILMA LOZANO DE G.,ASAM LTDA,700.0,20.0,2000.0,,984.0," 1581,000",,,1A,Fumigación,11.0,50,50001
481,LET,LET,ALFREDO VASQUEZ COBO,Leticia,Amazonas,Internacional,-4.1918,-69.9422,AEROCIVIL,AEROCIVIL,2010.0,40.0,,,314.0,"  984,000",,,3C,Aerocivil,16372.0,91,91001
482,LEV,,LA GAVIOTA,La Primavera,Vichada,Aeródromo,4.5505,-70.9254,GOBERNACION,CENTRO LAS GAVIOTAS,1180.0,18.0,12202.0,,606.0," 5796,000",,,2B,Público,658.0,99,99524
483,LFA,,LA FLORA,Yopal,Casanare,Aeródromo,,,,,,,,,,,,,,,1.0,85,85001
484,LFE,,LA FE,Ciénaga,Magdalena,Aeródromo,10.861,-74.1714,MARCO A. GIL PINTO,ASA S. EN C.,800.0,10.0,4500.0,,56.0," 4221,000",,,1A,Fumigación,3.0,47,47189
485,LFL,,LAS FLORES,La Paz,Cesar,Aeródromo,10.0967,-73.2337,SOCIEDAD OLEOFLORES S.A.,SOC. OLEOFLORES S.A.,1300.0,18.0,5670.0,,310.0," 2134,000",,2017-05-06,2A,Privado,133.0,20,20621
486,LFT,,LA FLORESTA,Yaguará,Huila,Aeródromo,,,,,,,,,,,,,,,3.0,41,41885
487,LGA,,LAS GARZAS,Prado,Tolima,Aeródromo,,,,,,,,,,,,,,,4.0,73,73563
488,LGL,,BELLA CRUZ -SAN JUAN,La Gloria,Cesar,Aeródromo,8.6233,-73.7319,SOCIEDAD MR. INVERSIONES LTDA,FASE CUBIDES Y CIA.,750.0,10.0,4000.0,,135.0," 5273,000",,2011-01-03,1A,Fumigación,76.0,20,20383
489,LGM,,LA GAVIOTA MA,Plato,Magdalena,Aeródromo,,,,,,,,,,,,,,,24.0,47,47555
490,LGP,,LAGUNA PAVON,San José del Guaviare,Guaviare,Aeródromo,,,,,,,,,,,,,,,108.0,95,95001
491,LGT,,LAS GAVIOTAS,Puerto Lleras,Meta,Aeródromo,,,,,,,,,,,,,,,33.0,50,50577
492,LGV,,LOS GAVILANES,Guamal,Meta,Aeródromo,,,,,,,,,,,,,,,1.0,50,50318
493,LHC,,LOS HALCONES,Fuente de Oro,Meta,Aeródromo,,,,,,,,,,,,,,,1.0,50,50287
494,LJB,,EL BORREGO,La Jagua de Ibirico,Cesar,Aeródromo,9.5851,-73.4519,DRUMMOND LTD.,DRUMMOND LTD.,1500.0,29.0,,,253.0," 5388,000",2014-10-28,,3C,Privado,1288.0,20,20400
495,LJC,,LA JAGUA DE IBIRICO,El Paso,Cesar,Aeródromo,9.6206,-73.5364,FADELCE LTDA,FADELCE LTDA.,880.0,20.0,4000.0,,331.0," 3055,000",,,1A,Fumigación,86.0,20,20250
496,LJD,,CERRO DE PIEDRA,La Jagua de Ibirico,Cesar,Aeródromo,,,,,,,,,,,,,,,1501.0,20,20400
497,LJI,,NUEVA GRANADA,La Jagua de Ibirico,Cesar,Aeródromo,,,,,,,,,,,,,,,207.0,20,20400
498,LJV,,LA JAULA,La Primavera,Vichada,Aeródromo,5.3089,-69.8314,MARIA D. SALAZAR Y OTROS,MARIA C. SALAZAR,1100.0,20.0,5000.0,,356.0,"  275,000",,,1A,Privado,25.0,99,99524
499,LLI,,LAS DELICIAS,San Luis de Palenque,Casanare,Aeródromo,5.2075,-71.8136,PERENCO COLOMBIA LIMITED,PERENCO COLOMBIA LIMITED,600.0,17.0,12202.0,,460.0,"  933,000",,,1A,Privado,3183.0,85,85325
500,LLM,,LOMA LINDA,Puerto Lleras,Meta,Aeródromo,,,,,,,,,,,,,,,10.0,50,50577
501,LLO,,CALENTURITAS,Recetor,Casanare,Aeródromo,9.6523,-73.4951,C.I.PRODECO,C.I. PRODECO,700.0,18.0,6400.0,,190.0,"  996,000",,2018-05-07,2A,Privado,4331.0,85,85279
502,LMA,,JORGE ISAACS (LA MINA),Maicao,La Guajira,Regional,11.2326,-71.4893,CARBONES DEL CERREJON,CARBONES DEL CERREJON,1700.0,45.0,,,328.0,"  831,000",,,3D,Privado,10262.0,44,44430
503,LMC,LMC,LA MACARENA,La Macarena,Meta,Regional,2.1736,-73.7861,MUNICIPIO,MUNICIPIO,1600.0,15.0,26000.0,,770.0," 1940,000",,,2C,Público,27136.0,50,50350
504,LME,,LOS MOCHUELOS,Cereté,Córdoba,Aeródromo,8.9101,-75.7996,FASE LTDA,FASE. LTDA.,800.0,15.0,4000.0,,466.0," 5528,000",,,1A,Fumigación,3.0,23,23162
505,LML,,LAS MALVINAS,Puerto Gaitán,Meta,Aeródromo,,,,,,,,,,,,,,,8.0,50,50568
506,LMN,,LOS MULATOS,El Charco,Nariño,Aeródromo,,,,,,,,,,,,,,,624.0,52,52250
507,LMR,,LOS MORROS,San Onofre,Sucre,Aeródromo,,,,,,,,,,,,,,,6.0,70,70713
508,LMS,,LOS MANGOS,Saldaña,Tolima,Aeródromo,3.9158,-74.9819,JORGE ALVIRA GAMBOA,FUMIVILLA,800.0,10.0,2000.0,,1150.0," 6307,000",,,1A,Fumigación,,73,73671
509,LMT,,LA MARIA,Purificación,Tolima,Aeródromo,3.8825,-74.9871,ALIANSA S.A.S.,FIBA S.A.,800.0,10.0,2000.0,,1059.0," 1584,000",,2017-04-02,1A,Fumigación,,73,73585
510,LOB,,LOS BALTICOS,Puerto López,Meta,Aeródromo,4.1286,-73.1319,FERNANDO TOVAR TAMAYO,ECO LTDA.,650.0,10.0,2000.0,,686.0," 3024,000",,2014-08-11,1A,Fumigación,1.0,50,50573
511,LOC,,LOPEZ DE MICAI,López de Micay,Cauca,Aeródromo,2.9539,-77.195,MUNICIPIO,MUNICIPIO,800.0,16.0,2300.0,,340.0,"  443,000",,,1A,Público,181.0,19,19418
512,LOM,,LOS MILAGROS,Maní,Casanare,Aeródromo,4.7981,-72.2342,FUMIAGRIC LTDA.,AGIL LTDA.,750.0,10.0,2000.0,,410.0," 2005,000",,,1A,Fumigación,141.0,85,85139
513,LPA,,LA PALMA,Bosconia,Cesar,Aeródromo,9.8394,-73.8672,HERNAN DIEGO PALAU E.,SIMON LOZADA FOMEQUE,940.0,10.0,2000.0,,121.0," 3825,000",,2016-08-08,1A,Fumigación,33.0,20,20060
514,LPD,,LA PEDRERA,La Pedrera,Amazonas,Aeródromo,-1.3243,-69.5816,GOBERNACION,EL MISMO,1050.0,20.0,26000.0,,262.0,"  399,000",,,2B,Público,2073.0,91,91407
515,LPG,,EL GAVILAN,La Primavera,Vichada,Aeródromo,5.2554,-69.7342,FRANCISCO MATIZ SALAZAR,FRANCISCO MATIZ S.,1100.0,18.0,4800.0,,332.0," 5915,000",,2015-12-03,1A,Privado,18.0,99,99524
516,LPL,,LOS PLANES,Apartadó,Antioquia,Aeródromo,7.834,-76.6453,UNIBAN,CALIMA S.A.,730.0,15.0,4500.0,,108.0," 1425,000",,,1A,Fumigación,79.0,5,5045
517,LPR,,EL CIMARRON,La Primavera,Vichada,Aeródromo,5.9371,-69.2579,PRESTIGE COLOMBIA LTDA,PRESTIGE COLOMBIA L,1000.0,15.0,3500.0,,318.0," 4740,000",,,1A,Privado,58.0,99,99524
518,LPS,,LA PONDEROSA,Puerto Wilches,Santander,Aeródromo,7.4614,-73.7464,PALMAS MONTERREY S.A.,PALMAS MONTERREY,870.0,15.0,4000.0,,295.0," 2087,000",,,1A,Privado,22.0,68,68575
519,LPV,,RANCHO ALEGRE,La Primavera,Vichada,Aeródromo,,,,,,,,,,,,,,,235.0,99,99524
520,LQM,,CAUCAYA,Puerto Leguízamo,Putumayo,Regional,-0.1823,-74.7708,MUNICIPIO,MUNICIPIO,1170.0,23.0,28000.0,,609.0," 6268,000",,,2B,Público,5810.0,86,86573
521,LRA,,SAN JOSE,Lérida,Tolima,Aeródromo,4.911,-74.889,HAROLD IVAN BENAVIDES,FIBA LTDA,680.0,10.0,2000.0,,866.0," 4311,000",,,1A,Fumigación,11.0,73,73408
522,LRI,,HACIENDA GARCIA,Lérida,Tolima,Aeródromo,4.8531,-74.8892,ALFONSO GUTIERREZ DUSSAN,ALFONSO GUTIERREZ DUSSAN,550.0,10.0,2000.0,,1085.0," 6475,000",,,1A,Privado,1.0,73,73408
523,LSI,,LA SIERRITA,Chiriguaná,Cesar,Aeródromo,9.3867,-73.5089,CARLOS A. CAMARGO C.,FADELCE LTDA,890.0,10.0,2000.0,,197.0,"  999,000",,,1A,Fumigación,,20,20178
524,LTA,,LAS TAPIAS,Tamalameque,Cesar,Aeródromo,8.6781,-73.7694,ACBF Y CIA.,FELIPE D'ACOSTA M.,850.0,18.0,3000.0,,131.0," 6123,000",,2018-01-06,1A,Privado,28.0,20,20787
525,LTB,,LAS GAVIOTAS,La Tebaida,Quindío,Aeródromo,,,,,,,,,,,,,,,2.0,63,63401
526,LVB,,LA VEGA,Zambrano,Bolívar,Aeródromo,9.8552,-74.8918,INVERSIONES AGRORIOS S.A.,INVER. AGRORIOS S.A.,1160.0,20.0,7250.0,,656.0," 5234,000",,,2A,Privado,4.0,13,13894
527,LVC,,LA MESA,La Victoria,Valle del Cauca,Aeródromo,,,,,,,,,,,,,,,3.0,76,76403
528,LVE,,LOS VENADOS,Puerto López,Meta,Aeródromo,,,,,,,,,,,,,,,28.0,50,50573
529,MAA,,MATA DE AGUA,Paz de Ariporo,Casanare,Aeródromo,,,,,,,,,,,,,,,4.0,85,85250
530,MAG,,MANAURE,Manaure,La Guajira,Aeródromo,11.7861,-72.4166,CONCESION DE SALINAS-IFI,CONCESION DE SALINAS-IFI,1332.0,35.0,12202.0,,15.0," 2989,000",,,2C,Privado,11.0,44,44560
531,MAI,,CAMPO ESTERO,Maní,Casanare,Aeródromo,,,,,,,,,,,,,,,272.0,85,85139
532,MAL,,MALABARES,Trinidad,Casanare,Aeródromo,,,,,,,,,,,,,,,2.0,85,85430
533,MAN,,CASANARE,Maní,Casanare,Aeródromo,,,,,,,,,,,,,,,6.0,85,85139
534,MAP,,MAPIRIPAN,Mapiripán,Meta,Aeródromo,2.8973,-72.141,MUNICIPIO,MUNICIPIO,1200.0,20.0,12200.0,,670.0," 5517,000",,,2B,Público,5691.0,50,50325
535,MBO,,MONTERREY,Zambrano,Bolívar,Aeródromo,9.7372,-74.8291,PIZANO S.A.,PIZANO S.A.,1000.0,15.0,5000.0,,75.0," 7145,000",,,2A,Privado,50.0,13,13894
536,MBQ,,BOCOA QUERARI,Mitú,Vaupés,Aeródromo,1.5975,-70.7994,RESGUARDO INDIGENA,GOBERNACION DEL VAUPES,440.0,10.0,1650.0,,620.0," 3423,000",,,1A,Público,293.0,97,97001
537,MCG,,MORICHAL,Papunahua,Vaupés,Aeródromo,1.9072,-70.7619,MUNICIPIO,MUNICIPIO,800.0,30.0,5500.0,,648.0," 2989,000",,,1B,Público,72.0,97,97777
538,MCH,,MOCHUELO,Cravo Norte,Arauca,Aeródromo,,,,,,,,,,,,,,,1.0,81,81220
539,MCJ,MCJ,MAICAO,Maicao,La Guajira,Aeródromo,11.3833,-72.2333,MUNICIPIO,MUNICIPIO,1600.0,30.0,12202.0,,160.0,,,,3C,Público,26.0,44,44430
540,MCL,,CAÑO COLORADO,Mitú,Vaupés,Aeródromo,0.365,-70.4433,RESGUARDO INDIGENA,GOBERNACION DEL VAUPES,500.0,15.0,5000.0,,650.0," 3423,000",,,1A,Público,313.0,97,97001
541,MCO,,MACOCOBA,Puerto Carreño,Vichada,Aeródromo,,,,,,,,,,,,,,,5.0,99,99001
542,MCP,,CACHIPORRO,Mitú,Vaupés,Aeródromo,0.5542,-71.9264,RESGUARDO INDIGENA,GOBERNACION DEL VAUPES,670.0,10.0,12202.0,,650.0," 3423,000",,,1A,Público,188.0,97,97001
543,MDA,,INGENIO INCAUCA (C.A),Miranda,Cauca,Aeródromo,3.2687,-76.3337,INGENIO DEL CAUCA S.A.,INCAUCA.S.A. - ASOCAÑA,250.0,10.0,500.0,,3314.0," 2955,000",,2015-08-05,1A,Fumigación,99.0,19,19455
544,MDE,MDE,JOSE M. CORDOVA,Rionegro,Antioquia,Internacional,6.1645,-75.423,AEROCIVIL,EN CONCESION-SOACN(Sociedad Operadora de Aeropuertos Centro Norte),3500.0,45.0,,,6980.0,"  605,000",,,4E,Aerocivil,208122.0,5,5615
545,MDR,,PIEDRA ÑI,Mitú,Vaupés,Aeródromo,-0.1089,-70.3272,RESGUARDO INDIGENA,GOBERNACION DEL VAUPES,420.0,10.0,5000.0,,500.0," 3423,000",,,1A,Público,1521.0,97,97001
546,MED,MND,MEDINA,Medina,Cundinamarca,Aeródromo,4.4841,-73.345,MUNICIPIO,MUNICIPIO,1060.0,15.0,5000.0,,1500.0," 3660,000",,,2A,Público,950.0,25,25438
547,MFR,MFB,MONFORT,Mitú,Vaupés,Aeródromo,0.625,-69.7494,RESGUARDO INDIGENA,GOBERNACION DEL VAUPES,620.0,20.0,12202.0,,650.0," 3423,000",,,1A,Público,798.0,97,97001
548,MFS,MFS,MIRAFLORES,Miraflores,Guaviare,Aeródromo,1.3377,-71.9507,MUNICIPIO,MUNICIPIO,1320.0,25.0,25000.0,,730.0,"   21,000",1957-01-30,,3B,Público,4188.0,95,95200
549,MGN,MGN,BARACOA,Magangué,Bolívar,Aeródromo,9.2849,-74.8465,AEROCIVIL,AEROCIVIL,1410.0,20.0,33112.0,,195.0,"  352,000",1968-05-17,,2B,Aerocivil,560.0,13,13430
550,MGO,,SAN GERARDO,Mitú,Vaupés,Aeródromo,0.7697,-70.2847,RESGUARDO INDIGENA,GOBERNACION DEL VAUPES,410.0,15.0,1650.0,,540.0," 3423,000",,,1A,Público,205.0,97,97001
551,MGP,,MAGUI PAYAN,Magüí,Nariño,Aeródromo,1.7742,-78.1914,MUNICIPIO,EL MUNICIPIO,680.0,10.0,5000.0,,213.0," 4006,000",,,1A,Público,1.0,52,52427
552,MGU,,SAN MIGUEL,Mitú,Vaupés,Aeródromo,-0.0039,-70.4972,RESGUARDO INDIGENA,GOBERNACION DEL VAUPES,540.0,15.0,1650.0,,650.0," 3423,000",,,1A,Público,709.0,97,97001
553,MIB,,BELEN DE INAMBU,Mitú,Vaupés,Aeródromo,0.4708,-70.1847,RESGUARDO INDIGENA,GOBERNACION DEL VAUPES,460.0,10.0,1650.0,,650.0," 3423,000",,,1A,Público,180.0,97,97001
554,MIC,,IBACABA,Mitú,Vaupés,Aeródromo,0.9703,-69.213,RESGUARDO INDIGENA,GOBERNACION DEL VAUPES,440.0,15.0,1650.0,,600.0,"   45,000",,,1A,Público,134.0,97,97001
555,MII,,MANI,Maní,Casanare,Aeródromo,,,,,,,,,,,,,,,20.0,85,85139
556,MIN,,DUMACITA,Maní,Casanare,Aeródromo,,,,,,,,,,,,,,,7.0,85,85139
557,MIS,,SANTA ISABEL,Mitú,Vaupés,Aeródromo,-0.1178,-70.1931,RESGUARDO INDIGENA,GOBERNACION DEL VAUPES,330.0,10.0,1650.0,,465.0," 3423,000",,,1A,Público,486.0,97,97001
558,MIT,,WACARICUARA,Mitú,Vaupés,Aeródromo,0.2,-70.225,MUNICIPIO,MUNICIPIO,850.0,25.0,12202.0,,500.0,"  984,000",,,1A,Público,2113.0,97,97001
559,MKA,,KAMANAOS,Mitú,Vaupés,Aeródromo,1.7261,-69.8453,RESGUARDO INDIGENA,GOBERNACION DEL VAUPES,400.0,15.0,1650.0,,670.0," 3423,000",,,1B,Público,856.0,97,97001
560,MLG,,JERONIMO DE AGUAYO,Málaga,Santander,Aeródromo,6.7059,-72.7304,MUNICIPIO,MUNICIPIO,1000.0,16.0,5670.0,,6705.0,"   11,000",,,2A,Público,9876.0,68,68432
561,MLR,,TOLEMAIDA,Melgar,Tolima,Aeródromo,,,,,,,,,,,,,,,3950.0,73,73449
562,MMP,MVP,SAN BERNARDO,Mompós,Bolívar,Aeródromo,9.2583,-74.4383,AEROCIVIL,AEROCIVIL,1175.0,14.0,16300.0,,72.0,"  352,000",1968-05-17,,2A,Aerocivil,924.0,13,13468
563,MNI,,YARUMITOS,Maní,Casanare,Aeródromo,,,,,,,,,,,,,,,10.0,85,85139
564,MNO,,LA GLORIA,Aguazul,Casanare,Aeródromo,5.0064,-72.3561,CARMEN SEDANO,PERENCO COLOMBIA LIMITED,540.0,18.0,5000.0,,630.0," 6967,000",,,1A,Privado,1540.0,85,85010
565,MOC,,MONTELIBANO,Agustín Codazzi,Cesar,Aeródromo,,,,,,,,,,,,,,,1.0,20,20013
566,MOQ,,MOSQUERA,Mosquera,Nariño,Aeródromo,,,,,,,,,,,,,,,5.0,52,52473
567,MOY,,MONTERREY,Monterrey,Casanare,Aeródromo,,,,,,,,,,,,,,,1.0,85,85162
568,MPI,,PIRACUARA,Mitú,Vaupés,Aeródromo,-0.6703,-69.6514,RESGUARDO INDIGENA,GOBERNACION DEL VAUPES,540.0,10.0,12202.0,,640.0," 3423,000",,,1A,Público,863.0,97,97001
569,MPU,,PACU,Mitú,Vaupés,Aeródromo,1.6308,-70.3639,RESGUARDO INDIGENA,GOBERNACION DEL VAUPES,540.0,10.0,1650.0,,700.0," 3423,000",,,1A,Público,242.0,97,97001
570,MQU,MQU,JOSE CELESTINO,San Sebastián de Mariquita,Tolima,Regional,5.2126,-74.8837,AEROCIVIL,AEROCIVIL,1790.0,45.0,,,1531.0,"   51,000",1968-01-24,,2A,Aerocivil,1428.0,73,73443
571,MRF,,LAGOS DEL DORADO,Miraflores,Guaviare,Aeródromo,,,,,,,,,,,,,,,3.0,95,95200
572,MRI,,MURINDO,Murindó,Antioquia,Aeródromo,6.9762,-76.8125,ALCALDIA,ALCALDIA,670.0,10.0,3500.0,,23.0,,,2013-12-12,1A,Público,481.0,5,5475
573,MSA,,SAN ANTONIO,Mitú,Vaupés,Aeródromo,0.6797,-70.4375,RESGUARDO INDIGENA,GOBERNACION DEL VAUPES,340.0,10.0,1650.0,,610.0," 3423,000",,,1A,Público,331.0,97,97001
574,MSI,,SANTA LUCIA,Mitú,Vaupés,Aeródromo,1.3825,-70.0067,RESGUARDO INDIGENA,GOBERNACION DEL VAUPES,415.0,15.0,3000.0,,1020.0," 3423,000",,,1A,Público,186.0,97,97001
575,MSN,,SAN PABLO,Mitú,Vaupés,Aeródromo,,,,,,,,,,,,,,,86.0,97,97001
576,MSO,,SONAÑA,Mitú,Vaupés,Aeródromo,0.1308,-70.5792,RESGUARDO INDIGENA,GOBERNACION DEL VAUPES,700.0,15.0,5000.0,,680.0," 3423,000",,,1A,Público,657.0,97,97001
577,MSR,,SANTA RITA,Mitú,Vaupés,Aeródromo,1.6528,-70.4097,RESGUARDO INDIGENA,GOBERNACION DEL VAUPES,400.0,10.0,1650.0,,700.0," 3423,000",,,1A,Público,237.0,97,97001
578,MTA,,MUTATA,Mutatá,Antioquia,Aeródromo,7.2505,-76.4442,ALCALDIA,ALCALDIA,795.0,10.0,6000.0,,397.0," 3660,000",,,1A,Público,25.0,5,5480
579,MTB,MTB,EL PINDO,Montelíbano,Córdoba,Regional,7.9733,-75.4413,AEROCIVIL,AEROCIVIL,1100.0,26.0,12202.0,,160.0," 3107,000",1981-04-08,,2C,Aerocivil,1863.0,23,23466
580,MTC,,PAPUNAGUA - PUERTO. SOLANO,Mitú,Vaupés,Aeródromo,1.9073,-70.7622,RESGUARDO INDIGENA,GOBERNACION DEL VAUPES,650.0,15.0,5000.0,,492.0," 2994,000",,,1A,Público,676.0,97,97001
581,MTI,,TIQUIE,Mitú,Vaupés,Aeródromo,0.2342,-70.1689,RESGUARDO INDIGENA,GOBERNACION DEL VAUPES,530.0,15.0,5000.0,,630.0," 3423,000",,,1A,Público,2099.0,97,97001
582,MTN,,BUENOS AIRES,Mitú,Vaupés,Aeródromo,0.0203,-71.0074,RESGUARDO INDIGENA,GOBERNACION DEL VAUPES,400.0,10.0,1650.0,,620.0,"   45,000",,,1A,Público,1142.0,97,97001
583,MTP,,MATUPA,San Martín,Meta,Aeródromo,,,,,,,,,,,,,,,1565.0,50,50689
584,MTR,MTR,LOS GARZONES,Montería,Córdoba,Nacional,8.8239,-75.8261,AEROCIVIL,EN CONCESION-SOACN(Sociedad Operadora de Aeropuertos Centro Norte,1860.0,35.0,,,19.0,"  984,000",1987-02-02,,4C,Aerocivil,70624.0,23,23001
585,MTS,,TERESITA,Mitú,Vaupés,Aeródromo,0.7381,-69.4714,RESGUARDO INDIGENA,GOBERNACION DEL VAUPES,630.0,20.0,12202.0,,620.0," 3423,000",,,1A,Público,670.0,97,97001
586,MTT,,CACHIPORRO,Mitú,Vaupés,Aeródromo,,,,,,,,,,,,,,,188.0,97,97001
587,MTU,,MATUPA,San Martín,Meta,Aeródromo,,,,,,,,,,,,,,,1565.0,50,50689
588,MUR,,TAPURUCUARA,Mitú,Vaupés,Aeródromo,1.4717,-70.1631,RESGUARDO INDIGENA,GOBERNACION DEL VAUPES,450.0,15.0,2700.0,,880.0," 3423,000",,,1A,Público,2123.0,97,97001
589,MUT,,ATAHUALPA,Mutatá,Antioquia,Aeródromo,,,,,,,,,,,,,,,7.0,5,5480
590,MUZ,,MUZO,Muzo,Boyacá,Aeródromo,5.5472,-74.1128,MUNICIPIO,MUNICIPIO,800.0,16.0,6400.0,,2952.0,,,,1A,Público,,15,15480
591,MVA,,VILLA GLADYS,Mitú,Vaupés,Aeródromo,0.2607,-71.3566,RESGUARDO INDIGENA,GOBERNACION DEL VAUPES,950.0,15.0,12202.0,,493.0,"   45,000",,,1A,Público,237.0,97,97001
592,MVI,,VILLA FATIMA,Mitú,Vaupés,Aeródromo,0.9744,-69.9569,RESGUARDO INDIGENA,GOBERNACION DEL VAUPES,510.0,10.0,1650.0,,680.0," 3423,000",,,1A,Público,411.0,97,97001
593,MVN,,VILLA NUEVA,Mitú,Vaupés,Aeródromo,0.2732,-70.4491,RESGUARDO INDIGENA,GOBERNACION DEL VAUPES,375.0,12.0,1650.0,,590.0,"   45,000",,,1A,Público,33.0,97,97001
594,MVP,MVP,FABIO A. LEON BENTLEY,Mitú,Vaupés,Regional,1.2535,-70.2341,MUNICIPIO,AEROCIVIL,1880.0,30.0,,,680.0,"   34,000",1958-02-19,,3C,Aerocivil,35858.0,97,97001
595,MVU,,LOS ANGELES,Mitú,Vaupés,Aeródromo,0.5767,-70.13,RESGUARDO INDIGENA,GOBERNACION DEL VAUPES,390.0,10.0,1650.0,,640.0,"   45,000",,,1A,Público,256.0,97,97001
596,MWA,,WAINAMBI,Mitú,Vaupés,Aeródromo,0.8667,-69.6172,RESGUARDO INDIGENA,GOBERNACION DEL VAUPES,360.0,10.0,1650.0,,650.0," 3423,000",,,1A,Público,181.0,97,97001
597,MWY,,WASAY,Mitú,Vaupés,Aeródromo,1.6608,-70.0194,RESGUARDO INDIGENA,GOBERNACION DEL VAUPES,390.0,15.0,1650.0,,700.0," 3423,000",,,1A,Público,78.0,97,97001
598,MYA,,YAPU,Mitú,Vaupés,Aeródromo,0.6217,-70.3517,RESGUARDO INDIGENA,GOBERNACION DEL VAUPES,540.0,20.0,5000.0,,600.0," 3423,000",,,1A,Público,2067.0,97,97001
599,MYY,VAB,YAVARATE,Mitú,Vaupés,Aeródromo,0.6117,-69.2072,RESGUARDO INDIGENA,GOBERNACION DEL VAUPES,490.0,15.0,1650.0,,400.0," 3423,000",,,1A,Público,585.0,97,97001
600,MZL,MZL,LA NUBIA,Manizales,Caldas,Nacional,5.0298,-75.4667,FODECAL,FODECAL,1000.0,15.0,15876.0,,6866.0,"  623,000",,,2A,Público,38890.0,17,17001
601,NAR,,PUERTO NARE,Puerto Nare,Antioquia,Aeródromo,6.2102,-74.5902,CEMENTOS ARGOS S.A.,CEMENTOS ARGOS S.A.,1000.0,20.0,9000.0,,130.0," 4504,000",,2015-09-12,2B,Privado,1298.0,5,5585
602,NAT,,SAN GERMAN,Natagaima,Tolima,Aeródromo,,,,,,,,,,,,,,,50.0,73,73483
603,NCC,,LA REFORMA,Nunchía,Casanare,Aeródromo,5.4293,-72.163,JUAN BERNARDO SERRANO A.,JUAN B. SERRANO ARDILA,700.0,10.0,2000.0,,308.0,"  471,000",,2016-04-09,1A,Fumigación,1.0,85,85225
604,NCI,NCI,NECOCLI,Necoclí,Antioquia,Aeródromo,8.45,-76.7833,MUNICIPIO,MUNICIPIO,833.0,15.0,5680.0,,60.0," 5917,000",,,1B,Público,979.0,5,5490
605,NFA,,NUEVA FORTUNA,Necoclí,Antioquia,Aeródromo,8.6167,-76.6667,MUNICIPIO,MUNICIPIO,300.0,10.0,1300.0,,550.0," 2989,000",,,1A,Público,5.0,5,5490
606,NIA,,LA NEVERA,Nunchía,Casanare,Aeródromo,5.5128,-72.1314,MAURICIO OLMOS,AGILL S.A.S.,800.0,10.0,3000.0,,3100.0," 5053,000",,2017-10-07,1A,Fumigación,1.0,85,85225
607,NQU,NQU,REYES MURILLO,Nuquí,Chocó,Regional,5.712,-77.2627,AEROCIVIL,AEROCIVIL,930.0,10.0,,,13.0,"    2,279",1975-08-21,,1A,Aerocivil,13940.0,27,27495
608,NUA,,LA CEIBA,Nunchía,Casanare,Aeródromo,5.4468,-72.0059,ISMENIA CARREÑO MARTINEZ,FUMIVILLA LTDA,900.0,10.0,3000.0,,656.0," 2497,000",,,1A,Fumigación,,85,85225
609,NUC,,LA FLORA,San Luis de Palenque,Casanare,Aeródromo,5.2097,-71.8106,GERARDO ZAMBRANO GUIO,PERENCO COLOMBIA LIMITED,640.0,15.0,12202.0,,539.0,"  933,000",,,1A,Privado,1735.0,85,85325
610,NUE,,NUEVO MUNDO,Trinidad,Casanare,Aeródromo,5.5318,-71.8239,INPROARROZ LTDA,SAO E.U.,800.0,10.0,2000.0,,574.0,"  703,000",,,1A,Fumigación,,85,85430
611,NUH,,NUNCHIA LOS LIBERTADORES,Nunchía,Casanare,Aeródromo,,,,,,,,,,,,,,,7.0,85,85225
612,NUN,,EL DESECHO,Nunchía,Casanare,Aeródromo,5.6194,-72.0639,MIREYA MARTIN HUERTAS,EL MISMO,950.0,14.0,2000.0,,820.0," 6057,000",,,1A,Fumigación,1.0,85,85225
613,NUT,,PALMAROSA,Nunchía,Casanare,Aeródromo,5.5663,-72.0669,FLORENCIO VARGAS PATIÑO,FIBA S.A.,800.0,10.0,2000.0,,744.0," 1943,000",,2016-05-09,1A,Fumigación,,85,85225
614,NUV,,NUEVA UNION- CA,Santa Ana,Magdalena,Aeródromo,9.6639,-73.9265,MAURICIO E. VASQUEZ M.,EL MISMO,290.0,10.0,600.0,,196.0,"  173,000",,2018-02-04,UL,Privado,1.0,47,47707
615,NVA,NVA,BENITO SALAS,Neiva,Huila,Internacional,2.9499,-75.2941,AEROCIVIL,AEROCIVIL,1600.0,40.0,,,1464.0,"   57,000",1958-02-28,,3C,Aerocivil,65289.0,41,41001
616,NYY,,NUEVA YORK,Espinal,Tolima,Aeródromo,4.1333,-74.9,ALVARO ARAGON,FATOL LTDA.,700.0,10.0,2000.0,,1000.0," 5836,000",,2016-11-05,1A,Fumigación,,73,73268
617,OBA,,PRAGA,Obando,Valle del Cauca,Aeródromo,4.5889,-75.9681,ANGELA MARIA LEON LEMUS,ARFA S.A.,700.0,10.0,2000.0,,3041.0," 4937,000",,,1A,Fumigación,17.0,76,76497
618,OCE,,EL VIEJO CARMEN,Orocué,Casanare,Aeródromo,4.8978,-71.5681,INVERSIONES LA COLONIA S.A.,LA CEIBA S.A.,685.0,10.0,2000.0,,492.0," 1325,000",,2018-06-11,1A,Privado,7.0,85,85230
619,OCU,,BUENAVISTA,Orocué,Casanare,Aeródromo,4.8441,-71.5079,INVERSIONES LA COLONIA LTDA,LA CEIBA S.A.,900.0,15.0,2000.0,,469.0," 1325,000",,2018-06-11,1A,Privado,13.0,85,85230
620,OCV,OCV,AGUAS CLARAS,Ocaña,Norte de Santander,Regional,8.3156,-73.3583,AEROCIVIL,AEROCIVIL,1200.0,30.0,19000.0,,3850.0," 2363,000",1971-09-03,,2C,Aerocivil,2566.0,54,54498
621,OOR,,SAN PABLO,Orocué,Casanare,Aeródromo,4.7856,-71.6231,FERNANDO ADOLFO REYES I.,FERNANDO ADOLFO REYES I.,1175.0,15.0,3000.0,,472.0," 3214,000",,2015-08-03,1A,Privado,20.0,85,85230
622,OPA,,RIOPAILA,Zarzal,Valle del Cauca,Aeródromo,4.3174,-76.0975,RIOPAILA CASTILLA S.A.,RIOPAILA CASTILLA S.A.,800.0,18.0,5670.0,,3179.0," 6471,000",,2016-12-06,1A,Fumigación,,76,76895
623,ORA,,GUARILAQUE,Orocué,Casanare,Aeródromo,4.892,-71.5866,FERNANDO REYES ISAZA,PERENCO COLOMBIA LIMITED,600.0,18.0,5000.0,,509.0," 7235,000",,2017-01-03,1A,Privado,1570.0,85,85230
624,ORC,ORC,OROCUE,Orocué,Casanare,Aeródromo,4.7903,-71.3484,MUNICIPIO,MUNICIPIO,1480.0,25.0,22000.0,,550.0," 3559,000",,,1A,Público,5834.0,85,85230
625,ORE,,EL CAIMAN,Orocué,Casanare,Aeródromo,4.855,-71.6811,INVERSIONES LOS CEDROS,INVERS. LOS CEDROS,700.0,16.0,3500.0,,485.0," 5960,000",,,1A,Privado,19.0,85,85230
626,ORH,,ORIHUECA,Ciénaga,Magdalena,Aeródromo,10.8238,-74.1626,ELCIDA DIAZ GUERRERO,AEROPENORT LTDA.,720.0,10.0,3000.0,,90.0," 6068,000",,,1A,Fumigación,9.0,47,47189
627,ORI,,ORITO,Orito,Putumayo,Aeródromo,0.6665,-76.8768,ECOPETROL,ECOPETROL,754.0,23.0,,,1168.0," 2109,000",,,1B,Privado,2231.0,86,86320
628,ORJ,,LA CULEBRA,Orocué,Casanare,Aeródromo,4.9025,-71.6347,JUAN MAURICIO MEDINA NIÑO,JUAN MAURICIO MEDINA NIÑO,450.0,10.0,2000.0,,429.0," 4938,000",,,1A,Privado,17.0,85,85230
629,ORO,,GUANAPALO,Orocué,Casanare,Aeródromo,5.1741,-71.4299,TOMAS ORTEGA DIAZ,PERENCO COLOMBIA LIMITED,600.0,18.0,5000.0,,524.0," 7235,000",,2017-01-03,1A,Privado,1360.0,85,85230
630,ORR,,EL BORAL,Orocué,Casanare,Aeródromo,4.7384,-71.512,MARIA ANTONIA PAVIA DE R.,MARIA ANTONIA PAVIA DE R.,600.0,15.0,3000.0,,442.0," 3215,000",,2015-08-03,1A,Privado,1.0,85,85230
631,ORS,,SARDINAS,Orocué,Casanare,Aeródromo,4.9858,-71.5057,IGNACIA GUALDRON,PERENCO COLOMBIA LIMITED,600.0,18.0,5000.0,,521.0," 7235,000",,2017-01-03,1A,Privado,9320.0,85,85230
632,ORU,,EL MEDANO,Orocué,Casanare,Aeródromo,4.7621,-71.7184,ALBERTO MENDOZA Y OTRO,EL MISMO,885.0,15.0,4950.0,,485.0,"  828,000",2007-02-27,,1A,Privado,6.0,85,85230
633,ORX,,LA CANDELARIA,Orocué,Casanare,Aeródromo,5.1076,-71.6243,ANDRES REYES DIAZ,ANDRES REYES DIAZ,580.0,12.0,2000.0,,515.0," 7087,000",,,1A,Privado,5.0,85,85230
634,OTU,OTU,REMEDIOS OTU,Remedios,Antioquia,Regional,7.0106,-74.7156,AEROCIVIL,AEROCIVIL,950.0,12.0,,,2058.0,"  522,000",1968-07-03,,1A,Aerocivil,8663.0,5,5604
635,PAL,,PALACIO MUNICIPAL,Medellín,Antioquia,Aeródromo,,,,,,,,,,,,,,,2.0,5,5001
636,PAO,,PAOLA - CA,Restrepo,Meta,Aeródromo,4.1683,-73.5156,CONSTRUCCIONES GAMO LTDA,CLUB LA LIBELULA,180.0,10.0,500.0,,1112.0," 2138,000",,,UL,Privado,,50,50606
637,PBE,PBE,MORELA,Puerto Berrío,Antioquia,Regional,6.4599,-74.4106,AEROCIVIL,AEROCIVIL,1290.0,24.0,,,445.0,"  522,000",,,2C,Aerocivil,2460.0,5,5579
638,PBN,,NICOLAS E.SOTO,Puerto Boyacá,Boyacá,Aeródromo,,,,,,,,,,,,,,,34.0,15,15572
639,PBO,,PUERTO BOLIVAR,Uribia,La Guajira,Regional,12.2215,-71.9843,CARBONES DEL CERREJON,CARBONES DEL CERREJON,1580.0,45.0,,,98.0,"  831,000",,,3D,Privado,3507.0,44,44847
640,PBR,,LA PONDEROSA,Paratebueno,Cundinamarca,Aeródromo,,,,,,,,,,,,,,,75.0,25,25530
641,PCA,,PACOA,Pacoa,Vaupés,Aeródromo,0.0667,-71.2083,CORREGIMIENTO,CORREGIMIENTO,800.0,18.0,12202.0,,720.0," 3149,000",,,1A,Público,358.0,97,97511
642,PCE,,CUMARIBO,Puerto Carreño,Vichada,Regional,4.4464,-69.7815,GOBERNACION,GOBERNACION,900.0,15.0,26000.0,,547.0,"  407,000",,,1A,Público,10527.0,99,99001
643,PCH,,ALPES -PACHAQ.,Puerto López,Meta,Aeródromo,,,,,,,,,,,,,,,1.0,50,50573
644,PCJ,,PUERTO ALVIRA -CAÑO JABON,San Martín,Meta,Aeródromo,2.9029,-71.7496,JUNTA DE ORNATO,JUNTA DE ORNATO,1100.0,23.0,12202.0,,550.0," 5712,000",,,2C,Público,1124.0,50,50689
645,PCO,,PARACO,Córdoba,Bolívar,Aeródromo,,,,,,,,,,,,,,,35.0,13,13212
646,PCR,PCR,GERMAN OLANO,Puerto Carreño,Vichada,Regional,6.185,-67.4925,MUNICIPIO,AEROCIVIL,1800.0,30.0,,,1915.0,"  551,000",1968-07-10,,3C,Aerocivil,6271.0,99,99001
647,PDE,,LA VENGANZA,Paz de Ariporo,Casanare,Aeródromo,6.0226,-70.8976,WALTER F. GOMEZ ACOSTA,EL MISMO,570.0,12.0,4000.0,,410.0,,,,1A,Privado,70.0,85,85250
648,PDR,,LA COLONIA,Paz de Ariporo,Casanare,Aeródromo,5.7639,-71.5314,MILCIADES LUNA CUERVO,MUNICIPIO,670.0,15.0,2000.0,,620.0," 6296,000",,2012-12-08,1A,Público,12.0,85,85250
649,PEI,PEI,MATECAÑA,Pereira,Risaralda,Internacional,4.8128,-75.7393,MUNICIPIO,MUNICIPIO,2020.0,45.0,,,4417.0,"  522,000",,,4D,Público,95765.0,66,66001
650,PET,,PETROLEA,San José de Cúcuta,Norte de Santander,Aeródromo,8.4972,-72.5967,MINISTERIO DEFENSA,MINISTERIO DEFENSA,840.0,15.0,4000.0,,164.0,"  285,000",,,2A,Público,4.0,54,54001
651,PFO,,PUERTO PERALES,Puerto Triunfo,Antioquia,Aeródromo,5.9936,-74.5742,GOBERNACION,GOBERNACION,900.0,15.0,7000.0,,475.0," 2989,000",,,2A,Público,1062.0,5,5591
652,PGA,,PRAGA,Obando,Valle del Cauca,Aeródromo,,,,,,,,,,,,,,,17.0,76,76497
653,PGM,,PUERTO GAITAN,Puerto Gaitán,Meta,Aeródromo,4.3031,-72.0855,MUNICIPIO,MUNICIPIO,1380.0,23.0,12202.0,,150.0," 1861,000",,,3C,Público,3103.0,50,50568
654,PGN,,SABANETA,Puerto Gaitán,Meta,Aeródromo,,,,,,,,,,,,,,,10.0,50,50568
655,PGO,,EL RODEO,Puerto Gaitán,Meta,Aeródromo,,,,,,,,,,,,,,,80.0,50,50568
656,PGP,,LA PLATA PUERTO TRUJILLO,Puerto Gaitán,Meta,Aeródromo,3.4873,-71.3759,MUNICIPIO,MUNICIPIO,700.0,15.0,4500.0,,623.0,"   15,000",,,1A,Público,1377.0,50,50568
657,PGT,,MORELIA,Puerto Gaitán,Meta,Aeródromo,3.7504,-71.4561,META PETROLEUM LTD.,META PETROLEUM LTD.,1280.0,24.0,,,617.0," 1738,000",,,2C,Privado,30856.0,50,50568
658,PID,,PUERTO INIRIDA,Inírida,Guainía,Aeródromo,,,,,,,,,,,,,,,347.0,94,94001
659,PII,,SAN FELIPE,Inírida,Guainía,Aeródromo,,,,,,,,,,,,,,,82.0,94,94001
660,PIM,LPE,LA PRIMAVERA,La Primavera,Vichada,Aeródromo,5.4943,-70.4212,MUNICIPIO,MUNICIPIO,1740.0,18.0,12200.0,,410.0," 1028,000",,,2C,Público,6784.0,99,99524
661,PIP,RON,PAIPA JUAN JOSE RONDON,Paipa,Boyacá,Aeródromo,5.7644,-73.1057,AEROCIVIL,AEROCIVIL,1700.0,30.0,11400.0,,8205.0,"  984,000",1987-02-02,,3C,Aerocivil,154.0,15,15516
662,PIV,,LA PALESTINA,Pivijay,Magdalena,Aeródromo,10.5897,-74.2951,SAFUCO,SAFUCO,640.0,10.0,2000.0,,82.0," 2612,000",,2017-06-12,1A,Fumigación,,47,47551
663,PJS,,PAJONALES,Ambalema,Tolima,Aeródromo,4.7644,-74.8287,ORGANIZACIÓN PAJONALES S.A.,ORGANIZACIÓN PAJONALES S.A.,1100.0,15.0,4000.0,,850.0,"  390,000",,,2A,Fumigación,1.0,73,73030
664,PLA,PLA,PLANADAS,Planadas,Tolima,Aeródromo,3.3,-75.7333,MUNICIPIO,EL MISMO,700.0,11.0,5670.0,,3700.0," 3660,000",,,1A,Público,16.0,73,73555
665,PLD,,SAN ISIDRO,Puerto López,Meta,Aeródromo,4.1274,-73.2384,ARMANDO ROMERO PARRA,FARO LTDA.,720.0,10.0,2000.0,,787.0," 2491,000",,2017-06-12,1A,Fumigación,8.0,50,50573
666,PLE,,BELLO HORIZONTE,Puerto López,Meta,Aeródromo,,,,,,,,,,,,,,,1.0,50,50573
667,PLK,,LA ESPERANZA,Puerto Libertador,Córdoba,Aeródromo,,,,,,,,,,,,,,,3.0,23,23580
668,PLL,,PUERTO LLERAS,Puerto Lleras,Meta,Aeródromo,3.2897,-73.3792,MUNICIPIO,MUNICIPIO,940.0,15.0,12202.0,,800.0," 1148,000",,,2C,Público,11.0,50,50577
669,PLN,,PALONEGRO-NORTE,Agustín Codazzi,Cesar,Aeródromo,,,,,,,,,,,,,,,1.0,20,20013
670,PLO,,PALMASOLA,Puerto López,Meta,Aeródromo,4.1272,-73.0766,AVIAL LTDA,AVIAL LTDA.,900.0,20.0,2000.0,,820.0," 3021,000",,,1A,Fumigación,3.0,50,50573
671,PLP,,PUERTO LOPEZ,Puerto López,Meta,Aeródromo,,,,,,,,,,,,,,,1.0,50,50573
672,PLS,,TOBASIA,Puerto López,Meta,Aeródromo,4.0786,-73.0794,FAGAN S. EN C.,FAGAN S. EN C.,730.0,18.0,2000.0,,175.0," 4316,000",,,1A,Fumigación,15.0,50,50573
673,PLT,PLT,LAS FLORES,Plato,Magdalena,Aeródromo,9.7985,-74.7831,AEROCIVIL,AEROCIVIL,1067.0,20.0,3500.0,,86.0,"  876,000",1968-03-08,,2A,Aerocivil,298.0,47,47555
674,PMM,,INGENIO MANUELITA,Palmira,Valle del Cauca,Aeródromo,3.5986,-76.306,INGENIO MANUELITA S.A.,ING.MANUELITA - ASOCAÑA,250.0,10.0,500.0,,3366.0," 2960,000",,2015-08-05,1A,Fumigación,2.0,76,76520
675,PMO,,SAN LUIS,Palermo,Huila,Aeródromo,,,,,,,,,,,,,,,1.0,41,41524
676,PNQ,,PINOQUIA,Puerto Carreño,Vichada,Aeródromo,,,,,,,,,,,,,,,6.0,99,99001
677,POL,,POLONIA,Villavieja,Huila,Aeródromo,3.2667,-75.1681,INCORA LTDA,INCORA,700.0,13.0,2000.0,,1350.0,"  697,000",,,1A,Público,,41,41872
678,PPN,PPN,GUILLERMO LEON VALENCIA,Popayán,Cauca,Nacional,2.4542,-76.6099,AEROCIVIL,AEROCIVIL,1910.0,40.0,,,5669.0,"  455,000",1969-05-19,,4C,Aerocivil,17602.0,19,19001
679,PPT,,POTRERITO,Ibagué,Tolima,Aeródromo,4.3261,-75.0785,ARROCERA POTRERITO LASERNA,CRUZ VERDE,600.0,10.0,2000.0,,2460.0," 4508,000",,2015-09-03,1A,Fumigación,8.0,73,73001
680,PQE,,PALANQUERO -GERMAN OLANO,Puerto Salgar,Cundinamarca,Aeródromo,5.4835,-74.6574,FAC,FAC.,2296.0,20.0,,,553.0,,,,4B,Militar,126.0,25,25572
681,PRA,,LA OPIA,Piedras,Tolima,Aeródromo,4.4484,-74.9623,DANIEL GOMEZ TAMAYO,CRUZ VERDE,630.0,10.0,4000.0,,1929.0," 1839,000",,2016-05-03,1A,Fumigación,,73,73547
682,PRB,,LA AURORA,Paratebueno,Cundinamarca,Aeródromo,4.3228,-73.2739,LILIANA CORONADO,SERV.AEREO DEL ORIENTE-SAO,800.0,10.0,2000.0,,941.0,"  391,000",,,1A,Fumigación,1.0,25,25530
683,PRC,,PUERTO RICO,Puerto Rico,Caquetá,Aeródromo,,,,,,,,,,,,,,,27.0,18,18592
684,PRE,,SAN JOSE DE OCUNE,Puerto Carreño,Vichada,Aeródromo,4.0822,-70.2539,CORREGIMIENTO,CORREGIMIENTO,720.0,20.0,5670.0,,400.0," 2989,000",,,1A,Público,1450.0,99,99001
685,PRI,,PRIMERO DE MAYO,Paratebueno,Cundinamarca,Aeródromo,4.3347,-73.1439,SAUL E. OTALORA DAZA,COMERCIALIZADORA ECO,720.0,10.0,2000.0,,709.0,"  250,000",,,1A,Fumigación,1.0,25,25530
686,PRJ,PCC,PUERTO RICO,Puerto Rico,Caquetá,Aeródromo,1.875,-75.1556,MUNICIPIO,MUNICIPIO,948.0,10.0,12202.0,,750.0," 3660,000",,,2A,Público,27.0,18,18592
687,PRL,,NATALIA,Puerto López,Meta,Aeródromo,4.0698,-73.1805,MOLINOS INDUGRANOS,AEROTEC LTDA.,800.0,10.0,2000.0,,715.0," 4945,000",,,1A,Fumigación,,50,50573
688,PRO,,PORORO,Agustín Codazzi,Cesar,Aeródromo,9.935,-73.2687,PALMAS PORORO SAS,PALMAS PORORO SAS,900.0,18.0,6000.0,,328.0,"  276,000",,,1A,Privado,6.0,20,20013
689,PRR,,JIBICI,Cumaribo,Vichada,Aeródromo,4.8897,-68.3582,JORGE E. PINZON K.,JORGE E. PINZON K.,1100.0,15.0,5000.0,,368.0," 5921,000",,2015-11-07,1A,Privado,7.0,99,99773
690,PRT,,PALMARITO,Yopal,Casanare,Aeródromo,,,,,,,,,,,,,,,1.0,85,85001
691,PRU,,ESTELIDA ARIGUANEY,Puerto Carreño,Vichada,Aeródromo,,,,,,,,,,,,,,,1.0,99,99001
692,PSO,PSO,ANTONIO NARIÑO,Pasto,Nariño,Nacional,1.3964,-77.291,AEROCIVIL,AEROCIVIL,2177.0,40.0,,,5896.0,"   95,000",1957-04-24,,4C,Aerocivil,23045.0,52,52001
693,PTA,,PALESTINA,Pivijay,Magdalena,Aeródromo,,,,,,,,,,,,,,,1.0,47,47551
694,PTC,,LA VICTORIA,Cumaribo,Vichada,Aeródromo,3.8281,-70.5893,INSPECCION POLICIA,MUNICIPIO,750.0,10.0,2000.0,,426.0," 4087,000",,,1A,Público,1821.0,99,99773
695,PTE,,LA REFORMA,Puerto López,Meta,Aeródromo,4.0625,-73.1483,SOCIEDAD DE ACTIVOS,FARO LTDA.,940.0,10.0,2000.0,,940.0," 5961,000",,,1A,Fumigación,28.0,50,50573
696,PTL,PTX,CONTADOR,Pitalito,Huila,Regional,1.8573,-76.0856,AEROCIVIL,AEROCIVIL,1500.0,19.0,,,4221.0," 2090,000",1974-10-22,,2B,Aerocivil,1251.0,41,41551
697,PTO,,PIRIRI,Puerto Gaitán,Meta,Aeródromo,,,,,,,,,,,,,,,30.0,50,50568
698,PTS,,LA ESPERANZA,Puerto Salgar,Cundinamarca,Aeródromo,,,,,,,,,,,,,,,7.0,25,25572
699,PTW,,GEMELOS DORADOS,Puerto Wilches,Santander,Aeródromo,7.2466,-73.7723,MILTON A. SALAZAR REY,EL MISMO,850.0,15.0,5670.0,,314.0," 6473,000",2013-11-19,2017-01-09,1A,Privado,242.0,68,68575
700,PTZ,,YATAROS DE MELUA,Puerto López,Meta,Aeródromo,,,,,,,,,,,,,,,1.0,50,50573
701,PUE,,PUERTO RICO,Puerto Rico,Meta,Aeródromo,2.9419,-73.2039,MUNICIPIO,MUNICIPIO,1080.0,15.0,12202.0,,800.0," 4022,000",,,2A,Público,469.0,50,50590
702,PUL,,GAVIOTAS,Fuente de Oro,Meta,Aeródromo,3.4633,-73.6022,MISAEL RODRIGUEZ CASTAÑEDA,FAGA LTDA,720.0,10.0,2000.0,,987.0,"   76,000",,,1A,Fumigación,62.0,50,50287
703,PUU,PUU,TRES DE MAYO,Puerto Asís,Putumayo,Nacional,0.5054,-76.5008,AEROCIVIL,AEROCIVIL,1485.0,25.0,33112.0,,809.0,"  115,000",1965-09-02,,3C,Aerocivil,18730.0,86,86568
704,PVA,PVA,EL EMBRUJO,Providencia,San Andrés islas,Nacional,13.3572,-81.3579,AEROCIVIL,AEROCIVIL,1050.0,18.0,,,10.0,"  338,000",1969-04-23,,2B,Aerocivil,23333.0,88,88564
705,PVO,,EL ALGODONAL,Pueblo Nuevo,Córdoba,Aeródromo,,,,,,,,,,,,,,,35.0,23,23570
706,PWI,,PUERTO WILCHES,Puerto Wilches,Santander,Aeródromo,,,,,,,,,,,,,,,18.0,68,68575
707,PWT,,PUERTO WILCHES,Puerto Wilches,Santander,Aeródromo,,,,,,,,,,,,,,,18.0,68,68575
708,PZA,PZA,PAZ DE ARIPORO,Paz de Ariporo,Casanare,Aeródromo,5.8819,-71.883,AEROCIVIL,AEROCIVIL,1506.0,20.0,29000.0,,878.0," 1591,000",1972-06-06,,2B,Aerocivil,772.0,85,85250
709,PZI,,VENECIA DE LAS GUAMAS,Paz de Ariporo,Casanare,Aeródromo,5.6882,-70.7378,MAURICIO MEDINA NIÑO,MAURICIO MEDINA NIÑO,570.0,15.0,2000.0,,404.0," 5524,000",,2017-12-04,1A,Privado,126.0,85,85250
710,PZR,,CHAPARRITO,Paz de Ariporo,Casanare,Aeródromo,5.56,-71.2172,HERNAN BRAYDI,PERENCO COLOMBIA LIMITED,840.0,25.0,5670.0,,450.0," 5603,000",,,2B,Privado,5697.0,85,85250
711,QPM,,FURATENA,Quípama,Boyacá,Aeródromo,5.5275,-74.1869,MUNICIPIO,MUNICIPIO,860.0,16.0,5670.0,,3850.0,"  390,000",,,2B,Público,150.0,15,15580
712,QQA,,VILLANUEVA,Villanueva,Casanare,Aeródromo,,,,,,,,,,,,,,,2140.0,85,85440
713,RAV,RAV,CRAVO NORTE,Cravo Norte,Arauca,Aeródromo,6.3167,-70.2111,AEROCIVIL,AEROCIVIL,1122.0,18.0,12202.0,,336.0,"  343,000",1968-05-03,,3C,Aerocivil,3504.0,81,81220
714,RCH,RCH,ALMIRANTE PADILLA,Riohacha,La Guajira,Internacional,11.5262,-72.9267,MUNICIPIO,AEROCIVIL -ORIENTE S.A.S.,1900.0,30.0,,,43.0,"  187,000",1987-02-02,,4C,Aerocivil,6241.0,44,44001
715,RCN,,RANCHO NARE,Puerto López,Meta,Aeródromo,,,,,,,,,,,,,,,4.0,50,50573
716,RDN,,RONDON,Arauca,Arauca,Aeródromo,6.2872,-71.1019,AEROCIVIL,MUNICIPIO -COMODATO,1300.0,30.0,12202.0,,480.0," 1261,000",,,2B,Aerocivil,1657.0,81,81001
717,RGR,,RANCHO GRANDE,Ibagué,Tolima,Aeródromo,4.4419,-75.1167,ZORROZA Y SUAREZ LTDA.,CRUZ VERDE,760.0,10.0,2000.0,,2877.0," 4508,000",,2015-09-03,1A,Fumigación,18.0,73,73001
718,RVE,RVE,COLONIZADORES,Arauca,Arauca,Regional,6.9504,-71.8562,ECOPETROL,AEROCIVIL,800.0,30.0,,,678.0," 4158,000",1983-09-25,,3C,Aerocivil,6315.0,81,81001
719,SAA,,SANTA ANA,Orocué,Casanare,Aeródromo,5.0875,-71.7902,FERNANDO REYES ISAZA Y CIA. S en C,FERNANDO REYES ISAZA Y CIA. S en C,600.0,15.0,3000.0,,538.0," 5962,000",,,1A,Privado,46.0,85,85230
720,SAD,,EL BALSAMO,San Diego,Cesar,Aeródromo,,,,,,,,,,,,,,,1.0,20,20750
721,SAM,,SANTANA,Piedras,Tolima,Aeródromo,4.4083,-75.0244,MARIA CASAS MATIZ,CRUZ VERDE,640.0,10.0,2000.0,,2290.0," 1735,000",,,1A,Fumigación,,73,73547
722,SAR,,EL BOSQUE,San Alberto,Cesar,Aeródromo,,,,,,,,,,,,,,,3.0,20,20710
723,SAS,,SAN CARLOS,Maní,Casanare,Aeródromo,5.0096,-72.3237,WILSON GAMEZ M.,AVIOCOL LTDA.,850.0,10.0,3000.0,,991.0," 5187,000",,2016-10-03,1A,Fumigación,,85,85139
724,SBD,,LA MAGDALENA,Sabana de Torres,Santander,Aeródromo,,,,,,,,,,,,,,,414.0,68,68655
725,SBN,,ISCUANDE,Santa Bárbara,Nariño,Aeródromo,2.4483,-77.9813,MUNICIPIO,MUNICIPIO,540.0,15.0,2300.0,,150.0," 1490,000",,,1A,Público,,52,52696
726,SBT,SNT,LAS CRUCES,Sabana de Torres,Santander,Aeródromo,7.3833,-73.5055,MUNICIPIO,MUNICIPIO,1202.0,20.0,12202.0,,459.0," 9409,000",,,2B,Público,2335.0,68,68655
727,SCA,,SUESCUN,San Carlos de Guaroa,Meta,Aeródromo,,,,,,,,,,,,,,,2.0,50,50680
728,SCG,,EL PRADO,San Carlos de Guaroa,Meta,Aeródromo,,,,,,,,,,,,,,,4.0,50,50680
729,SCM,,LA CABAÑA,San Carlos de Guaroa,Meta,Aeródromo,,,,,,,,,,,,,,,1.0,50,50680
730,SCS,,SAN CARLOS DEL PLANAS,Santa Rosalía,Vichada,Aeródromo,4.0333,-70.8333,MUNICIPIO,MUNICIPIO,416.0,20.0,2500.0,,400.0," 3660,000",,,1A,Público,7.0,99,99624
731,SCY,,SAN JERONIMO,Flandes,Tolima,Aeródromo,4.1932,-74.8615,ELVIRA PINEDA VERGARA,SANIDAD VEGETAL CRUZ,800.0,10.0,2000.0,,1030.0," 4217,000",,,1A,Fumigación,1.0,73,73275
732,SDA,,SAN AGUSTIN- C.A.,Saldaña,Tolima,Aeródromo,3.9451,-74.9372,NELLY DE ESCOBAR,ERIBERTO ESCOBAR A.,300.0,10.0,600.0,,1017.0," 1442,000",,,UL,Privado,,73,73671
733,SDG,,LA MANSION,San Carlos de Guaroa,Meta,Aeródromo,,,,,,,,,,,,,,,1.0,50,50680
734,SFA,,SANTAFE DE ANTIOQUIA,Santa Fé de Antioquia,Antioquia,Aeródromo,,,,,,,,,,,,,,,61.0,5,5042
735,SFC,,SAN FRANCISCO,Garzón,Huila,Aeródromo,,,,,,,,,,,,,,,3.0,41,41298
736,SFL,,SAN FELIPE,Bugalagrande,Valle del Cauca,Aeródromo,,,,,,,,,,,,,,,18.0,76,76113
737,SGG,,LA FLORIDA,San Carlos de Guaroa,Meta,Aeródromo,3.912,-73.2956,GILBERTO LOPEZ S.,FARO LTDA.,740.0,10.0,2000.0,,771.0," 1579,000",,,1A,Fumigación,2.0,50,50680
738,SGL,,SAN GIL - LOS POZOS,San Gil,Santander,Aeródromo,6.5812,-73.128,MUNICIPIO,MUNICIPIO,1240.0,15.0,5670.0,,5577.0,"  677,000",,,3A,Público,418.0,68,68679
739,SGT,,SAN GERMAN,Natagaima,Tolima,Aeródromo,,,,,,,,,,,,,,,50.0,73,73483
740,SGU,,YAGUARITO,San Carlos de Guaroa,Meta,Aeródromo,3.8817,-73.3403,ACEITES MANUELITA S.A.,ACEITES MANUELITA S.A.,1000.0,14.0,5670.0,,837.0," 4507,000",,,2A,Fumigación,83.0,50,50680
741,SHL,,SANTA HELENA DE UPIA,Villanueva,Casanare,Aeródromo,4.3397,-72.7428,RUBEN A. PINZON GALINDO,ASAM LTDA.,794.0,10.0,2000.0,,462.0," 3095,000",,2013-08-02,1A,Fumigación,54.0,85,85440
742,SIR,,SIRENAS,Yopal,Casanare,Aeródromo,,,,,,,,,,,,,,,190.0,85,85001
743,SIS,,SANTA ISABEL,Mitú,Vaupés,Aeródromo,,,,,,,,,,,,,,,486.0,97,97001
744,SJB,,SAN JUAN DE URABA,San Juan de Urabá,Antioquia,Aeródromo,,,,,,,,,,,,,,,11.0,5,5659
745,SJE,SJE,JORGE E. GONZALEZ T.,San José del Guaviare,Guaviare,Regional,2.5796,-72.6393,GOBERNACION,DEPARTAMENTO,1450.0,20.0,22000.0,,603.0,"  984,000",,,2B,Público,32581.0,95,95001
746,SJM,,SAN JOSE DE MULATOS,Turbo,Antioquia,Aeródromo,8.35,-76.3333,MUNICIPIO,MUNICIPIO,440.0,20.0,1300.0,,300.0," 2989,000",,,1A,Público,1.0,5,5837
747,SJN,,SAN JUAN CR,La Gloria,Cesar,Aeródromo,,,,,,,,,,,,,,,1.0,20,20383
748,SJR,,SAN JUAN DE URABA,San Juan de Urabá,Antioquia,Aeródromo,,,,,,,,,,,,,,,11.0,5,5659
749,SJT,,SAN JAVIER,Piedras,Tolima,Aeródromo,4.4014,-75.0681,MELENDEZ Y MELENDEZ LTDA,SANIDAD VEGETAL CRUZ,840.0,10.0,2000.0,,2992.0," 1682,000",,,1A,Fumigación,,73,73547
750,SKGB,,"MARCO FIDEL SUAREZ  ""AFB""",Cali,Valle del Cauca,Aeródromo,3.45689,-76.496514,,,,,,,,,,,,,117.0,76,76001
751,SKTI,,"TOLEMAIDA ""AFB""",Melgar,Tolima,Aeródromo,,,,,,,,,,,,,,,472.0,73,73449
752,SLC,,SABANALARGA,Sabanalarga,Casanare,Aeródromo,,,,,,,,,,,,,,,,85,85300
753,SLI,,LA BRAMADORA,Orocué,Casanare,Aeródromo,5.1914,-71.7439,SILVANA REYES DIAZ,SILVANA REYES DIAZ,520.0,10.0,2000.0,,544.0," 7088,000",,,1A,Privado,2.0,85,85230
755,SLM,,SAN LUIS,Granada,Meta,Aeródromo,,,,,,,,,,,,,,,4.0,50,50313
756,SLO,,YAGUARITO,San Carlos de Guaroa,Meta,Aeródromo,,,,,,,,,,,,,,,83.0,50,50680
757,SLR,,LOS FERIA GIRON,San Luis,Tolima,Aeródromo,4.2583,-75.0092,GERARDO HERNANDEZ FERIA,EL MISMO,1050.0,15.0,2000.0,,1476.0," 3870,000",,,2A,Privado,,73,73678
758,SLU,,SANTA LUCIA,Ábrego,Norte de Santander,Aeródromo,8.0667,-73.2,INCORA LTDA,INCORA,1000.0,30.0,4000.0,,4502.0,"  842,000",,,2B,Público,1.0,54,54003
760,SLY,,MATENOVILLOS,San Luis de Palenque,Casanare,Aeródromo,5.2103,-71.8508,SANTIAGO CAMILO REYES DIAZ,SANTIAGO CAMILO REYES DIAZ,580.0,15.0,2000.0,,584.0," 6667,000",,,1A,Privado,3.0,85,85325
761,SMA,,AGUAS BLANCAS,San Martín,Cesar,Aeródromo,,,,,,,,,,,,,,,5.0,20,20770
762,SMD,,SABANETA,San Martín,Cesar,Aeródromo,8.0268,-73.5169,ALVARO ESCOBAR SAAVEDRA,ALVARO ESCOBAR SAAVEDRA,1000.0,18.0,5000.0,,318.0," 2494,000",,2017-06-03,1A,Privado,12.0,20,20770
763,SMR,SMR,SIMON BOLIVAR,Santa Marta,Magdalena,Internacional,11.1197,-74.2473,AEROCIVIL,AEROCIVIL -ORIENTE S.A.S.,1700.0,40.0,,,22.0,"  352,000",1968-05-17,,3C,Aerocivil,45781.0,47,47001
764,SMT,,LA CAPRICHOSA,San Martín,Meta,Aeródromo,,,,,,,,,,,,,,,20.0,50,50689
765,SNF,,SAN FELIPE CA,Orocué,Casanare,Aeródromo,,,,,,,,,,,,,,,3.0,85,85230
766,SNG,,SANTIAGO No.1,Maní,Casanare,Aeródromo,,,,,,,,,,,,,,,125.0,85,85139
767,SNL,,HIPILANDIA,San Martín,Cesar,Aeródromo,7.8899,-73.4588,PALMAS DEL CESAR S.A,PALMAS DEL CESAR S.A.,620.0,18.0,4000.0,,311.0,"  122,000",,2018-02-03,1A,Privado,390.0,20,20770
768,SNM,,LA DIVA,Santa Marta,Magdalena,Aeródromo,11.2448,-73.7165,INVERSIONES TIN S.A.S.,ASA S.A.S.,620.0,10.0,2000.0,,5249.0," 5383,000",,2017-11-07,1A,Fumigación,8.0,47,47001
769,SNP,,SAN PABLO,Lorica,Córdoba,Aeródromo,9.0598,-75.7804,PROAGROCOR  S.A.,AEROPENORT LTDA.,650.0,10.0,2000.0,,15.0,"  707,000",,2017-04-08,1A,Fumigación,14.0,23,23417
770,SNR,,SAN MARTIN,San Martín,Meta,Regional,3.7023,-73.6881,AEROCIVIL,AEROCIVIL,700.0,15.0,3000.0,,1380.0,"  644,000",1967-06-05,,1A,Aerocivil,181.0,50,50689
771,SNU,,SAN MIGUEL,San Carlos de Guaroa,Meta,Aeródromo,,,,,,,,,,,,,,,18.0,50,50680
772,SOR,,EL RINCON DE MUCURA,San Onofre,Sucre,Aeródromo,9.7743,-75.6382,INVERSIONES EL RINCON DE MUCURA,INVER. EL RINCON DE MUCURA,900.0,15.0,6400.0,,10.0," 1443,000",,,2A,Privado,36.0,70,70713
773,SOX,SOX,ALBERTO LLERAS CAMARGO,Firavitoba,Boyacá,Regional,5.6765,-72.9698,MUNICIPIO SOGAMOSO,MUNICIPIO SOGAMOSO,1500.0,24.0,,,8149.0,"  102,000",,,3C,Público,224.0,15,15272
774,SPD,,SAN PEDRO DE URABA,San Pedro de Urabá,Antioquia,Aeródromo,8.2898,-76.3748,MUNICIPIO,MUNICIPIO,853.0,14.0,6400.0,,417.0,"  984,000",,,1A,Público,821.0,5,5665
775,SPE,,SAN PEDRO CORAL,Buenavista,Sucre,Aeródromo,,,,,,,,,,,,,,,35.0,70,70110
776,SPO,,SAN PABLO - INCORA,María la Baja,Bolívar,Aeródromo,10.0472,-75.2653,INCORA LTDA,FALAN,720.0,18.0,2000.0,,54.0," 8827,000",,,1B,Público,5.0,13,13442
777,SQE,,SAN LUIS DE PALENQUE,San Luis de Palenque,Casanare,Aeródromo,5.4175,-71.7308,MUNICIPIO,MUNICIPIO,940.0,20.0,12202.0,,700.0," 3660,000",,,1A,Público,1.0,85,85325
778,SRB,,SANTA ROSA DE SIMITI,Simití,Bolívar,Aeródromo,,,,,,,,,,,,,,,3.0,13,13744
779,SRO,SSL,SANTA ROSALIA,Santa Rosalía,Vichada,Aeródromo,5.1337,-70.8718,CORREGIMIENTO,CORREGIMIENTO,800.0,25.0,12202.0,,500.0,"  264,000",,,1A,Público,2018.0,99,99624
780,SRS,SRS,EL ALGARROBO,San Marcos,Sucre,Aeródromo,8.6874,-75.1624,AEROCIVIL,AEROCIVIL,1200.0,136.0,6000.0,,135.0," 3890,000",,,2A,Aerocivil,354.0,70,70708
781,SRT,,LA LOMA,San Martín,Meta,Aeródromo,3.6742,-73.4039,INVERSIONES BOHORQUEZ CASTAÑO E HIJOS,FAGAN S. EN C.,840.0,10.0,2000.0,,852.0," 5185,000",,2016-10-03,1A,Fumigación,6.0,50,50689
782,SRV,,LOS COLONIZADORES,Saravena,Arauca,Aeródromo,,,,,,,,,,,,,,,1472.0,81,81736
783,SSC,,SALA 77,Valledupar,Cesar,Aeródromo,10.3522,-73.3298,ALBERTO MARIO VARGAS,AMA LTDA.,600.0,15.0,2000.0,,381.0," 4444,000",,,1A,Fumigación,1.0,20,20001
784,SSE,,SAN JOSE-EFA,Lérida,Tolima,Aeródromo,,,,,,,,,,,,,,,1.0,73,73408
785,SSL,,FALCON,Saldaña,Tolima,Aeródromo,,,,,,,,,,,,,,,1.0,73,73671
786,STA,,EL EDEN,Santa Ana,Magdalena,Aeródromo,9.5197,-74.3392,JORGE IGNACIO AGUDELO,JORGE I. AGUDELO RESTREPO,840.0,18.0,5700.0,,164.0," 4941,000",,2017-10-01,1A,Privado,8.0,47,47707
787,STB,,SANTA BARBARA,Cumaral,Meta,Aeródromo,,,,,,,,,,,,,,,63.0,50,50226
788,STR,,SANTA RITA DE ITUANGO,Ituango,Antioquia,Aeródromo,7.3348,-75.6137,MUNICIPIO,MUNICIPIO,700.0,15.0,2300.0,,6400.0," 2798,000",,,1B,Público,11.0,5,5361
789,SVI,SVI,EDUARDO FALLA SOLANO,San Vicente del Caguán,Caquetá,Regional,2.1522,-74.7663,AEROCIVIL,AEROCIVIL,1500.0,26.0,,,875.0,"  141,000",1987-02-02,,3C,Aerocivil,5161.0,18,18753
790,SVT,,SAN VICENTE DE CHUCURI,San Vicente de Chucurí,Santander,Aeródromo,6.9056,-73.4339,MUNICIPIO,MUNICIPIO,540.0,15.0,3000.0,,1784.0," 5854,000",,,1A,Público,974.0,68,68689
791,SXG,,SAN GERARDO,El Cerrito,Valle del Cauca,Aeródromo,3.742,-76.3899,CARLOS ALBERTO ARANGO N.,EL MISMO,340.0,10.0,400.0,,3200.0," 5387,000",,,UL,Privado,,76,76248
792,TAP,TCD,TARAPACA,Tarapacá,Amazonas,Aeródromo,-2.8957,-69.7497,GOBERNACION,EL MISMO,1080.0,14.0,,,243.0," 3788,000",,,2A,Público,891.0,91,91798
793,TAR,,TARAIRA,Taraira,Vaupés,Aeródromo,-0.5679,-69.6381,MUNICIPIO,MUNICIPIO,820.0,20.0,12202.0,,512.0," 7354,000",,,1A,Público,2687.0,97,97666
794,TAU,,TAURAMENA,Tauramena,Casanare,Aeródromo,,,,,,,,,,,,,,,2.0,85,85410
795,TBI,,TIBIRI,Puerto Gaitán,Meta,Aeródromo,3.95,-71.1333,CORREGIMIENTO,CORREGIMIENTO,650.0,20.0,2500.0,,740.0," 2989,000",,,1A,Público,1.0,50,50568
796,TBQ,TBD,TIMBIQUI,Timbiquí,Cauca,Aeródromo,2.7786,-77.668,MUNICIPIO,MUNICIPIO,1127.0,12.0,,,18.0," 9248,000",,,1B,Público,3315.0,19,19809
797,TBU,,TIBU,Tibú,Norte de Santander,Aeródromo,8.6309,-72.7307,ECOPETROL,ECOPETROL,1400.0,18.0,,,171.0,"  759,000",,2016-03-07,2A,Privado,3994.0,54,54810
798,TCA,,TAMACA,Agustín Codazzi,Cesar,Aeródromo,,,,,,,,,,,,,,,1.0,20,20013
799,TCO,,LA FLORIDA,San Andrés de Tumaco,Nariño,Nacional,1.8144,-78.749,AEROCIVIL,AEROCIVIL,1600.0,30.0,,,10.0,"  455,000",1969-05-19,,3C,Aerocivil,12101.0,52,52835
800,TDA,TDA,TRINIDAD,Trinidad,Casanare,Aeródromo,5.4349,-71.6584,AEROCIVIL,AEROCIVIL,1148.0,10.0,12202.0,,560.0,"  644,000",1967-06-05,,2A,Aerocivil,4313.0,85,85430
801,TDI,,ELF TRINIDAD,Trinidad,Casanare,Aeródromo,5.5016,-71.7831,PERENCO COLOMBIA LIMITED,PERENCO COLOMBIA LIMITED,600.0,18.0,5000.0,,629.0," 7235,000",,2017-01-03,1A,Privado,3404.0,85,85430
802,TES,,TESALIA,Tesalia,Huila,Aeródromo,,,,,,,,,,,,,,,1.0,41,41797
803,TIB,,TIERRA BLANCA,Roldanillo,Valle del Cauca,Aeródromo,,,,,,,,,,,,,,,34.0,76,76622
804,TLO,,SAN DIEGO,Tello,Huila,Aeródromo,3.0804,-75.1875,ALICIA SOLANO Y CIA.,SANAR S.A.,620.0,10.0,3000.0,,1968.0,"  693,000",,,1A,Fumigación,5.0,41,41799
805,TLU,TLU,TOLU,Tolú Viejo,Sucre,Regional,9.5095,-75.5859,AEROCIVIL,AEROCIVIL,1350.0,16.0,12202.0,,15.0,"  455,000",1969-05-19,,2A,Aerocivil,1967.0,70,70823
806,TMA,,TARQUI,Tauramena,Casanare,Aeródromo,,,,,,,,,,,,,,,3.0,85,85410
807,TME,TME,GUSTAVO VARGAS,Tame,Arauca,Regional,6.451,-71.7601,AEROCIVIL,AEROCIVIL,2000.0,30.0,33112.0,,1199.0,"  343,000",1968-05-03,,4C,Aerocivil,5850.0,81,81794
808,TNU,,PROVIDENCIA,Tauramena,Casanare,Aeródromo,4.9714,-72.5997,SOCIEDAD VALDERRAMA MOYA,SERFABA S.A.S.,710.0,10.0,2000.0,,793.0," 1207,000",,,1A,Fumigación,39.0,85,85410
809,TOC,,TOCARIA,Yopal,Casanare,Aeródromo,,,,,,,,,,,,,,,1.0,85,85001
810,TPI,,TOMACHIPAN,San José del Guaviare,Guaviare,Aeródromo,2.2757,-72.7747,GOBERNACION,JUNTA DE ACCION COMUNAL,500.0,10.0,5680.0,,580.0," 6254,000",,,1A,Público,1077.0,95,95001
811,TQM,,TEQUENDAMA,Aracataca,Magdalena,Aeródromo,,,,,,,,,,,,,,,2.0,47,47053
812,TQS,SQF,SOLANO,Solano,Caquetá,Aeródromo,0.7458,-75.2344,CORREGIMIENTO(MUNICIPIO),CORREGIMIENTO(MUNICIPIO),525.0,16.0,2300.0,,860.0," 3660,000",,,1A,Público,1530.0,18,18756
813,TRB,TRB,GONZALO MEJIA,Turbo,Antioquia,Aeródromo,8.0745,-76.741,AEROCIVIL,COMODATO- ARMADA,1004.0,13.0,12202.0,,7.0," 3373,000",,,2A,Aerocivil,2581.0,5,5837
814,TRD,,PALMARITO 2,Trinidad,Casanare,Aeródromo,5.3322,-71.2347,PERENCO COLOMBIA LIMITED,PERENCO COLOMBIA LIMITED,840.0,25.0,12000.0,,459.0," 5603,000",,,1A,Privado,5531.0,85,85430
815,TRE,,LA ENVIDIA,Tauramena,Casanare,Aeródromo,,,,,,,,,,,,,,,2.0,85,85410
816,TRI,,LOS TOROS,Trinidad,Casanare,Aeródromo,5.4275,-71.2164,HORACIO PAN BARRAGAN,PERENCO COLOMBIA LIMITED,1100.0,20.0,12202.0,,450.0," 1405,000",,,1A,Privado,6107.0,85,85430
817,TRM,,LA CONCORDIA,Tauramena,Casanare,Aeródromo,4.9311,-72.6419,VICTOR H-TORRES Z.,AVIOCOL LTDA.,780.0,10.0,3000.0,,813.0,"   78,000",,,1A,Fumigación,,85,85410
818,TRP,,TARAPACA,Tarapacá,Amazonas,Aeródromo,,,,,,,,,,,,,,,891.0,91,91798
819,TRR,,TRES RIOS,Miraflores,Guaviare,Aeródromo,,,,,,,,,,,,,,,61.0,95,95200
820,TSI,,SANTA BARBARA,Tesalia,Huila,Aeródromo,2.4583,-75.7419,,TEA S.A.,545.0,10.0,2000.0,,2640.0,,,,1A,Fumigación,,41,41797
821,TTM,TTM,TABLON DE TAMARA,Támara,Casanare,Aeródromo,5.7267,-72.1006,AEROCIVIL,AEROCIVIL,1317.0,30.0,12202.0,,1650.0,"  644,000",1967-06-05,,2C,Aerocivil,13.0,85,85400
822,TUE,,TUCANES - CA.,Montenegro,Quindío,Aeródromo,4.4758,-75.8411,OMAR LOZANO M.,AEROCLUB TUCANES,210.0,10.0,400.0,,3900.0," 4737,000",,2015-09-11,UL,Privado,4.0,63,63470
823,TUN,,TUNJA,Tunja,Boyacá,Aeródromo,,,,,,,,,,,,,,,136.0,15,15001
824,UIB,UIB,EL CARAÑO,Quibdó,Chocó,Nacional,5.6908,-76.6412,AEROCIVIL,EN CONCESION-SOACN(Sociedad Operadora de Aeropuertos Centro Norte,1300.0,30.0,63196.0,,192.0,"  522,000",1968-07-03,,3C,Aerocivil,88706.0,27,27001
825,ULQ,ULQ,FARFAN HERIBERTO GIL MAR,Tuluá,Valle del Cauca,Regional,4.0945,-76.2239,MUNICIPIO,MUNICIPIO,1100.0,45.0,33112.0,,3132.0," 1026,000",,,2C,Público,1116.0,76,76834
826,ULT,,ULTRAMOJANA,Caucasia,Antioquia,Aeródromo,,,,,,,,,,,,,,,1.0,5,5154
827,UMB,,UMBRIA,Cumaral,Meta,Aeródromo,4.1906,-73.2617,JESUS M. CABALLERO,FARO LTDA.,580.0,10.0,2000.0,,757.0,"  689,000",,,1A,Fumigación,2.0,50,50226
828,URA,,PUERTO ESTRELLA,Uribia,La Guajira,Aeródromo,12.35,-71.3,CORREGIMIENTO,CORREGIMIENTO,1180.0,25.0,12202.0,,20.0," 3660,000",,,2B,Público,8.0,44,44847
829,URM,URI,URIBE,Uribe,Meta,Aeródromo,3.2369,-74.3463,MUNICIPIO,MUNICIPIO,1000.0,20.0,,,2240.0," 2404,000",,,2B,Público,5192.0,50,50370
830,URR,URR,ALI PIEDRAHITA,Urrao,Antioquia,Regional,6.3273,-76.1409,AEROCIVIL,AEROCIVIL,865.0,10.0,,,6104.0,"  551,000",1968-07-10,,2A,Aerocivil,3524.0,5,5847
831,VAL,,VALENCIA,Valencia,Córdoba,Aeródromo,,,,,,,,,,,,,,,23.0,23,23855
832,VAP,,CAMPO ALEGRE,Valledupar,Cesar,Aeródromo,,,,,,,,,,,,,,,6.0,20,20001
833,VAR,,VARSOVIA,San Vicente del Caguán,Caquetá,Aeródromo,,,,,,,,,,,,,,,1.0,18,18753
834,VAV,,VARSOVIA,San Luis,Tolima,Aeródromo,4.0172,-75.1575,MAHECHA Y CASAS,SANIDAD VEGETAL CRUZ,920.0,10.0,2000.0,,1200.0," 1682,000",,,1A,Fumigación,,73,73678
835,VCC,,EL DIAMANTE,San Carlos de Guaroa,Meta,Aeródromo,3.8844,-73.1595,EFA LTDA.,EFA LTDA.,800.0,10.0,2000.0,,686.0," 2634,000",,,1A,Fumigación,21.0,50,50680
836,VCI,,LA REALIDAD,Villavicencio,Meta,Aeródromo,3.9961,-73.3769,JAVIER DIAZ BARON,COMERCIALIZADORA ECO,860.0,10.0,2000.0,,915.0," 1946,000",,,1A,Fumigación,,50,50001
837,VDF,,VIGIA DEL FUERTE,Vigía del Fuerte,Antioquia,Aeródromo,6.5681,-76.8877,MUNICIPIO,MUNICIPIO,770.0,10.0,,,53.0,"  192,000",,,1A,Público,6466.0,5,5873
838,VDP,,MADACI,Valledupar,Cesar,Aeródromo,,,,,,,,,,,,,,,1.0,20,20001
839,VEL,,VELASQUEZ,Puerto Boyacá,Boyacá,Aeródromo,,,,,,,,,,,,,,,2325.0,15,15572
840,VGP,VGZ,CANANGUCHAL,Villagarzón,Putumayo,Regional,0.9785,-76.6064,AEROCIVIL,AEROCIVIL,1300.0,20.0,,,397.0," 1270,000",1972-05-09,,3B,Aerocivil,5927.0,86,86885
841,VIC,,EL CONVENTO,Villavicencio,Meta,Aeródromo,4.0227,-73.3529,EFA LTDA.,EFA LTDA.,800.0,10.0,2000.0,,837.0," 2634,000",,,1A,Fumigación,64.0,50,50001
842,VIH,,VISTA HERMOSA,Vistahermosa,Meta,Aeródromo,3.1351,-73.7579,MUNICIPIO,MUNICIPIO,870.0,15.0,5670.0,,150.0," 4559,000",,,2A,Público,183.0,50,50711
843,VIL,,PALMAS DEL CASANARE,Villanueva,Casanare,Aeródromo,,,,,,,,,,,,,,,8.0,85,85440
844,VLA,,VILLANUEVA,Villanueva,Casanare,Aeródromo,4.6371,-72.9498,MUNICIPIO,MUNICIPIO,1300.0,23.0,12202.0,,1220.0," 2807,000",,,2B,Fumigación,2140.0,85,85440
845,VLE,,SEÑORIAS,Villanueva,Casanare,Aeródromo,0.3878,-72.7775,MAURO A. PINILLA VARGAS,TAES LTDA.,760.0,10.0,2000.0,,538.0," 1003,000",,,1A,Fumigación,,85,85440
846,VLL,,VILLANUEVA,Villanueva,La Guajira,Aeródromo,10.5833,-73.0167,MUNICIPIO,MUNICIPIO,900.0,20.0,4000.0,,600.0," 3660,000",,,1A,Público,1.0,44,44874
847,VLU,,PALMAR DE ORIENTE,Villanueva,Casanare,Aeródromo,4.4924,-72.8408,PALMAR DEL ORIENTE S.A.,PALMAR DEL ORIENTE S.A.,860.0,15.0,3000.0,,643.0," 4892,000",,2014-10-11,1A,Privado,53.0,85,85440
848,VNL,,COLEGIAL,Villanueva,Casanare,Aeródromo,4.4945,-72.7719,SAMOS DE COL. LTDA,FUMIVILLA LTDA,700.0,10.0,2000.0,,574.0," 5913,000",,,1A,Fumigación,11.0,85,85440
849,VNU,,SOCEAGRO,Villanueva,Casanare,Aeródromo,4.4881,-72.8319,SOCEAGRO,ASAM LTDA.,1100.0,12.0,2000.0,,649.0,"  174,000",,,1A,Fumigación,6.0,85,85440
850,VUP,VUP,ALFONSO LOPEZ PUMAREJO,Valledupar,Cesar,Nacional,10.4351,-73.2494,AEROCIVIL,AEROCIVIL -ORIENTE S.A.S.,2100.0,30.0,,,450.0,"  352,000",1968-05-17,,4C,Aerocivil,23158.0,20,20001
851,VVA,,VILLANUEVA,Turbo,Antioquia,Aeródromo,,,,,,,,,,,,,,,69.0,5,5837
852,VVC,VVC,VANGUARDIA,Villavicencio,Meta,Nacional,4.1684,-73.6147,AEROCIVIL,AEROCIVIL,1940.0,30.0,,,1366.0,"  499,000",1968-06-12,,3C,Aerocivil,117754.0,50,50001
853,VVD,,LAS BRISAS,Villavicencio,Meta,Aeródromo,,,,,,,,,,,,,,,114.0,50,50001
854,VVJ,,SINAI,Villavieja,Huila,Aeródromo,3.3255,-75.1866,SANIDAD VEGETAL CRUZ VERDE,SANIDAD VEGETAL CRUZ VERDE,600.0,10.0,2500.0,,1299.0," 2136,000",,,1A,Fumigación,,41,41872
855,VVL,,TAPA - CHICAMOCHA,Villavicencio,Meta,Aeródromo,,,,,,,,,,,,,,,3.0,50,50001
856,VVN,,NEIVA YORK - MILENA,Villavicencio,Meta,Aeródromo,4.0903,-73.2342,COMERCIALIZADORA ECO,COMERCIALIZADORA ECO,790.0,15.0,6500.0,,754.0,"  398,000",,,1A,Fumigación,3.0,50,50001
857,VVU,,SANTA ISABEL,Villavicencio,Meta,Aeródromo,3.9873,-73.2091,EFA LTDA.,EFA LTDA.,800.0,10.0,2000.0,,689.0," 2634,000",2012-05-24,,1A,Fumigación,1.0,50,50001
858,YAG,,YAGUARA II,San Vicente del Caguán,Caquetá,Aeródromo,,,,,,,,,,,,,,,5.0,18,18753
859,YAP,,YAPIMA,Mitú,Vaupés,Aeródromo,1.0825,-69.4914,RESGUARDO INDIGENA,GOBERNACION DEL VAUPES,500.0,15.0,2300.0,,600.0," 3423,000",1997-09-16,,1A,Público,2.0,97,97001
860,YOP,,TROMPILLOS,Yopal,Casanare,Aeródromo,5.0932,-72.1807,ALEXANDER RIVERA,CELTA LTDA.,800.0,15.0,2000.0,,623.0," 4736,000",2013-09-06,,1A,Fumigación,4.0,85,85001
861,YPL,,CIENAGA,Yopal,Casanare,Aeródromo,5.2481,-72.8686,ALVARO MALAVER,SER.FUM.AER.CAS-SFA,890.0,10.0,2000.0,,609.0," 4216,000",2014-08-06,2017-09-04,1A,Fumigación,39.0,85,85001
862,YPP,,GERMAN ALBERTO,Yopal,Casanare,Aeródromo,5.1875,-72.3191,JOSE NELSON PEREZ R.,CELTA LTDA.,800.0,15.0,2000.0,,735.0," 4511,000",2012-08-16,2015-09-07,1A,Fumigación,12.0,85,85001
863,YYP,,LOS CABROS,Yopal,Casanare,Aeródromo,,,,,,,,,,,,,,,2.0,85,85001
864,ZPS,AZT,GUILLERMO GOMEZ ORTIZ,Zapatoca,Santander,Aeródromo,6.7674,-73.2846,MUNICIPIO,MUNICIPIO,700.0,14.0,2300.0,,5918.0,"   11,000",1968-01-09,,1A,Público,30.0,68,68895
