,sigla,iata,nombre,municipio,departamento,categoria,latitud,longitud,propietario,explotador,longitud_pista,ancho_pista,pbmo,orientacion,elevacion,resolucion,fecha_construccion,fecha_vigencia,clase,tipo,numero_vuelos_origen,gcd_departamento,gcd_municipio
0,4JC,,JUANCHACO,Buenaventura,Valle del Cauca,Aeródromo,,,,,,,,,,,,,,,24.0,76,76109
1,7FU,,LA ESCONDIDA,Puerto Gaitán,Meta,Aeródromo,4.6108,-71.1935,PALMAS SICARARE S.A.S.,COSARGO S.A.S.,1300.0,18.0,5000.0,,564.0," 1843,000",2013-04-26,2016-05-07,1A,Fumigación,30.0,50,50568
2,7GC,,SAN FELIPE DEL PAUTO,Trinidad,Casanare,Aeródromo,5.2032,-70.8951,AGRAS S.A.S,AGRAS S.A.S,720.0,10.0,3000.0,,3125.0," 4505,000",2012-08-16,,1A,Privado,153.0,85,85430
3,7GD,,VELASQUEZ,Puerto Boyacá,Boyacá,Aeródromo,5.9482,-74.4575,FAC,MANSAROVAR,1500.0,18.0,10000.0,,617.0," 2135,000",2013-05-16,,3C,Privado,2325.0,15,15572
4,7GF,,LA UNION,Paz de Ariporo,Casanare,Aeródromo,5.6283,-70.7032,MARTHA Y. VARGAS DE R.,GEOPARK CUERVA,640.0,18.0,3500.0,,335.0," 2136,000",2013-05-16,,1A,Privado,1122.0,85,85250
5,7GG,,LA ILUSION,Maní,Casanare,Aeródromo,4.5805,-72.4282,SIGRA S.A.,SIGRA S.A.,890.0,18.0,3500.0,,574.0," 1944,000",2013-05-03,2016-05-10,1A,Privado,2.0,85,85139
6,7GH,,LA VENTUROSA,Puerto Carreño,Vichada,Aeródromo,6.1391,-68.7779,MUNICIPIO,GOBERNACION,1000.0,12.0,9500.0,,246.0," 6782,000",2013-12-05,,1A,Público,54.0,99,99001
7,7GL,,LA JAGUA,La Jagua de Ibirico,Cesar,Aeródromo,9.5905,-73.2886,CARBONES DE LA JAGUA S.A.,CARBO. DE LA JAGUA S.A.,1200.0,18.0,7500.0,,787.0,"  171,000",2015-01-27,2018-02-06,2A,Privado,1070.0,20,20400
8,7GS,,EL ENCANTO,Cumaribo,Vichada,Aeródromo,4.6934,-70.9078,JUAN AQUILINO PEREZ P.,EL ENCANTO 1 S.A.S.,1200.0,20.0,5000.0,,544.0," 5964,000",2014-12-15,,1A,Fumigación,376.0,99,99773
9,7GV,,REPRESA DE LAS CANARIAS,Paz de Ariporo,Casanare,Aeródromo,5.7658,-71.2503,OLGA BRAVO DE CANTOR,OLGA BRAVO DE CANTOR,610.0,15.0,3500.0,,652.0," 5236,000",2014-10-14,2017-12-01,1A,Privado,6.0,85,85250
10,7GY,,LAS ACACIAS,Nemocón,Cundinamarca,Aeródromo,5.0949,-73.9054,JUAN BERNANDO SANINT G,EL MISMO,1350.0,20.0,10000.0,,8431.0,"  439,000",2015-02-27,2018-03-05,3A,Privado,,25,25486
11,7GZ,,COROZITO,Maní,Casanare,Aeródromo,4.6701,-72.0994,INVERSIONES LA PALMERA DE COROZITO,INV.LA PALMERA DE COROZITO,1200.0,18.0,,,497.0,"  832,000",2015-04-14,,2A,Privado,161.0,85,85139
12,7HB,,HOTEL SAN DIEGO,Puerto Gaitán,Meta,Aeródromo,3.7693,-71.8179,MADYGAN S.A.S.,MADYGAN S.A.S.,800.0,18.0,4000.0,,725.0," 6730,000",2012-11-26,2015-12-03,2A,Privado,92.0,50,50568
13,7HD,,BOSQUES DE LA PRIMAVERA,La Primavera,Vichada,Aeródromo,5.3489,-69.7467,MARIA A. RIVERA AGUDELO,MARIA A. RIVERA AGUDELO,800.0,18.0,3000.0,,396.0," 1444,000",2015-06-17,,1A,Privado,,99,99524
14,7HE,,GUACHARACAS (COLOMBAIMA),Beltrán,Cundinamarca,Aeródromo,4.7371,-74.8021,EMPRESA GUACHARACAS,CCA. LTDA,700.0,10.0,3000.0,,797.0," 5920,000",2012-10-19,,1A,Privado,1.0,25,25086
15,7HF,,GAVILAN DE LA PASCUA,La Primavera,Vichada,Aeródromo,5.1166,-70.3806,RESGUARDO INDIGENA ORIPGA,RES. INDIGENA ORIPGA,1200.0,15.0,3500.0,,419.0," 7257,000",2012-12-20,,1A,Público,85.0,99,99524
16,7HG,,DOROTEA B1,Paz de Ariporo,Casanare,Aeródromo,5.5122,-71.0248,NEW GRANADA ENERGY,NEW GRANADA ENERGY,1000.0,18.0,,,404.0," 2362,000",2013-05-27,,2A,Privado,1029.0,85,85250
17,7HJ,,MACOLLA,Maní,Casanare,Aeródromo,4.7713,-72.0714,GRAMERCY S.A.S.,AGROPECUARIA CACOLLA S.A.S.,950.0,18.0,5000.0,,548.0," 2134,000",2013-05-16,,1A,Privado,12.0,85,85139
18,7HM,,LLANO CAUCHO,Cumaribo,Vichada,Aeródromo,4.4355,-70.6954,AGROINDUSTRIALES DEL ORIENTE,AGROINVERSIONES DEL ORIENTE S.A.S,900.0,15.0,12000.0,,434.0," 5189,000",2013-09-24,,1A,Privado,10.0,99,99773
19,7HN,,ARMENIA,Paz de Ariporo,Casanare,Aeródromo,5.787,-70.1835,LUIS JOSE CALA LOPEZ,LUIS JOSE CALA LOPEZ,800.0,15.0,3000.0,,380.0," 4734,000",2013-09-06,,1A,Privado,,85,85250
20,7HT,,MANARE,Paz de Ariporo,Casanare,Aeródromo,5.9761,-70.1575,HERNAN GOMEZ NIÑO,HERNAN GOMEZ NIÑO,1100.0,23.0,4000.0,,334.0," 1577,000",2014-03-26,,1A,Privado,19.0,85,85250
21,7HV,,LA BENDICION,La Primavera,Vichada,Aeródromo,6.0627,-69.1783,SERGIO ANDRES ESPINOSA F.,SERGIO A. ESPINOSA FLOREZ,1200.0,15.0,5000.0,,360.0," 2498,000",2014-05-12,,1A,Privado,47.0,99,99524
22,7HX,,PIVIJAY,La Primavera,Vichada,Aeródromo,5.1288,-69.9716,FERNANDO CUSTAS PATACON,FERNANDO CUSTAS P.,900.0,20.0,3500.0,,426.0," 3063,000",2014-06-10,,1A,Privado,8.0,99,99524
23,7IA,,MURIBA,Maní,Casanare,Aeródromo,4.5809,-72.2551,VITIS OLEI S.A.S.,VITIS OLEI S.A.S.,1300.0,18.0,5000.0,,432.0," 4214,000",2014-08-06,,1A,Privado,,85,85139
24,7ID,,LA MACOYA,Yopal,Casanare,Aeródromo,5.2262,-72.1478,ELSON HERNANDO SIERRA,ELSON H. SIERRA QUICENO,580.0,15.0,3000.0,,474.0,"    9,000",2015-01-05,,1A,Privado,,85,85001
25,7IF,,LOS VENADOS,La Primavera,Vichada,Aeródromo,5.0666,-69.9988,GUILLERMO FRANCO RESTREPO,GUILLERMO FRANCO R.,1560.0,23.0,6500.0,,475.0,"  515,000",2015-03-10,,2A,Privado,,99,99524
26,7IH,,LOS KIOSCOS,Puerto Gaitán,Meta,Aeródromo,3.4747,-72.2349,MARTHA I. PABON PADILLA,MARTHA I. PABON PADILLA,800.0,12.0,5000.0,,770.0,"  690,000",2015-03-31,,1A,Privado,,50,50568
27,7IJ,,LA LORENA,Paz de Ariporo,Casanare,Aeródromo,5.6092,-70.421,BUSHIRO TAKEMOTO,BUSHIRO TAKEMOTO,800.0,15.0,3000.0,,347.0," 1443,000",2015-06-17,,1A,Privado,,85,85250
28,7NQ,,EL PARAISO,La Primavera,Vichada,Aeródromo,5.1826,-69.6303,RUBEN D. VELASQUEZ,RUBEN D. VELASQUEZ,1100.0,20.0,3000.0,,387.0," 5533,000",2014-11-11,2017-12-02,1A,Privado,2.0,99,99524
29,7NS,,JAGUAR,Puerto Gaitán,Meta,Aeródromo,4.2161,-72.0275,CEPCOLSA,CEPCOLSA,1200.0,23.0,,,650.0," 4940,000",2012-09-06,2015-10-10,2B,Privado,980.0,50,50568
30,7NT,,OCELOTE,Puerto Gaitán,Meta,Aeródromo,4.2751,-71.6123,HOCOL S.A.,HOCOL S.A.,1200.0,20.0,,,690.0," 5922,000",2012-10-19,,2B,Privado,1159.0,50,50568
31,9AB,,GETSEMANI,Hato Corozal,Casanare,Aeródromo,6.1506,-70.0294,MUNICIPIO,MUNICIPIO,800.0,14.0,2000.0,,304.0," 2220,000",2004-06-10,,1A,Público,112.0,85,85125
32,9AC,,MARIA ALEJANDRA,Nunchía,Casanare,Aeródromo,5.0054,-72.3959,CIRO GUILLERMO VEGA N.,SAMBA LTDA.,640.0,10.0,2000.0,,734.0," 2493,000",2014-05-12,,1A,Fumigación,3.0,85,85225
33,9AI,,CAÑO GARZA,Paz de Ariporo,Casanare,Aeródromo,5.5917,-71.5894,PERENCO COLOMBIA LIMITED,PERENCO COLOMBIA LIMITED,640.0,15.0,12202.0,,530.0,"  933,000",2015-04-24,,1A,Privado,4578.0,85,85250
34,9AJ,,SAN LUIS DE PACA,Mitú,Vaupés,Aeródromo,0.8744,-70.3464,RESGUARDO INDIGENA,GOBERNACION DEL VAUPES,424.0,10.0,1650.0,,590.0," 3423,000",1997-09-16,,1A,Público,78.0,97,97001
35,9AK,,CANANARI,Mitú,Vaupés,Aeródromo,0.545,-70.9286,RESGUARDO INDIGENA,GOBERNACION DEL VAUPES,420.0,20.0,1650.0,,780.0," 3423,000",1997-09-16,,1A,Público,126.0,97,97001
36,9AM,,SAN FERNANDO,Paz de Ariporo,Casanare,Aeródromo,,,,,,,,,,,,,,,10.0,85,85250
37,9AN,,MARAREY,Orocué,Casanare,Aeródromo,4.8281,-71.0808,JULIAN VALENCIA I. Y OTROS,JULIAN VALENCIA I. Y OTROS,700.0,15.0,4800.0,,498.0," 2001,000",2013-05-08,2016-05-09,1A,Privado,226.0,85,85230
38,9AO,,SANTA CLARA,Sabanalarga,Casanare,Aeródromo,4.4172,-72.7744,ARMANDO SANCHEZ M.,TAES LTDA.,800.0,10.0,2500.0,,610.0," 2137,000",2013-05-16,,1A,Fumigación,23.0,85,85300
39,9AR,,SAN PABLO,Mitú,Vaupés,Aeródromo,-0.7831,-70.3228,RESGUARDO INDIGENA,GOBERNACION DEL VAUPES,510.0,10.0,1650.0,,550.0," 3423,000",1997-09-16,,1A,Público,86.0,97,97001
40,9AS,,SIRENAS,Trinidad,Casanare,Aeródromo,5.2541,-71.1576,PERENCO COLOMBIA LIMITED,PERENCO COLOMBIA LIMITED,600.0,18.0,5000.0,,443.0," 3058,000",2014-06-10,2017-06-11,1A,Privado,2498.0,85,85430
41,9AT,,COROCITO,Puerto López,Meta,Aeródromo,3.9507,-72.2186,AGROINVERSIONES COROCITO,AGROINVERSIONES COROCITO,980.0,10.0,3000.0,,544.0," 1838,000",2013-04-26,,1A,Privado,7.0,50,50573
42,9AZ,,REMACHE SUR,San Luis de Palenque,Casanare,Aeródromo,5.0832,-71.1525,DESIDERIO CHAPARRO,PERENCO COLOMBIA LIMITED,600.0,18.0,5000.0,,459.0," 3058,000",2014-06-10,2017-06-11,1A,Privado,3353.0,85,85325
43,9BB,,SAN MIGUEL,Puerto López,Meta,Aeródromo,4.1069,-72.89,ELIZABETH CRUZ BULLA,SAAC S.A.S,670.0,10.0,2000.0,,803.0,"  251,000",2012-02-01,2015-02-09,1A,Fumigación,105.0,50,50573
44,9BE,,LAS VEGAS,Paz de Ariporo,Casanare,Aeródromo,6.0072,-71.2842,ALEIDA JERONIMO NAVAS,ALEIDA JERONIMO NAVAS,740.0,15.0,3500.0,,430.0," 1657,000",2012-04-03,,1A,Privado,15.0,85,85250
45,9BF,,LA FRANCIA,El Paso,Cesar,Aeródromo,9.6394,-73.5282,SOCIEDAD COLOMBIAN NATURAL RESOURCES,EL MISMO,1100.0,18.0,,,213.0,"  962,000",2011-03-02,,1B,Privado,149.0,20,20250
46,9BH,,GUAFITAS,Orocué,Casanare,Aeródromo,,,,,,,,,,,,,,,279.0,85,85230
47,9BI,,SAN FELIPE,Orocué,Casanare,Aeródromo,5.1037,-71.8425,MARIA LUCILA REYES ORDOÑEZ,MARIA LUCILA REYES O.,700.0,14.0,2000.0,,554.0,"  800,000",2010-02-18,,1A,Privado,10.0,85,85230
48,9BO,,VENECIA DE GUANAPALO,San Luis de Palenque,Casanare,Aeródromo,5.3079,-71.9204,COLCONSTRUC LTDA,COLCONSTRUC LTDA.,1000.0,15.0,5500.0,,623.0," 4873,000",2014-09-16,,1A,Privado,38.0,85,85325
49,9BS,,LA COMARCA,Trinidad,Casanare,Aeródromo,,,,,,,,,,,,,,,3.0,85,85430
50,9BW,,LA FAZENDA,Puerto López,Meta,Aeródromo,4.3263,-72.2208,ALIAR S.A.,ALIAR S.A.,1200.0,12.0,5000.0,,568.0," 1941,000",2013-05-03,2016-05-07,2B,Fumigación,42.0,50,50573
51,9BY,,SAN EDUARDO,Orocué,Casanare,Aeródromo,4.6422,-71.8104,EDUARDO J. GONZALEZ A.,EDUARDO J- GONZALEZ,800.0,12.0,2500.0,,580.0," 1580,000",2014-03-26,,1A,Privado,12.0,85,85230
52,9BZ,,RIOSUCIO,Riosucio,Chocó,Aeródromo,7.4164,-77.0595,MUNICIPIO,MUNICIPIO,706.0,9.0,5670.0,,72.0," 3430,000",2014-06-27,,1A,Público,7.0,27,27615
53,9CA,,LAS AGUILAS -CA,Yumbo,Valle del Cauca,Aeródromo,3.5134,-76.4931,SERESTEL S.A.,CLUB DEPORT.LAS AGUILAS,320.0,10.0,500.0,,3100.0," 4939,000",2012-09-06,,1A,Privado,,76,76892
54,9CB,,CAMARUCOS,Paz de Ariporo,Casanare,Aeródromo,5.8754,-70.6583,ALCALDIA,ALCALDIA,1200.0,15.0,2000.0,,367.0," 4541,000",2006-10-27,2016-11-07,1A,Público,5.0,85,85250
55,9CC,,EL TOTUMO,Paz de Ariporo,Casanare,Aeródromo,5.9387,-71.2217,MUNICIPIO,MUNICIPIO,520.0,15.0,2000.0,,476.0," 4541,000",2006-10-27,2016-11-07,1A,Público,8.0,85,85250
56,9CD,,VARSOVIA,Paz de Ariporo,Casanare,Aeródromo,5.849,-70.3648,MUNICIPIO,MUNICIPIO,550.0,15.0,2000.0,,328.0," 4541,000",2006-10-27,2016-11-07,1A,Público,47.0,85,85250
57,9CE,,LA HERMOSA,Paz de Ariporo,Casanare,Aeródromo,5.5307,-70.4497,MUNICIPIO,MUNICIPIO,884.0,15.0,2000.0,,338.0," 4541,000",2006-10-27,2016-11-07,1A,Público,119.0,85,85250
58,9CF,,SAN ESTEBAN,Paz de Ariporo,Casanare,Aeródromo,5.4441,-70.8352,MUNICIPIO,MUNICIPIO,580.0,15.0,2000.0,,377.0," 4541,000",2006-10-27,2016-11-07,1A,Público,5.0,85,85250
59,9CG,,SAN JOSE DEL ARIPORO,Paz de Ariporo,Casanare,Aeródromo,6.0475,-70.0128,MUNICIPIO,MUNICIPIO,570.0,15.0,2000.0,,318.0," 4541,000",2006-10-27,2016-11-07,1A,Público,146.0,85,85250
60,9CI,,LA CAIMANA,Paz de Ariporo,Casanare,Aeródromo,6.052,-70.8134,MUNICIPIO,MUNICIPIO,615.0,15.0,2000.0,,400.0," 4541,000",2006-10-27,2016-11-07,1A,Público,11.0,85,85250
61,9CJ,,EMAUS,San Luis de Palenque,Casanare,Aeródromo,5.1483,-71.0453,LUIS F. CASTILLO SANTOS,LUIS F. CASTILLO SANTOS,740.0,10.0,2500.0,,430.0," 1945,000",2013-05-03,,1A,Privado,41.0,85,85325
62,9CL,,LA VENTUROSA,San Luis de Palenque,Casanare,Aeródromo,5.2388,-71.3035,MUNICIPIO,EL MISMO,620.0,15.0,2000.0,,459.0," 4542,000",2006-10-27,,1A,Público,1.0,85,85325
63,9CU,,COROCORA,Trinidad,Casanare,Aeródromo,5.3751,-70.969,DORA AVELLA VDA.DE PAN,PERENCO COLOMBIA LIMITED,740.0,18.0,5000.0,,430.0," 1000,000",2012-03-01,,1A,Privado,2486.0,85,85430
64,9DE,,LUNA PARK,La Primavera,Vichada,Aeródromo,5.128,-70.4931,DAVID ALFONSO MATTOS L.,DAVID ALFONSO MATTOS,1200.0,15.0,12000.0,,410.0," 1056,000",2014-02-28,2017-03-06,1A,Privado,97.0,99,99524
65,9DI,,SAN FELIPE,San Felipe,Guainía,Aeródromo,1.915,-67.0776,GOBERNACION,GOBERNACION,1100.0,22.0,25000.0,,312.0,"  545,000",2008-02-13,,1A,Público,89.0,94,94883
66,9LI,,SAN SEBASTIAN,Cabuyaro,Meta,Aeródromo,4.3356,-72.7803,NELLY ZARATE,AEROTEC LTDA.,740.0,10.0,2000.0,,680.0," 4738,000",2012-08-20,,1A,Fumigación,30.0,50,50124
67,9LQ,,LA PONDEROSA,Puerto Gaitán,Meta,Aeródromo,4.6316,-71.2141,MONICA COLOMBIA LTDA.,MONICA COLOMBIA LTDA,1200.0,18.0,3000.0,,537.0," 5243,000",2012-09-19,,2A,Privado,25.0,50,50568
68,9LW,,EL PALMAR,Nunchía,Casanare,Aeródromo,5.396,-71.9116,MAURICIO MEDINA NIÑO,FIBA S.A.,700.0,10.0,3000.0,,629.0,"  472,000",2013-02-13,,1A,Fumigación,5.0,85,85225
69,9M1,,TRES ESQUINAS AB,Solano,Caquetá,Aeródromo,,,,,,,,,,,,,,,1160.0,18,18756
70,9M2,,LARANDIA,Florencia,Caquetá,Aeródromo,,,,,,,,,,,,,,,824.0,18,18001
71,9MQ,,EL RASTRO,Cumaribo,Vichada,Aeródromo,4.7022,-70.8617,EL RASTRO 1 S.A.S.,EL RASTRO  1 S.A.S,800.0,15.0,2000.0,,545.0," 7391,000",2012-12-28,,1A,Fumigación,,99,99773
72,9MS,,BETANIA,Trinidad,Casanare,Aeródromo,5.5319,-71.6812,DIOSELINO ACOSTA,SAO E.U.,800.0,10.0,2000.0,,2030.0," 1216,000",2013-03-20,,1A,Fumigación,1.0,85,85430
73,9NG,,REMOLINOS,Puerto López,Meta,Aeródromo,4.2053,-72.6639,BLANCA E. BULLA PULIDO,ECO LTDA.,840.0,10.0,2000.0,,586.0,"  835,000",2015-04-14,,1A,Fumigación,,50,50573
74,A01,,CAMPO ALEGRE,Inírida,Guainía,Aeródromo,1.8653,-69.0101,GOBERNACION,GOBERNACION,450.0,15.0,2000.0,,577.0," 1333,000",2013-03-26,,1A,Público,182.0,94,94001
75,A02,,CAÑO COLORADO,Inírida,Guainía,Aeródromo,2.2774,-68.3599,GOBERNACION,GOBERNACION,1100.0,15.0,12202.0,,413.0," 4419,000",2013-08-23,,1C,Público,7.0,94,94001
76,A03,,FORTUL,Fortul,Arauca,Aeródromo,6.7817,-71.7791,GOBERNACION,MUNICIPIO,700.0,13.0,4000.0,,730.0," 2036,000",2010-04-23,,1A,Público,2.0,81,81300
77,A04,,SANTA ROSA DEL SUR,Santa Rosa del Sur,Bolívar,Aeródromo,7.9629,-76.034,MUNICIPIO,MUNICIPIO,720.0,18.0,5000.0,,61.0," 5959,000",2014-12-15,,1A,Público,258.0,13,13688
78,ABT,,AGUA BLANCA,Piedras,Tolima,Aeródromo,4.4656,-74.9948,SOCIEDAD CULTIVOS SAN JOSE,CRUZ VERDE,680.0,10.0,2000.0,,1994.0," 4508,000",2012-08-18,2015-09-03,1A,Fumigación,17.0,73,73547
79,ACD,ACD,ALCIDES FERNANDEZ,Acandí,Chocó,Regional,8.4969,-77.2739,INCORA LTDA,MUNICIPIO,1200.0,16.0,,,50.0," 1072,000",1969-09-15,,3A,Público,2564.0,27,27006
80,ACI,,EL MONASTERIO,Acacías,Meta,Aeródromo,3.9587,-73.4425,EFA LTDA.,EFA LTDA.,680.0,10.0,2000.0,,948.0," 2634,000",2012-05-24,,1A,Fumigación,4.0,50,50006
81,ACR,ACR,ARARACUARA,Solano,Caquetá,Regional,-0.6008,-72.3981,GOBERNACION,GOBERNACION,1300.0,30.0,27000.0,,800.0,"   31,000",1958-02-05,,3C,Público,1778.0,18,18756
82,ADZ,ADZ,GUSTAVO ROJAS PINILLA,San Andrés,San Andrés islas,Internacional,12.5837,-81.7113,AEROCIVIL,AEROCIVIL,2380.0,36.0,,,18.0,"  352,000",1968-05-17,,4D,Aerocivil,76692.0,88,88001
83,AFC,,FABAL-COALCESAR,Aguachica,Cesar,Aeródromo,8.2415,-73.6901,COALCESAR,COALCESAR LTDA,650.0,15.0,2000.0,,197.0,"  441,000",,,1A,Fumigación,133.0,20,20011
84,AFI,AFI,EL RIO,Amalfi,Antioquia,Aeródromo,6.8954,-75.0475,AEROCIVIL,AEROCIVIL,970.0,20.0,3500.0,,4831.0,"  551,000",1968-10-07,,2A,Aerocivil,258.0,5,5031
85,AGB,,AGUA BLANCA,Espinal,Tolima,Aeródromo,4.1839,-74.8931,FARCA S.A. - COMODATO,SANIDAD VEGETAL CRUZ,750.0,10.0,2000.0,,1095.0," 7095,000",2013-12-19,,1A,Fumigación,4.0,73,73268
86,AGH,,HACARITAMA,Aguachica,Cesar,Aeródromo,8.2473,-73.5821,AEROCIVIL,AEROCIVIL,1310.0,25.0,12202.0,,700.0," 9248,000",1987-07-27,,2C,Aerocivil,1245.0,20,20011
87,AGJ,,JAMAICA,Aguazul,Casanare,Aeródromo,5.0905,-72.4462,VICTOR H-TORRES Z.,AVIOCOL LTDA.,750.0,10.0,2000.0,,781.0," 1054,000",2014-02-28,2017-04-08,1A,Fumigación,2.0,85,85010
88,AGT,,AGUA BLANCA,Piedras,Tolima,Aeródromo,,,,,,,,,,,,,,,17.0,73,73547
89,AGU,,MARIA ANGELICA,Aguazul,Casanare,Aeródromo,5.0546,-72.4471,GERMAN ERAZO,CELTA LTDA.,800.0,15.0,2000.0,,720.0," 4736,000",2013-09-06,,1A,Fumigación,5.0,85,85010
90,AGY,,BASE PRINCIPAL CELTA,Aguachica,Cesar,Aeródromo,8.2002,-73.6313,CIA. EN LABORES TEC Y A,CELTA LTDA.,800.0,15.0,2500.0,,305.0," 5318,000",2014-10-21,2017-11-12,1A,Fumigación,543.0,20,20011
91,ALR,,ALFEMAR,Juradó,Chocó,Aeródromo,,,,,,,,,,,,,,,389.0,27,27372
92,ALT,,ALTAMIRA,Orocué,Casanare,Aeródromo,4.7586,-71.6386,PALMAR DE ALTAMIRA S.A.S.,PALMAR DE ALTAMIRA S.A.A,1100.0,15.0,5000.0,,492.0," 6124,000",2014-12-24,,1A,Privado,208.0,85,85230
93,APO,APO,ANTONIO ROLDAN BETANCOURT,Carepa,Antioquia,Nacional,7.8118,-76.7164,AEROCIVIL,EN CONCESION- SOACN(Sociedad Operadora de Aeropuertos Centro Norte,2180.0,30.0,,,46.0," 1590,000",1969-06-10,,4C,Aerocivil,40556.0,5,5147
94,APY,API,APIAY - FAC,Villavicencio,Meta,Aeródromo,4.0761,-73.5627,FAC,F A C,1800.0,40.0,,,1200.0,,,,4D,Militar,378.0,50,50001
95,ARA,,LA RUBIERA,Arauca,Arauca,Aeródromo,,,,,,,,,,,,,,,41.0,81,81001
96,ARC,,PERENCO,Yopal,Casanare,Aeródromo,,,,,,,,,,,,,,,17.0,85,85001
97,ARG,,ARAGUANEY,Yopal,Casanare,Aeródromo,5.413,-72.285,SANAR S.A.S,SANAR S.A.S.,850.0,10.0,4000.0,,796.0,"  705,000",2014-02-12,,1A,Fumigación,10.0,85,85001
98,ARQ,ARQ,EL TRONCAL,Arauquita,Arauca,Aeródromo,7.0211,-71.3889,AEROCIVIL,AEROCIVIL,960.0,12.0,12202.0,,509.0," 1073,000",1969-09-15,,2C,Aerocivil,70.0,81,81065
99,AUC,AUC,SANTIAGO PEREZ QUIROZ,Arauca,Arauca,Nacional,7.0689,-70.737,AEROCIVIL,AEROCIVIL,2100.0,30.0,,,418.0,"  984,000",1987-02-02,,4C,Aerocivil,25923.0,81,81001
100,AUR,,EL CORAJE,Ariguaní,Magdalena,Aeródromo,10.0247,-74.067,CAMAGUEY S.A.,CAMAGUEY S.A.,720.0,15.0,4000.0,,282.0," 7094,000",2013-12-19,,1A,Privado,30.0,47,47058
101,AXM,AXM,EL EDEN,Armenia,Quindío,Internacional,4.452893,-75.767286,,,,,,,,,,,,,48572.0,63,63001
102,AYC,,LA GLORIA,La Gloria,Cesar,Aeródromo,,,,,,,,,,,,,,,3.0,20,20383
103,BAC,,BANCO DE LA REPUBLICA,Medellín,Antioquia,Aeródromo,,,,,,,,,,,,,,,2.0,5,5001
104,BAQ,BAQ,ERNESTO CORTISSOZ,Barranquilla,Atlántico,Internacional,10.8896,-74.7809,AEROCIVIL,GRUPO AEROPORTUARIO DEL CARIBE S.A.S.,3000.0,45.0,,,98.0," 1152,000",2015-05-15,,4E,Aerocivil,125956.0,8,8001
105,BAR,,GUAICARAMO,Barranca de Upía,Meta,Aeródromo,4.4605,-72.9509,GUAICARAMO S.A.,GUAICARAMO S.A.,800.0,18.0,5500.0,,649.0," 7236,000",2013-12-27,,1A,Fumigación,17.0,50,50110
106,BBA,,PIZARRO,Bajo Baudó,Chocó,Aeródromo,4.9608,-77.3633,MUNICIPIO,MUNICIPIO,1000.0,10.0,,,10.0," 6365,000",2008-12-30,,1A,Público,4944.0,27,27077
107,BCA,,CERREJON CENTRAL,Barrancas,La Guajira,Aeródromo,,,,,,,,,,,,,,,9.0,44,44078
108,BCO,,JULIA CAROLINA,Bosconia,Cesar,Aeródromo,,,,,,,,,,,,,,,132.0,20,20060
109,BEC,,BECERRIL,Becerril,Cesar,Aeródromo,9.6628,-73.2744,MUNICIPIO,FUMILLANOS,1300.0,27.0,3500.0,,320.0," 2989,000",2008-07-02,,3B,Fumigación,51.0,20,20045
110,BEE,,BENEFICENCIA DEL TOLIMA,Ibagué,Tolima,Aeródromo,,,,,,,,,,,,,,,86.0,73,73001
111,BGA,BGA,PALONEGRO,Bucaramanga,Santander,Internacional,7.127269,-73.182945,,,,,,,,,,,,,143503.0,68,68001
112,BGN,,EL MILAGRO,Bugalagrande,Valle del Cauca,Aeródromo,,,,,,,,,,,,,,,4.0,76,76113
113,BIZ,,BIZERTA,Nunchía,Casanare,Aeródromo,5.4225,-71.9936,CELMIRA BARRAGAN F.,FUMIVILLA LTDA,700.0,10.0,2000.0,,639.0,"  151,000",2013-01-25,,1A,Fumigación,1.0,85,85225
114,BJA,,BERLIN,Villavieja,Huila,Aeródromo,,,,,,,,,,,,,,,3.0,41,41872
115,BJE,,LA CASCAJERA,Barrancabermeja,Santander,Aeródromo,,,,,,,,,,,,,,,19.0,68,68081
116,BMG,,BARRANCO MINAS,Barranco Minas,Guainía,Aeródromo,3.4907,-69.8097,GOBERNACION,DEPARTAMENTO,900.0,15.0,,,125.0," 2477,000",1972-09-11,,1A,Público,3058.0,94,94343
117,BNO,,BUENOS AIRES,Puerto Wilches,Santander,Aeródromo,7.462,-73.7464,AGRICOLA BUFALERA DE COLOMBIA,EL MISMO,1060.0,18.0,3500.0,,229.0," 7239,000",2012-12-19,,1A,Privado,26.0,68,68575
118,BOC,,SAN MARTIN,Bosconia,Cesar,Aeródromo,,,,,,,,,,,,,,,147.0,20,20060
119,BOG,BOG,EL DORADO,"Bogotá, D.C.","Bogotá, D.C.",Internacional,4.7017,-74.1469,AEROCIVIL,EN CONCESION CODAD,3800.0,60.0,,,8356.0,"  320,000",1959-12-04,,4E,Aerocivil,1028334.0,11,11001
120,BQL,,BARRANQUILLITA,Miraflores,Guaviare,Aeródromo,1.5467,-72.3258,GOBERNACION,INS POL BARRANQUILLITA,700.0,15.0,5000.0,,800.0," 2989,000",,,1A,Público,79.0,95,95200
121,BSA,,LA ESPERANZA,Barbosa,Santander,Aeródromo,5.9485,-73.6092,GOBERNACION,MUNICIPIO,1000.0,16.0,,,5308.0,"  306,000",,,2A,Público,228.0,68,68077
122,BSC,BSC,JOSE CELESTINO MUTIS,Bahía Solano,Chocó,Regional,6.2031,-77.395,MUNICIPIO,MUNICIPIO,1200.0,30.0,,,80.0,"  551,000",,,2C,Público,21146.0,27,27075
123,BUN,BUN,BUENAVENTURA-GERARDO TOBAR LOPEZ,Buenaventura,Valle del Cauca,Nacional,3.8196,-76.9899,AEROCIVIL,AEROCIVIL,1200.0,30.0,,,44.0," 1026,000",1967-08-28,,2C,Aerocivil,4776.0,76,76109
124,BUO,,BUENOS AIRES,Yopal,Casanare,Aeródromo,5.149,-72.3519,GILMA MARTINEZ DE B.,SERFABA S.A.S.,800.0,10.0,2000.0,,732.0," 3061,000",,,1A,Fumigación,8.0,85,85001
125,BVA,,BUENAVISTA,Distracción,La Guajira,Aeródromo,10.8874,-72.9007,EJERCITO,EJERCITO,1420.0,30.0,29000.0,,850.0,,,,3C,Militar,1338.0,44,44098
126,CAA,,CAÑO GANDUL,San Luis de Palenque,Casanare,Aeródromo,5.1725,-71.1419,PERENCO COLOMBIA LIMITED,PERENCO COLOMBIA LIMITED,600.0,16.0,3000.0,,431.0," 5603,000",,,1A,Privado,7741.0,85,85325
127,CAC,,CAMPO CAPOTE,Vélez,Santander,Aeródromo,6.75,-73.9167,INDERENA,INDERENA,500.0,20.0,2300.0,,500.0," 2302,000",,,1A,Público,11.0,68,68861
128,CAH,,EL VISO INCORA,Campoalegre,Huila,Aeródromo,,,,,,,,,,,,,,,2.0,41,41132
129,CAL,,CALIMA,Aguachica,Cesar,Aeródromo,8.2854,-73.643,CELTA LTDA,CELTA LTDA.,900.0,15.0,2500.0,,427.0," 1127,000",,2018-06-11,1A,Fumigación,64.0,20,20011
130,CAM,,CABO MARZO,Juradó,Chocó,Aeródromo,6.8794,-77.678,SERVICIALES LTDA.,SERVICIALES LTDA.,700.0,18.0,5000.0,,16.0," 4418,000",,2016-10-02,1A,Privado,34.0,27,27372
131,CAN,,CANARIAS,Nunchía,Casanare,Aeródromo,5.472,-72.1533,SERRANO HERRERA Y CIA,EL MISMO,740.0,10.0,2500.0,,735.0," 3940,000",2014-07-25,,1A,Fumigación,1.0,85,85225
132,CAO,,"CENTRO ADMINISTRATIVO ""MARANDUA""",Cumaribo,Vichada,Aeródromo,5.3345,-67.8646,INDERENA,INDERENA,1780.0,28.0,33112.0,,500.0," 1413,000",,,3B,Público,1154.0,99,99773
133,CAP,,CAMPO ALEGRE,San Luis de Palenque,Casanare,Aeródromo,5.4053,-71.1293,ALIRIO CORREA Y OTROS,SERFABA S.A.S.,700.0,10.0,2000.0,,656.0," 1207,000",,,1A,Fumigación,61.0,85,85325
134,CAQ,,JUAN H.WHITE,Caucasia,Antioquia,Regional,7.968,-75.1982,AEROLINEA DE ANTIOQUIA,AEROLINEA DE ANTIOQ.,1080.0,23.0,,,207.0," 5052,000",2014-10-02,2017-10-03,2B,Privado,15994.0,5,5154
135,CAR,CCO,CARIMAGUA,Puerto López,Meta,Aeródromo,4.5649,-71.3367,ICA,EL MISMO,1336.0,23.0,25000.0,,700.0,"  657,000",,,3B,Público,2033.0,50,50573
136,CAS,,CASA COIMA,Mutatá,Antioquia,Aeródromo,,,,,,,,,,,,,,,8.0,5,5480
137,CAT,,CALICANTO,Alvarado,Tolima,Aeródromo,4.4878,-75.0106,ERNESTO NAVARRO Y CIA,CRUZ VERDE,640.0,10.0,3000.0,,2166.0," 1735,000",,,1A,Fumigación,1.0,73,73026
138,CAV,,CUMACHAGUA,Santa Rosalía,Vichada,Aeródromo,4.0167,-70.8833,CORREGIMIENTO(MUNICIPIO),CORREGIMIENTO(MUNICIPIO),547.0,35.0,2500.0,,440.0," 3660,000",,,1A,Público,22.0,99,99624
139,CBR,,EL CARMEN DE BOLIVAR,El Carmen de Bolívar,Bolívar,Aeródromo,9.6842,-75.1261,MUNICIPIO,MUNICIPIO,1500.0,28.0,12202.0,,590.0,"  247,000",,,3C,Público,73.0,13,13244
140,CBY,,LA ARABIA,Cabuyaro,Meta,Aeródromo,4.3933,-72.9892,GERMAN REYES GARCIA,SADELL  LTDA.,800.0,10.0,2000.0,,577.0," 4736,000",,2015-09-11,1A,Fumigación,6.0,50,50124
141,CCH,,EL PACIFICO,Cartagena del Chairá,Caquetá,Aeródromo,,,,,,,,,,,,,,,1.0,18,18150
142,CDA,,LA ESMERALDA - CA,Candelaria,Valle del Cauca,Aeródromo,3.38,-76.3983,INCAUCA S.A.,INCAUCA S.A.,250.0,10.0,500.0,,3166.0," 2957,000",,,1A,Fumigación,21.0,76,76130
143,CDY,,CIUDAD YARI,San Vicente del Caguán,Caquetá,Aeródromo,1.5833,-73.8667,MUNICIPIO,MUNICIPIO,880.0,40.0,12202.0,,1000.0," 3660,000",,,1A,Público,5.0,18,18753
144,CEB,,EL CEBRUNO,Ayapel,Córdoba,Aeródromo,8.3292,-75.1323,MUNICIPIO AYAPEL,MUNICIPIO AYAPEL,944.0,15.0,5670.0,,1280.0," 7092,000",,,2A,Público,125.0,23,23068
145,CFB,,CALIFORNIA,Morales,Bolívar,Aeródromo,,,,,,,,,,,,,,,1.0,13,13473
146,CGA,,LA CEIBA,Ciénaga,Magdalena,Aeródromo,10.7913,-74.1049,CALIMA S.A.,CALIMA S.A.,740.0,10.0,4500.0,,147.0," 1837,000",,2016-05-03,1A,Fumigación,2.0,47,47189
147,CGW,CRC,SANTA ANA,Cartago,Valle del Cauca,Aeródromo,4.7584,-75.9561,MUNICIPIO,MUNICIPIO,2200.0,40.0,,,2977.0," 1319,000",,,4D,Público,1103.0,76,76147
148,CHO,,CHICAMOCHA,Villavicencio,Meta,Aeródromo,,,,,,,,,,,,,,,9.0,50,50001
149,CHP,,LA CHAPA,Hato Corozal,Casanare,Aeródromo,5.9333,-71.45,CORREGIMIENTO,CORREGIMIENTO,500.0,30.0,3500.0,,620.0," 3660,000",,,1A,Público,14.0,85,85125
150,CIM,CIM,GUSTAVO ROJAS PINILLA,Cimitarra,Santander,Aeródromo,6.3674,-73.9706,AEROCIVIL,AEROCIVIL,1500.0,40.0,12202.0,,735.0,"  644,000",1967-06-05,,3C,Aerocivil,338.0,68,68190
151,CLM,,CALAMAR GUAVIARE,San José del Guaviare,Guaviare,Aeródromo,1.9624,-72.645,MUNICIPIO,MUNICIPIO,1000.0,16.0,2950.0,,540.0,"  538,000",,,2A,Público,1380.0,95,95001
152,CLO,CLO,ALFONSO BONILLA ARAGON,Palmira,Valle del Cauca,Internacional,3.5431,-76.3817,AEROCIVIL,CONCESION AEROCALI S.A.,3000.0,45.0,,,3174.0,"  984,000",1987-02-02,,4E,Aerocivil,207439.0,76,76520
153,CMA,,CANAIMA,Villavicencio,Meta,Aeródromo,,,,,,,,,,,,,,,8.0,50,50001
154,CMP,,CAMPOALEGRE,Campoalegre,Huila,Aeródromo,,,,,,,,,,,,,,,38.0,41,41132
155,CMR,,LA MARIA,Cumaral,Meta,Aeródromo,4.2436,-73.2131,HELICE LTDA.,HELICE LTDA.,660.0,15.0,2000.0,,738.0,"  117,000",,2018-03-09,1A,Fumigación,15.0,50,50226
156,COA,,COFA -PALMIRA,Palmira,Valle del Cauca,Aeródromo,,,,,,,,,,,,,,,1.0,76,76520
157,COG,COG,CONDOTO MANDINGA,Condoto,Chocó,Regional,5.072,-76.6766,AEROCIVIL,AEROCIVIL,1150.0,18.0,,,166.0,"  984,000",1987-02-02,,2C,Aerocivil,5130.0,27,27205
158,CPB,CPB,CAPURGANA,Acandí,Chocó,Regional,8.6305,-77.3502,ACCION COMUNAL,ACCION COMUNAL,950.0,10.0,,,12.0," 1784,000",,,1A,Público,6004.0,27,27006
159,CPC,,CUPICA,Bahía Solano,Chocó,Aeródromo,6.6987,-77.4832,ALCALDIA,ALCALDIA,870.0,15.0,,,16.0," 5732,000",,,1A,Público,341.0,27,27075
160,CPL,CPL,NAVAS PARDO,Chaparral,Tolima,Aeródromo,3.7238,-75.4654,AEROCIVIL,AEROCIVIL,1200.0,15.0,,,2729.0,"  499,000",1968-07-20,,2C,Aerocivil,538.0,73,73168
161,CRA,,CINERA,San José de Cúcuta,Norte de Santander,Aeródromo,8.1708,-72.4746,ASOZULIA,ASOZULIA,900.0,10.0,5000.0,,305.0," 6327,000",,,1A,Fumigación,92.0,54,54001
162,CRL,,SANTA BARBARA,Cumaral,Meta,Aeródromo,4.2329,-73.2523,UNIPALMA S.A.,UNIPALMA S.A.,850.0,18.0,3000.0,,800.0," 7055,000",,,1A,Privado,63.0,50,50226
163,CRM,,CURUMANI,Curumaní,Cesar,Aeródromo,,,,,,,,,,,,,,,46.0,20,20228
164,CRN,,CORRAL NUEVO,Plato,Magdalena,Aeródromo,,,,,,,,,,,,,,,58.0,47,47555
165,CRR,,CERRITOS,Ambalema,Tolima,Aeródromo,4.8422,-74.7758,URUEÑA Y VILLA CIA S. EN C.,SANIDAD VEGETAL CRUZ,640.0,10.0,2000.0,,807.0," 6174,000",,,1A,Fumigación,,73,73030
166,CRU,CUO,CARURU,Carurú,Vaupés,Aeródromo,1.0135,-71.2961,MUNICIPIO,MUNICIPIO,1000.0,20.0,12200.0,,646.0,"   62,000",,,2B,Público,4108.0,97,97161
167,CRY,,EL VERGEL,Cabuyaro,Meta,Aeródromo,4.2065,-73.0026,AVIAL LTDA,AVIAL LTDA.,740.0,15.0,2000.0,,540.0,"  998,000",,,1A,Fumigación,2.0,50,50124
168,CTG,CTG,RAFAEL NUÑEZ,Cartagena de Indias,Bolívar,Internacional,10.442,-75.5123,AEROCIVIL,CONCESION-SACSA,2380.0,45.0,,,7.0," 4501,000",2012-08-16,,4D,Aerocivil,131998.0,13,13001
169,CUC,CUC,CAMILO DAZA,San José de Cúcuta,Norte de Santander,Internacional,7.9274,-72.5116,AEROCIVIL,AEROCIVIL -ORIENTE S.A.S.,1920.0,45.0,,,1027.0,"  984,000",1987-02-02,,4D,Aerocivil,72216.0,54,54001
170,CUM,,EL VISO,Campoalegre,Huila,Aeródromo,2.7313,-75.3219,SANIDAD VEGETAL CRUZ VERDE,SANIDAD VEGETAL CRUZ VERDE,600.0,10.0,2500.0,,1299.0," 2136,000",,,1A,Fumigación,20.0,41,41132
171,CVN,CVE,COVEÑAS,Coveñas,Sucre,Aeródromo,9.401,-75.6913,ARC MINDEFENSA,ARC MINDEFENSA,1220.0,28.0,12202.0,,31.0,"  984,000",,,2C,Militar,875.0,70,70221
172,CZI,,LA DILIA,Agustín Codazzi,Cesar,Aeródromo,,,,,,,,,,,,,,,11.0,20,20013
173,CZU,CZU,LAS BRUJAS,Corozal,Sucre,Regional,9.3325,-75.2853,AEROCIVIL,EN CONCESION-SOACN(Sociedad Operadora de Aeropuertos Centro Norte,1430.0,22.0,,,519.0," 1862,000",1971-07-19,,3C,Aerocivil,14822.0,70,70215
174,EBG,EBG,EL TOMIN,El Bagre,Antioquia,Regional,7.5965,-74.8089,SOCIEDAD MINEROS A/QUIA,EL MUNICIPIO,1300.0,15.0,,,180.0," 2443,000",,,1A,Público,6662.0,5,5250
175,ECC,,EL CARMEN DE CHUCURI,El Carmen de Chucurí,Santander,Aeródromo,6.7406,-73.5544,MUNICIPIO,MUNICIPIO,700.0,12.0,12000.0,,1200.0," 2488,000",,,1A,Público,203.0,68,68235
176,ECO,,ECOPETROL,Barrancabermeja,Santander,Aeródromo,,,,,,,,,,,,,,,5.0,68,68081
177,ECR,,EL CHORRO,Gamarra,Cesar,Aeródromo,,,,,,,,,,,,,,,1.0,20,20295
178,EEB,,EL ESPINO,El Espino,Boyacá,Aeródromo,6.4883,-72.5047,MUNICIPIO,MUNICIPIO,820.0,15.0,5670.0,,7119.0," 4239,000",,,1B,Público,2.0,15,15248
179,EJA,EJA,YARIGUIES,Barrancabermeja,Santander,Nacional,7.0244,-73.8068,AEROCIVIL,AEROCIVIL -ORIENTE S.A.S.,1800.0,45.0,61100.0,,414.0,"  115,000",1965-09-02,,3C,Aerocivil,27366.0,68,68081
180,EJU,,EL JUNCAL,Palermo,Huila,Aeródromo,2.8471,-75.3133,ASOJUNCAL,SANIDAD VEGETAL CRUZ VERDE,620.0,10.0,2000.0,,1509.0," 4949,000",2010-10-01,,1A,Fumigación,2.0,41,41524
181,ELA,ECR,EL CHARCO,El Charco,Nariño,Aeródromo,2.4408,-78.1,MUNICIPIO,MUNICIPIO,800.0,12.0,6400.0,,32.0,"  737,000",,,1A,Público,1419.0,52,52250
182,ELB,ELB,LAS FLORES,El Banco,Magdalena,Aeródromo,9.0428,-73.9715,AEROCIVIL,AEROCIVIL,1225.0,28.0,19045.0,,110.0," 1374,000",1978-04-06,,3B,Aerocivil,589.0,47,47245
183,ELC,,EL CAIRO,Castilla la Nueva,Meta,Aeródromo,,,,,,,,,,,,,,,2.0,50,50150
184,ELH,,EL LIMONAR,Campoalegre,Huila,Aeródromo,2.6205,-75.3624,SANIDAD VEGETAL CRUZ VERDE,SANIDAD VEGETAL CRUZ VERDE,600.0,10.0,2500.0,,1936.0," 2136,000",,,1A,Fumigación,6.0,41,41132
185,ELM,,EL MARNE,Rionegro,Santander,Aeródromo,7.4233,-73.3806,JORGE LUIS OTERO SANCHEZ,JORGE LUIS OTERO SANCHEZ,760.0,18.0,4000.0,,416.0," 4874,000",,,1A,Privado,575.0,68,68615
186,ELO,,EL RODEO,Orocué,Casanare,Aeródromo,,,,,,,,,,,,,,,49.0,85,85230
187,ELS,,COMUNEROS,Socorro,Santander,Aeródromo,6.3835,-73.2573,MUNICIPIO,MUNICIPIO,720.0,15.0,5000.0,,5250.0,"  306,000",,,1A,Público,37.0,68,68755
188,EOH,EOH,OLAYA HERRERA,Medellín,Antioquia,Nacional,6.2204,-75.5904,INVIAS,EN CONCESION-SOACN(Sociedad Operadora de Aeropuertos Centro Norte),1800.0,38.0,20455.0,,4920.0," 1466,000",,,1A,Aerocivil,293591.0,5,5001
189,EPR,,EL PARAISO,Ibagué,Tolima,Aeródromo,4.387,-75.026,JOSE M. MELENDRO,CRUZ VERDE,630.0,10.0,2000.0,,2303.0," 1735,000",,,1A,Fumigación,10.0,73,73001
190,EPY,,CAYTA,El Copey,Cesar,Aeródromo,,,,,,,,,,,,,,,6.0,20,20238
191,ESP,,ASTA,Espinal,Tolima,Aeródromo,,,,,,,,,,,,,,,5.0,73,73268
192,ETO,,EL TORNILLO,Rionegro,Santander,Aeródromo,7.6222,-73.608,INVERSIONES GERBEL S.A.S.,CELTA LTDA.,1020.0,18.0,2000.0,,230.0," 7086,000",,,1A,Fumigación,41.0,68,68615
193,EVC,,EL VIGIA,Villanueva,Casanare,Aeródromo,4.5543,-72.9157,EDUARDO VALENZUELA PLATA,FUMIVILLA LTDA,660.0,10.0,2000.0,,662.0," 2471,000",,2016-06-12,1A,Fumigación,5.0,85,85440
194,EYP,EYP,EL ALCARAVAN,Yopal,Casanare,Nacional,5.3191,-72.3842,AEROCIVIL,AEROCIVIL,2250.0,30.0,,,1016.0,"  984,000",1987-02-02,,3C,Aerocivil,92726.0,85,85001
195,FCA,,FASCA,Aguazul,Casanare,Aeródromo,5.1553,-72.5208,SFA LTDA.,SFA. LTDA.,750.0,10.0,2000.0,,868.0," 7054,000",,,1A,Fumigación,257.0,85,85010
196,FDA,,FUNDACION,Fundación,Magdalena,Aeródromo,,,,,,,,,,,,,,,16.0,47,47288
197,FLA,FLA,GUSTAVO ARTUNDUAGA PAREDES,Florencia,Caquetá,Nacional,1.589,-75.5643,AEROCIVIL,AEROCIVIL,1500.0,30.0,,,803.0,"  984,000",1987-02-02,,3C,Aerocivil,16997.0,18,18001
198,FOO,,LA LUNA,Fuente de Oro,Meta,Aeródromo,3.4492,-73.5844,GIOVANNI OROZCO,FARI LTDA,800.0,10.0,2000.0,,935.0," 4445,000",,,1A,Fumigación,10.0,50,50287
199,FRO,,FRONTINO EL PLATEADO,Frontino,Antioquia,Aeródromo,6.7221,-76.1465,MUNICIPIO,MUNICIPIO,800.0,18.0,5000.0,,5577.0," 5958,000",,,1A,Público,276.0,5,5284
200,FUL,,SAN LUIS,Fuente de Oro,Meta,Aeródromo,3.5019,-73.6697,FARI LTDA.,FARI LTDA,1000.0,15.0,2000.0,,980.0," 4506,000",,2015-10-02,2A,Fumigación,31.0,50,50287
201,FUO,,MAJAGUAL,Fuente de Oro,Meta,Aeródromo,3.3903,-73.6964,MARIO GUTIERREZ PERDOMO,ASEM LTDA.,940.0,10.0,3000.0,,1049.0," 2949,000",,2016-07-10,1A,Fumigación,,50,50287
202,GAN,,EL PROGRESO,Granada,Meta,Aeródromo,,,,,,,,,,,,,,,57.0,50,50313
203,GCA,GCA,GUACAMAYAS,San Vicente del Caguán,Caquetá,Aeródromo,2.2833,-74.95,CORREGIMIENTO(MUNICIPIO),CORREGIMIENTO(MUNICIPIO),810.0,18.0,11500.0,,1500.0," 3660,000",,,1A,Público,4.0,18,18753
204,GER,,GERMANIA,Gamarra,Cesar,Aeródromo,8.3306,-73.6949,INVERSIONES GERBEL S.A.S.,CELTA LTDA.,950.0,14.0,2000.0,,246.0," 7086,000",,,1A,Fumigación,40.0,20,20295
205,GIR,GIR,SANTIAGO VILA,Flandes,Tolima,Regional,4.2753,-74.7961,AEROCIVIL,AEROCIVIL,1600.0,28.0,,,931.0,"  115,000",,,3C,Aerocivil,2143.0,73,73275
206,GLJ,,LA JAGUA,Garzón,Huila,Aeródromo,2.1464,-75.6942,MINISTERIO DE DEFENSA,EJERCITO NACIONAL,1334.0,40.0,12202.0,,2622.0,"  984,000",,,2B,Militar,170.0,41,41298
207,GPI,GPI,JUAN CASIANO,Guapí,Cauca,Regional,2.57,-77.898,AEROCIVIL,AEROCIVIL,1300.0,16.0,,,164.0,"  245,000",1960-08-17,,3C,Aerocivil,7490.0,19,19318
208,GRM,,GUERIMA,Puerto Carreño,Vichada,Aeródromo,3.6299,-70.3231,GOBERNACION,DEPARTAMENTO,1220.0,20.0,,,416.0,"13268,000",,,2B,Público,1744.0,99,99001
209,GRN,,MALVINAS,Granada,Meta,Aeródromo,3.4208,-73.7653,FREDY REYES VALDERRAMA,SADELL S.A.S.,700.0,10.0,2000.0,,1150.0," 1124,000",,,1A,Fumigación,97.0,50,50313
210,GUE,,LA ESTRELLA,Guacarí,Valle del Cauca,Aeródromo,,,,,,,,,,,,,,,6.0,76,76318
211,GUR,,LA BASE FUMIVALLE,Guacarí,Valle del Cauca,Aeródromo,3.7766,-76.3217,MAR 2 S.A.S.,ARFA S.A.,640.0,10.0,2000.0,,3278.0,"  400,000",,2017-02-06,1A,Fumigación,4.0,76,76318
212,GUS,,GUSTAVO ROJAS PINILLA,Tunja,Boyacá,Aeródromo,5.5423,-73.3443,AEROCIVIL,COMODATO MUNICIPIO,1100.0,20.0,5670.0,,8954.0," 1291,000",,,2A,Aerocivil,604.0,15,15001
213,GYM,,FLAMINIO S. CAMACHO,Chía,Cundinamarca,Aeródromo,4.8125,-74.0651,AEROCIVIL,AEROCIVIL,1720.0,20.0,7000.0,,8386.0,"  984,000",1987-02-02,,2B,Aerocivil,4571.0,25,25175
214,HAC,,EL TRIUNFO,Puerto Triunfo,Antioquia,Aeródromo,5.9222,-74.7258,MUNICIPIO,MUNICIPIO,1150.0,11.0,7000.0,,820.0," 2070,000",,2014-06-10,2A,Público,860.0,5,5591
215,HCO,,EL CAIRO,Hato Corozal,Casanare,Aeródromo,6.0647,-71.2044,ELVIRA SARMIENTO,ELVIRA SARMIENTO,700.0,15.0,2000.0,,443.0," 5835,000",,2016-12-04,1A,Privado,111.0,85,85125
216,HCZ,,HATO LA AURORA,Hato Corozal,Casanare,Aeródromo,6.0331,-71.3819,LIGIA PLATA Y OTRO,BARRAGAN PLATA JORGE,800.0,15.0,3500.0,,485.0," 6728,000",,,1A,Privado,26.0,85,85125
217,HLE,,HATO LA ESPERANZA,Puerto Gaitán,Meta,Aeródromo,,,,,,,,,,,,,,,4.0,50,50568
218,HTC,,EL DANUBIO,Hato Corozal,Casanare,Aeródromo,6.2611,-71.2247,CARMEN DELIA DELGADO,CARMEN DELIA DELGADO,740.0,15.0,2400.0,,440.0," 4315,000",,,1A,Privado,35.0,85,85125
219,HTZ,HTZ,HATO COROZAL,Hato Corozal,Casanare,Aeródromo,6.1535,-71.7616,AEROCIVIL,AEROCIVIL,1040.0,14.0,12202.0,,830.0,"  502,000",1967-05-05,,2C,Aerocivil,195.0,85,85125
220,IBE,IBE,PERALES,Ibagué,Tolima,Nacional,4.4217,-75.1336,AEROCIVIL,AEROCIVIL,1800.0,30.0,,,3114.0,"  984,000",1987-02-02,,3C,Aerocivil,36819.0,73,73001
221,IDA,,CESAR GAVIRIA TRUJILLO,Inírida,Guainía,Regional,3.8536,-67.9063,GOBERNACION,GOBERNACION,1930.0,30.0,,,311.0,"  499,000",,,3C,Público,4942.0,94,94001
222,IGO,IGO,JAIME ORTIZ BETANCUR,Chigorodó,Antioquia,Aeródromo,7.6772,-76.683,MUNICIPIO,MUNICIPIO,840.0,18.0,6400.0,,170.0," 4545,000",2012-08-17,,1A,Público,250.0,5,5172
223,IPI,IPI,SAN LUIS,Aldana,Nariño,Internacional,0.8619,-77.6718,AEROCIVIL,AEROCIVIL,1770.0,28.0,,,9740.0,"  455,000",1969-05-19,,3C,Aerocivil,4193.0,52,52022
224,IRH,,IRHO,San Alberto,Cesar,Aeródromo,7.7345,-73.4343,INDUPALMA LTDA.,INDUPALMA LTDA.,730.0,15.0,5000.0,,305.0,"  170,000",,2018-02-12,1A,Fumigación,561.0,20,20710
225,ISP,,ISA,Palmira,Valle del Cauca,Aeródromo,,,,,,,,,,,,,,,1.0,76,76520
226,ITG,,LA PROVIDENCIA,Ituango,Antioquia,Aeródromo,7.1653,-75.7253,MUNICIPIO,MUNICIPIO,750.0,12.0,6000.0,,5166.0,"   39,000",,2018-02-01,1A,Público,1127.0,5,5361
227,JUR,JUO,JURADO,Juradó,Chocó,Aeródromo,7.0731,-77.7285,MUNICIPIO,MUNICIPIO,800.0,20.0,6671.0,,13.0," 1503,000",,,1A,Público,552.0,27,27372
228,LAB,,LA  BARQUEREÑA,Nunchía,Casanare,Aeródromo,,,,,,,,,,,,,,,9.0,85,85225
229,LAC,,LA CABAÑA,Cumaral,Meta,Aeródromo,4.3019,-73.3697,HACIENDA LA CABAÑA,HACIENDA LA CABAÑA,1000.0,10.0,5500.0,,175.0,"  688,000",,2018-04-07,1A,Privado,7.0,50,50226
230,LAH,,LA CAMPECHANA,Maní,Casanare,Aeródromo,4.8871,-72.3151,JOSE A. ROSAS BARRERA,FUMIVILLA LTDA,800.0,10.0,2000.0,,609.0," 2138,000",,,1A,Fumigación,1.0,85,85139
231,LAL,,CRAVO SUR (antes la pista),Orocué,Casanare,Aeródromo,4.8274,-71.6626,J.LONDOÑO R Y CIA,J.LONDOÑO R Y CIA,800.0,18.0,4500.0,,482.0," 5384,000",,2017-11-04,1A,Privado,52.0,85,85230
232,LAM,,LA COLINA,Villavicencio,Meta,Aeródromo,4.0644,-73.3839,ERNESTO PEDRAZA GALEANO,AEROTEC LTDA.,850.0,19.0,6250.0,,1058.0,"  691,000",,,1A,Fumigación,145.0,50,50001
233,LAO,,LOS ALMENDROS,Carepa,Antioquia,Aeródromo,7.8083,-76.6519,SANVEL. LTDA.,FUMIGARAY,700.0,16.0,4000.0,,134.0," 1314,000",,,1A,Fumigación,32.0,5,5147
234,LAP,,LA CARPETA,Paz de Ariporo,Casanare,Aeródromo,,,,,,,,,,,,,,,1.0,85,85250
235,LAR,,LA ARROBLEDA,Caloto,Cauca,Aeródromo,3.1023,-76.419,INCUBADORA SANTANDER,INCUBADORA SANTANDER,780.0,15.0,5700.0,,3320.0," 6472,000",,2016-12-02,1A,Privado,1264.0,19,19142
236,LAU,,LAS JUANAS,Castilla la Nueva,Meta,Aeródromo,3.8233,-73.5322,GILBERTO GALINDO M.,SADELL  LTDA.,690.0,10.0,3000.0,,1082.0," 4735,000",,,1A,Fumigación,7.0,50,50150
237,LAV,,LA VICTORIA,La Paz,Cesar,Aeródromo,10.0621,-73.2583,AMA LTDA.,AMA LTDA.,800.0,18.0,2000.0,,300.0," 3939,000",,,1A,Fumigación,2.0,20,20621
238,LCH,LCR,VIRGILIO BARCO VARGAS,La Chorrera,Amazonas,Regional,-1.4564,-72.8011,CAJA AGRARIA,COMISARIA DEL AMAZONAS,1500.0,21.0,,,593.0,"  916,000",,,2A,Público,1754.0,91,91405
239,LCI,,LA CACICA,San Martín,Cesar,Aeródromo,7.9861,-73.5779,LA CACICA LTDA.,LA CACICA LTDA.,600.0,18.0,3000.0,,265.0," 5525,000",,2017-12-03,1A,Privado,24.0,20,20770
240,LCM,,LA CANDELARIA,Fuente de Oro,Meta,Aeródromo,,,,,,,,,,,,,,,6.0,50,50287
241,LCT,,LETICIA,Alvarado,Tolima,Aeródromo,4.463,-75.0359,ALVARO SIERRA FIGUEROA,SANIDAD VEGETAL CRUZ,840.0,10.0,2000.0,,860.0," 6352,000",,,1A,Fumigación,17.0,73,73026
242,LEM,,LA ESMERALDA,Villavicencio,Meta,Aeródromo,4.0883,-73.3678,GILMA LOZANO DE G.,ASAM LTDA,700.0,20.0,2000.0,,984.0," 1581,000",,,1A,Fumigación,11.0,50,50001
243,LET,LET,ALFREDO VASQUEZ COBO,Leticia,Amazonas,Internacional,-4.1918,-69.9422,AEROCIVIL,AEROCIVIL,2010.0,40.0,,,314.0,"  984,000",,,3C,Aerocivil,16372.0,91,91001
244,LEV,,LA GAVIOTA,La Primavera,Vichada,Aeródromo,4.5505,-70.9254,GOBERNACION,CENTRO LAS GAVIOTAS,1180.0,18.0,12202.0,,606.0," 5796,000",,,2B,Público,658.0,99,99524
245,LFL,,LAS FLORES,La Paz,Cesar,Aeródromo,10.0967,-73.2337,SOCIEDAD OLEOFLORES S.A.,SOC. OLEOFLORES S.A.,1300.0,18.0,5670.0,,310.0," 2134,000",,2017-05-06,2A,Privado,133.0,20,20621
246,LGA,,LAS GARZAS,Prado,Tolima,Aeródromo,,,,,,,,,,,,,,,4.0,73,73563
247,LGL,,BELLA CRUZ -SAN JUAN,La Gloria,Cesar,Aeródromo,8.6233,-73.7319,SOCIEDAD MR. INVERSIONES LTDA,FASE CUBIDES Y CIA.,750.0,10.0,4000.0,,135.0," 5273,000",,2011-01-03,1A,Fumigación,76.0,20,20383
248,LGM,,LA GAVIOTA MA,Plato,Magdalena,Aeródromo,,,,,,,,,,,,,,,24.0,47,47555
249,LGP,,LAGUNA PAVON,San José del Guaviare,Guaviare,Aeródromo,,,,,,,,,,,,,,,108.0,95,95001
250,LGT,,LAS GAVIOTAS,Puerto Lleras,Meta,Aeródromo,,,,,,,,,,,,,,,33.0,50,50577
251,LHC,,LOS HALCONES,Fuente de Oro,Meta,Aeródromo,,,,,,,,,,,,,,,1.0,50,50287
252,LJB,,EL BORREGO,La Jagua de Ibirico,Cesar,Aeródromo,9.5851,-73.4519,DRUMMOND LTD.,DRUMMOND LTD.,1500.0,29.0,,,253.0," 5388,000",2014-10-28,,3C,Privado,1288.0,20,20400
253,LJC,,LA JAGUA DE IBIRICO,El Paso,Cesar,Aeródromo,9.6206,-73.5364,FADELCE LTDA,FADELCE LTDA.,880.0,20.0,4000.0,,331.0," 3055,000",,,1A,Fumigación,86.0,20,20250
254,LJD,,CERRO DE PIEDRA,La Jagua de Ibirico,Cesar,Aeródromo,,,,,,,,,,,,,,,1501.0,20,20400
255,LJI,,NUEVA GRANADA,La Jagua de Ibirico,Cesar,Aeródromo,,,,,,,,,,,,,,,207.0,20,20400
256,LJV,,LA JAULA,La Primavera,Vichada,Aeródromo,5.3089,-69.8314,MARIA D. SALAZAR Y OTROS,MARIA C. SALAZAR,1100.0,20.0,5000.0,,356.0,"  275,000",,,1A,Privado,25.0,99,99524
257,LLI,,LAS DELICIAS,San Luis de Palenque,Casanare,Aeródromo,5.2075,-71.8136,PERENCO COLOMBIA LIMITED,PERENCO COLOMBIA LIMITED,600.0,17.0,12202.0,,460.0,"  933,000",,,1A,Privado,3183.0,85,85325
258,LLM,,LOMA LINDA,Puerto Lleras,Meta,Aeródromo,,,,,,,,,,,,,,,10.0,50,50577
259,LLO,,CALENTURITAS,Recetor,Casanare,Aeródromo,9.6523,-73.4951,C.I.PRODECO,C.I. PRODECO,700.0,18.0,6400.0,,190.0,"  996,000",,2018-05-07,2A,Privado,4331.0,85,85279
260,LMA,,JORGE ISAACS (LA MINA),Maicao,La Guajira,Regional,11.2326,-71.4893,CARBONES DEL CERREJON,CARBONES DEL CERREJON,1700.0,45.0,,,328.0,"  831,000",,,3D,Privado,10262.0,44,44430
261,LMC,LMC,LA MACARENA,La Macarena,Meta,Regional,2.1736,-73.7861,MUNICIPIO,MUNICIPIO,1600.0,15.0,26000.0,,770.0," 1940,000",,,2C,Público,27136.0,50,50350
262,LML,,LAS MALVINAS,Puerto Gaitán,Meta,Aeródromo,,,,,,,,,,,,,,,8.0,50,50568
263,LMN,,LOS MULATOS,El Charco,Nariño,Aeródromo,,,,,,,,,,,,,,,624.0,52,52250
264,LMR,,LOS MORROS,San Onofre,Sucre,Aeródromo,,,,,,,,,,,,,,,6.0,70,70713
265,LOC,,LOPEZ DE MICAI,López de Micay,Cauca,Aeródromo,2.9539,-77.195,MUNICIPIO,MUNICIPIO,800.0,16.0,2300.0,,340.0,"  443,000",,,1A,Público,181.0,19,19418
266,LOM,,LOS MILAGROS,Maní,Casanare,Aeródromo,4.7981,-72.2342,FUMIAGRIC LTDA.,AGIL LTDA.,750.0,10.0,2000.0,,410.0," 2005,000",,,1A,Fumigación,141.0,85,85139
267,LPD,,LA PEDRERA,La Pedrera,Amazonas,Aeródromo,-1.3243,-69.5816,GOBERNACION,EL MISMO,1050.0,20.0,26000.0,,262.0,"  399,000",,,2B,Público,2073.0,91,91407
268,LPG,,EL GAVILAN,La Primavera,Vichada,Aeródromo,5.2554,-69.7342,FRANCISCO MATIZ SALAZAR,FRANCISCO MATIZ S.,1100.0,18.0,4800.0,,332.0," 5915,000",,2015-12-03,1A,Privado,18.0,99,99524
269,LPL,,LOS PLANES,Apartadó,Antioquia,Aeródromo,7.834,-76.6453,UNIBAN,CALIMA S.A.,730.0,15.0,4500.0,,108.0," 1425,000",,,1A,Fumigación,79.0,5,5045
270,LPR,,EL CIMARRON,La Primavera,Vichada,Aeródromo,5.9371,-69.2579,PRESTIGE COLOMBIA LTDA,PRESTIGE COLOMBIA L,1000.0,15.0,3500.0,,318.0," 4740,000",,,1A,Privado,58.0,99,99524
271,LPS,,LA PONDEROSA,Puerto Wilches,Santander,Aeródromo,7.4614,-73.7464,PALMAS MONTERREY S.A.,PALMAS MONTERREY,870.0,15.0,4000.0,,295.0," 2087,000",,,1A,Privado,22.0,68,68575
272,LPV,,RANCHO ALEGRE,La Primavera,Vichada,Aeródromo,,,,,,,,,,,,,,,235.0,99,99524
273,LQM,,CAUCAYA,Puerto Leguízamo,Putumayo,Regional,-0.1823,-74.7708,MUNICIPIO,MUNICIPIO,1170.0,23.0,28000.0,,609.0," 6268,000",,,2B,Público,5810.0,86,86573
274,LRA,,SAN JOSE,Lérida,Tolima,Aeródromo,4.911,-74.889,HAROLD IVAN BENAVIDES,FIBA LTDA,680.0,10.0,2000.0,,866.0," 4311,000",,,1A,Fumigación,11.0,73,73408
275,LTA,,LAS TAPIAS,Tamalameque,Cesar,Aeródromo,8.6781,-73.7694,ACBF Y CIA.,FELIPE D'ACOSTA M.,850.0,18.0,3000.0,,131.0," 6123,000",,2018-01-06,1A,Privado,28.0,20,20787
276,LTB,,LAS GAVIOTAS,La Tebaida,Quindío,Aeródromo,,,,,,,,,,,,,,,2.0,63,63401
277,LVB,,LA VEGA,Zambrano,Bolívar,Aeródromo,9.8552,-74.8918,INVERSIONES AGRORIOS S.A.,INVER. AGRORIOS S.A.,1160.0,20.0,7250.0,,656.0," 5234,000",,,2A,Privado,4.0,13,13894
278,MAG,,MANAURE,Manaure,La Guajira,Aeródromo,11.7861,-72.4166,CONCESION DE SALINAS-IFI,CONCESION DE SALINAS-IFI,1332.0,35.0,12202.0,,15.0," 2989,000",,,2C,Privado,11.0,44,44560
279,MAI,,CAMPO ESTERO,Maní,Casanare,Aeródromo,,,,,,,,,,,,,,,272.0,85,85139
280,MAN,,CASANARE,Maní,Casanare,Aeródromo,,,,,,,,,,,,,,,6.0,85,85139
281,MAP,,MAPIRIPAN,Mapiripán,Meta,Aeródromo,2.8973,-72.141,MUNICIPIO,MUNICIPIO,1200.0,20.0,12200.0,,670.0," 5517,000",,,2B,Público,5691.0,50,50325
282,MBO,,MONTERREY,Zambrano,Bolívar,Aeródromo,9.7372,-74.8291,PIZANO S.A.,PIZANO S.A.,1000.0,15.0,5000.0,,75.0," 7145,000",,,2A,Privado,50.0,13,13894
283,MBQ,,BOCOA QUERARI,Mitú,Vaupés,Aeródromo,1.5975,-70.7994,RESGUARDO INDIGENA,GOBERNACION DEL VAUPES,440.0,10.0,1650.0,,620.0," 3423,000",,,1A,Público,293.0,97,97001
284,MCG,,MORICHAL,Papunahua,Vaupés,Aeródromo,1.9072,-70.7619,MUNICIPIO,MUNICIPIO,800.0,30.0,5500.0,,648.0," 2989,000",,,1B,Público,72.0,97,97777
285,MCH,,MOCHUELO,Cravo Norte,Arauca,Aeródromo,,,,,,,,,,,,,,,1.0,81,81220
286,MCJ,MCJ,MAICAO,Maicao,La Guajira,Aeródromo,11.3833,-72.2333,MUNICIPIO,MUNICIPIO,1600.0,30.0,12202.0,,160.0,,,,3C,Público,26.0,44,44430
287,MCL,,CAÑO COLORADO,Mitú,Vaupés,Aeródromo,0.365,-70.4433,RESGUARDO INDIGENA,GOBERNACION DEL VAUPES,500.0,15.0,5000.0,,650.0," 3423,000",,,1A,Público,313.0,97,97001
288,MCO,,MACOCOBA,Puerto Carreño,Vichada,Aeródromo,,,,,,,,,,,,,,,5.0,99,99001
289,MCP,,CACHIPORRO,Mitú,Vaupés,Aeródromo,0.5542,-71.9264,RESGUARDO INDIGENA,GOBERNACION DEL VAUPES,670.0,10.0,12202.0,,650.0," 3423,000",,,1A,Público,188.0,97,97001
290,MDA,,INGENIO INCAUCA (C.A),Miranda,Cauca,Aeródromo,3.2687,-76.3337,INGENIO DEL CAUCA S.A.,INCAUCA.S.A. - ASOCAÑA,250.0,10.0,500.0,,3314.0," 2955,000",,2015-08-05,1A,Fumigación,99.0,19,19455
291,MDE,MDE,JOSE M. CORDOVA,Rionegro,Antioquia,Internacional,6.1645,-75.423,AEROCIVIL,EN CONCESION-SOACN(Sociedad Operadora de Aeropuertos Centro Norte),3500.0,45.0,,,6980.0,"  605,000",,,4E,Aerocivil,208122.0,5,5615
292,MDR,,PIEDRA ÑI,Mitú,Vaupés,Aeródromo,-0.1089,-70.3272,RESGUARDO INDIGENA,GOBERNACION DEL VAUPES,420.0,10.0,5000.0,,500.0," 3423,000",,,1A,Público,1521.0,97,97001
293,MED,MND,MEDINA,Medina,Cundinamarca,Aeródromo,4.4841,-73.345,MUNICIPIO,MUNICIPIO,1060.0,15.0,5000.0,,1500.0," 3660,000",,,2A,Público,950.0,25,25438
294,MFR,MFB,MONFORT,Mitú,Vaupés,Aeródromo,0.625,-69.7494,RESGUARDO INDIGENA,GOBERNACION DEL VAUPES,620.0,20.0,12202.0,,650.0," 3423,000",,,1A,Público,798.0,97,97001
295,MFS,MFS,MIRAFLORES,Miraflores,Guaviare,Aeródromo,1.3377,-71.9507,MUNICIPIO,MUNICIPIO,1320.0,25.0,25000.0,,730.0,"   21,000",1957-01-30,,3B,Público,4188.0,95,95200
296,MGN,MGN,BARACOA,Magangué,Bolívar,Aeródromo,9.2849,-74.8465,AEROCIVIL,AEROCIVIL,1410.0,20.0,33112.0,,195.0,"  352,000",1968-05-17,,2B,Aerocivil,560.0,13,13430
297,MGO,,SAN GERARDO,Mitú,Vaupés,Aeródromo,0.7697,-70.2847,RESGUARDO INDIGENA,GOBERNACION DEL VAUPES,410.0,15.0,1650.0,,540.0," 3423,000",,,1A,Público,205.0,97,97001
298,MGP,,MAGUI PAYAN,Magüí,Nariño,Aeródromo,1.7742,-78.1914,MUNICIPIO,EL MUNICIPIO,680.0,10.0,5000.0,,213.0," 4006,000",,,1A,Público,1.0,52,52427
299,MGU,,SAN MIGUEL,Mitú,Vaupés,Aeródromo,-0.0039,-70.4972,RESGUARDO INDIGENA,GOBERNACION DEL VAUPES,540.0,15.0,1650.0,,650.0," 3423,000",,,1A,Público,709.0,97,97001
300,MIB,,BELEN DE INAMBU,Mitú,Vaupés,Aeródromo,0.4708,-70.1847,RESGUARDO INDIGENA,GOBERNACION DEL VAUPES,460.0,10.0,1650.0,,650.0," 3423,000",,,1A,Público,180.0,97,97001
301,MIC,,IBACABA,Mitú,Vaupés,Aeródromo,0.9703,-69.213,RESGUARDO INDIGENA,GOBERNACION DEL VAUPES,440.0,15.0,1650.0,,600.0,"   45,000",,,1A,Público,134.0,97,97001
302,MII,,MANI,Maní,Casanare,Aeródromo,,,,,,,,,,,,,,,20.0,85,85139
303,MIS,,SANTA ISABEL,Mitú,Vaupés,Aeródromo,-0.1178,-70.1931,RESGUARDO INDIGENA,GOBERNACION DEL VAUPES,330.0,10.0,1650.0,,465.0," 3423,000",,,1A,Público,486.0,97,97001
304,MIT,,WACARICUARA,Mitú,Vaupés,Aeródromo,0.2,-70.225,MUNICIPIO,MUNICIPIO,850.0,25.0,12202.0,,500.0,"  984,000",,,1A,Público,2113.0,97,97001
305,MKA,,KAMANAOS,Mitú,Vaupés,Aeródromo,1.7261,-69.8453,RESGUARDO INDIGENA,GOBERNACION DEL VAUPES,400.0,15.0,1650.0,,670.0," 3423,000",,,1B,Público,856.0,97,97001
306,MLG,,JERONIMO DE AGUAYO,Málaga,Santander,Aeródromo,6.7059,-72.7304,MUNICIPIO,MUNICIPIO,1000.0,16.0,5670.0,,6705.0,"   11,000",,,2A,Público,9876.0,68,68432
307,MLR,,TOLEMAIDA,Melgar,Tolima,Aeródromo,,,,,,,,,,,,,,,3950.0,73,73449
308,MMP,MVP,SAN BERNARDO,Mompós,Bolívar,Aeródromo,9.2583,-74.4383,AEROCIVIL,AEROCIVIL,1175.0,14.0,16300.0,,72.0,"  352,000",1968-05-17,,2A,Aerocivil,924.0,13,13468
309,MNI,,YARUMITOS,Maní,Casanare,Aeródromo,,,,,,,,,,,,,,,10.0,85,85139
310,MNO,,LA GLORIA,Aguazul,Casanare,Aeródromo,5.0064,-72.3561,CARMEN SEDANO,PERENCO COLOMBIA LIMITED,540.0,18.0,5000.0,,630.0," 6967,000",,,1A,Privado,1540.0,85,85010
311,MPI,,PIRACUARA,Mitú,Vaupés,Aeródromo,-0.6703,-69.6514,RESGUARDO INDIGENA,GOBERNACION DEL VAUPES,540.0,10.0,12202.0,,640.0," 3423,000",,,1A,Público,863.0,97,97001
312,MPU,,PACU,Mitú,Vaupés,Aeródromo,1.6308,-70.3639,RESGUARDO INDIGENA,GOBERNACION DEL VAUPES,540.0,10.0,1650.0,,700.0," 3423,000",,,1A,Público,242.0,97,97001
313,MQU,MQU,JOSE CELESTINO,San Sebastián de Mariquita,Tolima,Regional,5.2126,-74.8837,AEROCIVIL,AEROCIVIL,1790.0,45.0,,,1531.0,"   51,000",1968-01-24,,2A,Aerocivil,1428.0,73,73443
314,MRF,,LAGOS DEL DORADO,Miraflores,Guaviare,Aeródromo,,,,,,,,,,,,,,,3.0,95,95200
315,MRI,,MURINDO,Murindó,Antioquia,Aeródromo,6.9762,-76.8125,ALCALDIA,ALCALDIA,670.0,10.0,3500.0,,23.0,,,2013-12-12,1A,Público,481.0,5,5475
316,MSA,,SAN ANTONIO,Mitú,Vaupés,Aeródromo,0.6797,-70.4375,RESGUARDO INDIGENA,GOBERNACION DEL VAUPES,340.0,10.0,1650.0,,610.0," 3423,000",,,1A,Público,331.0,97,97001
317,MSI,,SANTA LUCIA,Mitú,Vaupés,Aeródromo,1.3825,-70.0067,RESGUARDO INDIGENA,GOBERNACION DEL VAUPES,415.0,15.0,3000.0,,1020.0," 3423,000",,,1A,Público,186.0,97,97001
318,MSN,,SAN PABLO,Mitú,Vaupés,Aeródromo,,,,,,,,,,,,,,,86.0,97,97001
319,MSO,,SONAÑA,Mitú,Vaupés,Aeródromo,0.1308,-70.5792,RESGUARDO INDIGENA,GOBERNACION DEL VAUPES,700.0,15.0,5000.0,,680.0," 3423,000",,,1A,Público,657.0,97,97001
320,MSR,,SANTA RITA,Mitú,Vaupés,Aeródromo,1.6528,-70.4097,RESGUARDO INDIGENA,GOBERNACION DEL VAUPES,400.0,10.0,1650.0,,700.0," 3423,000",,,1A,Público,237.0,97,97001
321,MTA,,MUTATA,Mutatá,Antioquia,Aeródromo,7.2505,-76.4442,ALCALDIA,ALCALDIA,795.0,10.0,6000.0,,397.0," 3660,000",,,1A,Público,25.0,5,5480
322,MTB,MTB,EL PINDO,Montelíbano,Córdoba,Regional,7.9733,-75.4413,AEROCIVIL,AEROCIVIL,1100.0,26.0,12202.0,,160.0," 3107,000",1981-04-08,,2C,Aerocivil,1863.0,23,23466
323,MTC,,PAPUNAGUA - PUERTO. SOLANO,Mitú,Vaupés,Aeródromo,1.9073,-70.7622,RESGUARDO INDIGENA,GOBERNACION DEL VAUPES,650.0,15.0,5000.0,,492.0," 2994,000",,,1A,Público,676.0,97,97001
324,MTI,,TIQUIE,Mitú,Vaupés,Aeródromo,0.2342,-70.1689,RESGUARDO INDIGENA,GOBERNACION DEL VAUPES,530.0,15.0,5000.0,,630.0," 3423,000",,,1A,Público,2099.0,97,97001
325,MTN,,BUENOS AIRES,Mitú,Vaupés,Aeródromo,0.0203,-71.0074,RESGUARDO INDIGENA,GOBERNACION DEL VAUPES,400.0,10.0,1650.0,,620.0,"   45,000",,,1A,Público,1142.0,97,97001
326,MTR,MTR,LOS GARZONES,Montería,Córdoba,Nacional,8.8239,-75.8261,AEROCIVIL,EN CONCESION-SOACN(Sociedad Operadora de Aeropuertos Centro Norte,1860.0,35.0,,,19.0,"  984,000",1987-02-02,,4C,Aerocivil,70624.0,23,23001
327,MTS,,TERESITA,Mitú,Vaupés,Aeródromo,0.7381,-69.4714,RESGUARDO INDIGENA,GOBERNACION DEL VAUPES,630.0,20.0,12202.0,,620.0," 3423,000",,,1A,Público,670.0,97,97001
328,MTT,,CACHIPORRO,Mitú,Vaupés,Aeródromo,,,,,,,,,,,,,,,188.0,97,97001
329,MTU,,MATUPA,San Martín,Meta,Aeródromo,,,,,,,,,,,,,,,1565.0,50,50689
330,MUR,,TAPURUCUARA,Mitú,Vaupés,Aeródromo,1.4717,-70.1631,RESGUARDO INDIGENA,GOBERNACION DEL VAUPES,450.0,15.0,2700.0,,880.0," 3423,000",,,1A,Público,2123.0,97,97001
331,MUT,,ATAHUALPA,Mutatá,Antioquia,Aeródromo,,,,,,,,,,,,,,,7.0,5,5480
332,MVA,,VILLA GLADYS,Mitú,Vaupés,Aeródromo,0.2607,-71.3566,RESGUARDO INDIGENA,GOBERNACION DEL VAUPES,950.0,15.0,12202.0,,493.0,"   45,000",,,1A,Público,237.0,97,97001
333,MVI,,VILLA FATIMA,Mitú,Vaupés,Aeródromo,0.9744,-69.9569,RESGUARDO INDIGENA,GOBERNACION DEL VAUPES,510.0,10.0,1650.0,,680.0," 3423,000",,,1A,Público,411.0,97,97001
334,MVN,,VILLA NUEVA,Mitú,Vaupés,Aeródromo,0.2732,-70.4491,RESGUARDO INDIGENA,GOBERNACION DEL VAUPES,375.0,12.0,1650.0,,590.0,"   45,000",,,1A,Público,33.0,97,97001
335,MVP,MVP,FABIO A. LEON BENTLEY,Mitú,Vaupés,Regional,1.2535,-70.2341,MUNICIPIO,AEROCIVIL,1880.0,30.0,,,680.0,"   34,000",1958-02-19,,3C,Aerocivil,35858.0,97,97001
336,MVU,,LOS ANGELES,Mitú,Vaupés,Aeródromo,0.5767,-70.13,RESGUARDO INDIGENA,GOBERNACION DEL VAUPES,390.0,10.0,1650.0,,640.0,"   45,000",,,1A,Público,256.0,97,97001
337,MWA,,WAINAMBI,Mitú,Vaupés,Aeródromo,0.8667,-69.6172,RESGUARDO INDIGENA,GOBERNACION DEL VAUPES,360.0,10.0,1650.0,,650.0," 3423,000",,,1A,Público,181.0,97,97001
338,MWY,,WASAY,Mitú,Vaupés,Aeródromo,1.6608,-70.0194,RESGUARDO INDIGENA,GOBERNACION DEL VAUPES,390.0,15.0,1650.0,,700.0," 3423,000",,,1A,Público,78.0,97,97001
339,MYA,,YAPU,Mitú,Vaupés,Aeródromo,0.6217,-70.3517,RESGUARDO INDIGENA,GOBERNACION DEL VAUPES,540.0,20.0,5000.0,,600.0," 3423,000",,,1A,Público,2067.0,97,97001
340,MYY,VAB,YAVARATE,Mitú,Vaupés,Aeródromo,0.6117,-69.2072,RESGUARDO INDIGENA,GOBERNACION DEL VAUPES,490.0,15.0,1650.0,,400.0," 3423,000",,,1A,Público,585.0,97,97001
341,MZL,MZL,LA NUBIA,Manizales,Caldas,Nacional,5.0298,-75.4667,FODECAL,FODECAL,1000.0,15.0,15876.0,,6866.0,"  623,000",,,2A,Público,38890.0,17,17001
342,NAR,,PUERTO NARE,Puerto Nare,Antioquia,Aeródromo,6.2102,-74.5902,CEMENTOS ARGOS S.A.,CEMENTOS ARGOS S.A.,1000.0,20.0,9000.0,,130.0," 4504,000",,2015-09-12,2B,Privado,1298.0,5,5585
343,NAT,,SAN GERMAN,Natagaima,Tolima,Aeródromo,,,,,,,,,,,,,,,50.0,73,73483
344,NCI,NCI,NECOCLI,Necoclí,Antioquia,Aeródromo,8.45,-76.7833,MUNICIPIO,MUNICIPIO,833.0,15.0,5680.0,,60.0," 5917,000",,,1B,Público,979.0,5,5490
345,NFA,,NUEVA FORTUNA,Necoclí,Antioquia,Aeródromo,8.6167,-76.6667,MUNICIPIO,MUNICIPIO,300.0,10.0,1300.0,,550.0," 2989,000",,,1A,Público,5.0,5,5490
346,NQU,NQU,REYES MURILLO,Nuquí,Chocó,Regional,5.712,-77.2627,AEROCIVIL,AEROCIVIL,930.0,10.0,,,13.0,"    2,279",1975-08-21,,1A,Aerocivil,13940.0,27,27495
347,NUC,,LA FLORA,San Luis de Palenque,Casanare,Aeródromo,5.2097,-71.8106,GERARDO ZAMBRANO GUIO,PERENCO COLOMBIA LIMITED,640.0,15.0,12202.0,,539.0,"  933,000",,,1A,Privado,1735.0,85,85325
348,NUN,,EL DESECHO,Nunchía,Casanare,Aeródromo,5.6194,-72.0639,MIREYA MARTIN HUERTAS,EL MISMO,950.0,14.0,2000.0,,820.0," 6057,000",,,1A,Fumigación,1.0,85,85225
349,NVA,NVA,BENITO SALAS,Neiva,Huila,Internacional,2.9499,-75.2941,AEROCIVIL,AEROCIVIL,1600.0,40.0,,,1464.0,"   57,000",1958-02-28,,3C,Aerocivil,65289.0,41,41001
350,OCE,,EL VIEJO CARMEN,Orocué,Casanare,Aeródromo,4.8978,-71.5681,INVERSIONES LA COLONIA S.A.,LA CEIBA S.A.,685.0,10.0,2000.0,,492.0," 1325,000",,2018-06-11,1A,Privado,7.0,85,85230
351,OCU,,BUENAVISTA,Orocué,Casanare,Aeródromo,4.8441,-71.5079,INVERSIONES LA COLONIA LTDA,LA CEIBA S.A.,900.0,15.0,2000.0,,469.0," 1325,000",,2018-06-11,1A,Privado,13.0,85,85230
352,OCV,OCV,AGUAS CLARAS,Ocaña,Norte de Santander,Regional,8.3156,-73.3583,AEROCIVIL,AEROCIVIL,1200.0,30.0,19000.0,,3850.0," 2363,000",1971-09-03,,2C,Aerocivil,2566.0,54,54498
353,OOR,,SAN PABLO,Orocué,Casanare,Aeródromo,4.7856,-71.6231,FERNANDO ADOLFO REYES I.,FERNANDO ADOLFO REYES I.,1175.0,15.0,3000.0,,472.0," 3214,000",,2015-08-03,1A,Privado,20.0,85,85230
354,ORA,,GUARILAQUE,Orocué,Casanare,Aeródromo,4.892,-71.5866,FERNANDO REYES ISAZA,PERENCO COLOMBIA LIMITED,600.0,18.0,5000.0,,509.0," 7235,000",,2017-01-03,1A,Privado,1570.0,85,85230
355,ORC,ORC,OROCUE,Orocué,Casanare,Aeródromo,4.7903,-71.3484,MUNICIPIO,MUNICIPIO,1480.0,25.0,22000.0,,550.0," 3559,000",,,1A,Público,5834.0,85,85230
356,ORE,,EL CAIMAN,Orocué,Casanare,Aeródromo,4.855,-71.6811,INVERSIONES LOS CEDROS,INVERS. LOS CEDROS,700.0,16.0,3500.0,,485.0," 5960,000",,,1A,Privado,19.0,85,85230
357,ORH,,ORIHUECA,Ciénaga,Magdalena,Aeródromo,10.8238,-74.1626,ELCIDA DIAZ GUERRERO,AEROPENORT LTDA.,720.0,10.0,3000.0,,90.0," 6068,000",,,1A,Fumigación,9.0,47,47189
358,ORI,,ORITO,Orito,Putumayo,Aeródromo,0.6665,-76.8768,ECOPETROL,ECOPETROL,754.0,23.0,,,1168.0," 2109,000",,,1B,Privado,2231.0,86,86320
359,ORJ,,LA CULEBRA,Orocué,Casanare,Aeródromo,4.9025,-71.6347,JUAN MAURICIO MEDINA NIÑO,JUAN MAURICIO MEDINA NIÑO,450.0,10.0,2000.0,,429.0," 4938,000",,,1A,Privado,17.0,85,85230
360,ORO,,GUANAPALO,Orocué,Casanare,Aeródromo,5.1741,-71.4299,TOMAS ORTEGA DIAZ,PERENCO COLOMBIA LIMITED,600.0,18.0,5000.0,,524.0," 7235,000",,2017-01-03,1A,Privado,1360.0,85,85230
361,ORS,,SARDINAS,Orocué,Casanare,Aeródromo,4.9858,-71.5057,IGNACIA GUALDRON,PERENCO COLOMBIA LIMITED,600.0,18.0,5000.0,,521.0," 7235,000",,2017-01-03,1A,Privado,9320.0,85,85230
362,ORU,,EL MEDANO,Orocué,Casanare,Aeródromo,4.7621,-71.7184,ALBERTO MENDOZA Y OTRO,EL MISMO,885.0,15.0,4950.0,,485.0,"  828,000",2007-02-27,,1A,Privado,6.0,85,85230
363,ORX,,LA CANDELARIA,Orocué,Casanare,Aeródromo,5.1076,-71.6243,ANDRES REYES DIAZ,ANDRES REYES DIAZ,580.0,12.0,2000.0,,515.0," 7087,000",,,1A,Privado,5.0,85,85230
364,OTU,OTU,REMEDIOS OTU,Remedios,Antioquia,Regional,7.0106,-74.7156,AEROCIVIL,AEROCIVIL,950.0,12.0,,,2058.0,"  522,000",1968-07-03,,1A,Aerocivil,8663.0,5,5604
365,PAL,,PALACIO MUNICIPAL,Medellín,Antioquia,Aeródromo,,,,,,,,,,,,,,,2.0,5,5001
366,PBE,PBE,MORELA,Puerto Berrío,Antioquia,Regional,6.4599,-74.4106,AEROCIVIL,AEROCIVIL,1290.0,24.0,,,445.0,"  522,000",,,2C,Aerocivil,2460.0,5,5579
367,PBN,,NICOLAS E.SOTO,Puerto Boyacá,Boyacá,Aeródromo,,,,,,,,,,,,,,,34.0,15,15572
368,PBO,,PUERTO BOLIVAR,Uribia,La Guajira,Regional,12.2215,-71.9843,CARBONES DEL CERREJON,CARBONES DEL CERREJON,1580.0,45.0,,,98.0,"  831,000",,,3D,Privado,3507.0,44,44847
369,PBR,,LA PONDEROSA,Paratebueno,Cundinamarca,Aeródromo,,,,,,,,,,,,,,,75.0,25,25530
370,PCA,,PACOA,Pacoa,Vaupés,Aeródromo,0.0667,-71.2083,CORREGIMIENTO,CORREGIMIENTO,800.0,18.0,12202.0,,720.0," 3149,000",,,1A,Público,358.0,97,97511
371,PCE,,CUMARIBO,Puerto Carreño,Vichada,Regional,4.4464,-69.7815,GOBERNACION,GOBERNACION,900.0,15.0,26000.0,,547.0,"  407,000",,,1A,Público,10527.0,99,99001
372,PCH,,ALPES -PACHAQ.,Puerto López,Meta,Aeródromo,,,,,,,,,,,,,,,1.0,50,50573
373,PCJ,,PUERTO ALVIRA -CAÑO JABON,San Martín,Meta,Aeródromo,2.9029,-71.7496,JUNTA DE ORNATO,JUNTA DE ORNATO,1100.0,23.0,12202.0,,550.0," 5712,000",,,2C,Público,1124.0,50,50689
374,PCO,,PARACO,Córdoba,Bolívar,Aeródromo,,,,,,,,,,,,,,,35.0,13,13212
375,PCR,PCR,GERMAN OLANO,Puerto Carreño,Vichada,Regional,6.185,-67.4925,MUNICIPIO,AEROCIVIL,1800.0,30.0,,,1915.0,"  551,000",1968-07-10,,3C,Aerocivil,6271.0,99,99001
376,PDE,,LA VENGANZA,Paz de Ariporo,Casanare,Aeródromo,6.0226,-70.8976,WALTER F. GOMEZ ACOSTA,EL MISMO,570.0,12.0,4000.0,,410.0,,,,1A,Privado,70.0,85,85250
377,PDR,,LA COLONIA,Paz de Ariporo,Casanare,Aeródromo,5.7639,-71.5314,MILCIADES LUNA CUERVO,MUNICIPIO,670.0,15.0,2000.0,,620.0," 6296,000",,2012-12-08,1A,Público,12.0,85,85250
378,PEI,PEI,MATECAÑA,Pereira,Risaralda,Internacional,4.8128,-75.7393,MUNICIPIO,MUNICIPIO,2020.0,45.0,,,4417.0,"  522,000",,,4D,Público,95765.0,66,66001
379,PFO,,PUERTO PERALES,Puerto Triunfo,Antioquia,Aeródromo,5.9936,-74.5742,GOBERNACION,GOBERNACION,900.0,15.0,7000.0,,475.0," 2989,000",,,2A,Público,1062.0,5,5591
380,PGA,,PRAGA,Obando,Valle del Cauca,Aeródromo,,,,,,,,,,,,,,,17.0,76,76497
381,PGM,,PUERTO GAITAN,Puerto Gaitán,Meta,Aeródromo,4.3031,-72.0855,MUNICIPIO,MUNICIPIO,1380.0,23.0,12202.0,,150.0," 1861,000",,,3C,Público,3103.0,50,50568
382,PGN,,SABANETA,Puerto Gaitán,Meta,Aeródromo,,,,,,,,,,,,,,,10.0,50,50568
383,PGP,,LA PLATA PUERTO TRUJILLO,Puerto Gaitán,Meta,Aeródromo,3.4873,-71.3759,MUNICIPIO,MUNICIPIO,700.0,15.0,4500.0,,623.0,"   15,000",,,1A,Público,1377.0,50,50568
384,PGT,,MORELIA,Puerto Gaitán,Meta,Aeródromo,3.7504,-71.4561,META PETROLEUM LTD.,META PETROLEUM LTD.,1280.0,24.0,,,617.0," 1738,000",,,2C,Privado,30856.0,50,50568
385,PID,,PUERTO INIRIDA,Inírida,Guainía,Aeródromo,,,,,,,,,,,,,,,347.0,94,94001
386,PII,,SAN FELIPE,Inírida,Guainía,Aeródromo,,,,,,,,,,,,,,,82.0,94,94001
387,PIM,LPE,LA PRIMAVERA,La Primavera,Vichada,Aeródromo,5.4943,-70.4212,MUNICIPIO,MUNICIPIO,1740.0,18.0,12200.0,,410.0," 1028,000",,,2C,Público,6784.0,99,99524
388,PIP,RON,PAIPA JUAN JOSE RONDON,Paipa,Boyacá,Aeródromo,5.7644,-73.1057,AEROCIVIL,AEROCIVIL,1700.0,30.0,11400.0,,8205.0,"  984,000",1987-02-02,,3C,Aerocivil,154.0,15,15516
389,PLA,PLA,PLANADAS,Planadas,Tolima,Aeródromo,3.3,-75.7333,MUNICIPIO,EL MISMO,700.0,11.0,5670.0,,3700.0," 3660,000",,,1A,Público,16.0,73,73555
390,PLD,,SAN ISIDRO,Puerto López,Meta,Aeródromo,4.1274,-73.2384,ARMANDO ROMERO PARRA,FARO LTDA.,720.0,10.0,2000.0,,787.0," 2491,000",,2017-06-12,1A,Fumigación,8.0,50,50573
391,PLL,,PUERTO LLERAS,Puerto Lleras,Meta,Aeródromo,3.2897,-73.3792,MUNICIPIO,MUNICIPIO,940.0,15.0,12202.0,,800.0," 1148,000",,,2C,Público,11.0,50,50577
392,PLN,,PALONEGRO-NORTE,Agustín Codazzi,Cesar,Aeródromo,,,,,,,,,,,,,,,1.0,20,20013
393,PLS,,TOBASIA,Puerto López,Meta,Aeródromo,4.0786,-73.0794,FAGAN S. EN C.,FAGAN S. EN C.,730.0,18.0,2000.0,,175.0," 4316,000",,,1A,Fumigación,15.0,50,50573
394,PLT,PLT,LAS FLORES,Plato,Magdalena,Aeródromo,9.7985,-74.7831,AEROCIVIL,AEROCIVIL,1067.0,20.0,3500.0,,86.0,"  876,000",1968-03-08,,2A,Aerocivil,298.0,47,47555
395,PMO,,SAN LUIS,Palermo,Huila,Aeródromo,,,,,,,,,,,,,,,1.0,41,41524
396,PNQ,,PINOQUIA,Puerto Carreño,Vichada,Aeródromo,,,,,,,,,,,,,,,6.0,99,99001
397,PPN,PPN,GUILLERMO LEON VALENCIA,Popayán,Cauca,Nacional,2.4542,-76.6099,AEROCIVIL,AEROCIVIL,1910.0,40.0,,,5669.0,"  455,000",1969-05-19,,4C,Aerocivil,17602.0,19,19001
398,PPT,,POTRERITO,Ibagué,Tolima,Aeródromo,4.3261,-75.0785,ARROCERA POTRERITO LASERNA,CRUZ VERDE,600.0,10.0,2000.0,,2460.0," 4508,000",,2015-09-03,1A,Fumigación,8.0,73,73001
399,PQE,,PALANQUERO -GERMAN OLANO,Puerto Salgar,Cundinamarca,Aeródromo,5.4835,-74.6574,FAC,FAC.,2296.0,20.0,,,553.0,,,,4B,Militar,126.0,25,25572
400,PRA,,LA OPIA,Piedras,Tolima,Aeródromo,4.4484,-74.9623,DANIEL GOMEZ TAMAYO,CRUZ VERDE,630.0,10.0,4000.0,,1929.0," 1839,000",,2016-05-03,1A,Fumigación,,73,73547
401,PRC,,PUERTO RICO,Puerto Rico,Caquetá,Aeródromo,,,,,,,,,,,,,,,27.0,18,18592
402,PRE,,SAN JOSE DE OCUNE,Puerto Carreño,Vichada,Aeródromo,4.0822,-70.2539,CORREGIMIENTO,CORREGIMIENTO,720.0,20.0,5670.0,,400.0," 2989,000",,,1A,Público,1450.0,99,99001
403,PRI,,PRIMERO DE MAYO,Paratebueno,Cundinamarca,Aeródromo,4.3347,-73.1439,SAUL E. OTALORA DAZA,COMERCIALIZADORA ECO,720.0,10.0,2000.0,,709.0,"  250,000",,,1A,Fumigación,1.0,25,25530
404,PRO,,PORORO,Agustín Codazzi,Cesar,Aeródromo,9.935,-73.2687,PALMAS PORORO SAS,PALMAS PORORO SAS,900.0,18.0,6000.0,,328.0,"  276,000",,,1A,Privado,6.0,20,20013
405,PRR,,JIBICI,Cumaribo,Vichada,Aeródromo,4.8897,-68.3582,JORGE E. PINZON K.,JORGE E. PINZON K.,1100.0,15.0,5000.0,,368.0," 5921,000",,2015-11-07,1A,Privado,7.0,99,99773
406,PSO,PSO,ANTONIO NARIÑO,Pasto,Nariño,Nacional,1.3964,-77.291,AEROCIVIL,AEROCIVIL,2177.0,40.0,,,5896.0,"   95,000",1957-04-24,,4C,Aerocivil,23045.0,52,52001
407,PTA,,PALESTINA,Pivijay,Magdalena,Aeródromo,,,,,,,,,,,,,,,1.0,47,47551
408,PTC,,LA VICTORIA,Cumaribo,Vichada,Aeródromo,3.8281,-70.5893,INSPECCION POLICIA,MUNICIPIO,750.0,10.0,2000.0,,426.0," 4087,000",,,1A,Público,1821.0,99,99773
409,PTE,,LA REFORMA,Puerto López,Meta,Aeródromo,4.0625,-73.1483,SOCIEDAD DE ACTIVOS,FARO LTDA.,940.0,10.0,2000.0,,940.0," 5961,000",,,1A,Fumigación,28.0,50,50573
410,PTL,PTX,CONTADOR,Pitalito,Huila,Regional,1.8573,-76.0856,AEROCIVIL,AEROCIVIL,1500.0,19.0,,,4221.0," 2090,000",1974-10-22,,2B,Aerocivil,1251.0,41,41551
411,PTO,,PIRIRI,Puerto Gaitán,Meta,Aeródromo,,,,,,,,,,,,,,,30.0,50,50568
412,PTS,,LA ESPERANZA,Puerto Salgar,Cundinamarca,Aeródromo,,,,,,,,,,,,,,,7.0,25,25572
413,PTW,,GEMELOS DORADOS,Puerto Wilches,Santander,Aeródromo,7.2466,-73.7723,MILTON A. SALAZAR REY,EL MISMO,850.0,15.0,5670.0,,314.0," 6473,000",2013-11-19,2017-01-09,1A,Privado,242.0,68,68575
414,PTZ,,YATAROS DE MELUA,Puerto López,Meta,Aeródromo,,,,,,,,,,,,,,,1.0,50,50573
415,PUE,,PUERTO RICO,Puerto Rico,Meta,Aeródromo,2.9419,-73.2039,MUNICIPIO,MUNICIPIO,1080.0,15.0,12202.0,,800.0," 4022,000",,,2A,Público,469.0,50,50590
416,PUL,,GAVIOTAS,Fuente de Oro,Meta,Aeródromo,3.4633,-73.6022,MISAEL RODRIGUEZ CASTAÑEDA,FAGA LTDA,720.0,10.0,2000.0,,987.0,"   76,000",,,1A,Fumigación,62.0,50,50287
417,PUU,PUU,TRES DE MAYO,Puerto Asís,Putumayo,Nacional,0.5054,-76.5008,AEROCIVIL,AEROCIVIL,1485.0,25.0,33112.0,,809.0,"  115,000",1965-09-02,,3C,Aerocivil,18730.0,86,86568
418,PVA,PVA,EL EMBRUJO,Providencia,San Andrés islas,Nacional,13.3572,-81.3579,AEROCIVIL,AEROCIVIL,1050.0,18.0,,,10.0,"  338,000",1969-04-23,,2B,Aerocivil,23333.0,88,88564
419,PVO,,EL ALGODONAL,Pueblo Nuevo,Córdoba,Aeródromo,,,,,,,,,,,,,,,35.0,23,23570
420,PWI,,PUERTO WILCHES,Puerto Wilches,Santander,Aeródromo,,,,,,,,,,,,,,,18.0,68,68575
421,PWT,,PUERTO WILCHES,Puerto Wilches,Santander,Aeródromo,,,,,,,,,,,,,,,18.0,68,68575
422,PZA,PZA,PAZ DE ARIPORO,Paz de Ariporo,Casanare,Aeródromo,5.8819,-71.883,AEROCIVIL,AEROCIVIL,1506.0,20.0,29000.0,,878.0," 1591,000",1972-06-06,,2B,Aerocivil,772.0,85,85250
423,PZI,,VENECIA DE LAS GUAMAS,Paz de Ariporo,Casanare,Aeródromo,5.6882,-70.7378,MAURICIO MEDINA NIÑO,MAURICIO MEDINA NIÑO,570.0,15.0,2000.0,,404.0," 5524,000",,2017-12-04,1A,Privado,126.0,85,85250
424,PZR,,CHAPARRITO,Paz de Ariporo,Casanare,Aeródromo,5.56,-71.2172,HERNAN BRAYDI,PERENCO COLOMBIA LIMITED,840.0,25.0,5670.0,,450.0," 5603,000",,,2B,Privado,5697.0,85,85250
425,QPM,,FURATENA,Quípama,Boyacá,Aeródromo,5.5275,-74.1869,MUNICIPIO,MUNICIPIO,860.0,16.0,5670.0,,3850.0,"  390,000",,,2B,Público,150.0,15,15580
426,QQA,,VILLANUEVA,Villanueva,Casanare,Aeródromo,,,,,,,,,,,,,,,2140.0,85,85440
427,RAV,RAV,CRAVO NORTE,Cravo Norte,Arauca,Aeródromo,6.3167,-70.2111,AEROCIVIL,AEROCIVIL,1122.0,18.0,12202.0,,336.0,"  343,000",1968-05-03,,3C,Aerocivil,3504.0,81,81220
428,RCH,RCH,ALMIRANTE PADILLA,Riohacha,La Guajira,Internacional,11.5262,-72.9267,MUNICIPIO,AEROCIVIL -ORIENTE S.A.S.,1900.0,30.0,,,43.0,"  187,000",1987-02-02,,4C,Aerocivil,6241.0,44,44001
429,RDN,,RONDON,Arauca,Arauca,Aeródromo,6.2872,-71.1019,AEROCIVIL,MUNICIPIO -COMODATO,1300.0,30.0,12202.0,,480.0," 1261,000",,,2B,Aerocivil,1657.0,81,81001
430,RVE,RVE,COLONIZADORES,Arauca,Arauca,Regional,6.9504,-71.8562,ECOPETROL,AEROCIVIL,800.0,30.0,,,678.0," 4158,000",1983-09-25,,3C,Aerocivil,6315.0,81,81001
431,SAA,,SANTA ANA,Orocué,Casanare,Aeródromo,5.0875,-71.7902,FERNANDO REYES ISAZA Y CIA. S en C,FERNANDO REYES ISAZA Y CIA. S en C,600.0,15.0,3000.0,,538.0," 5962,000",,,1A,Privado,46.0,85,85230
432,SAS,,SAN CARLOS,Maní,Casanare,Aeródromo,5.0096,-72.3237,WILSON GAMEZ M.,AVIOCOL LTDA.,850.0,10.0,3000.0,,991.0," 5187,000",,2016-10-03,1A,Fumigación,,85,85139
433,SBD,,LA MAGDALENA,Sabana de Torres,Santander,Aeródromo,,,,,,,,,,,,,,,414.0,68,68655
434,SBT,SNT,LAS CRUCES,Sabana de Torres,Santander,Aeródromo,7.3833,-73.5055,MUNICIPIO,MUNICIPIO,1202.0,20.0,12202.0,,459.0," 9409,000",,,2B,Público,2335.0,68,68655
435,SCG,,EL PRADO,San Carlos de Guaroa,Meta,Aeródromo,,,,,,,,,,,,,,,4.0,50,50680
436,SCS,,SAN CARLOS DEL PLANAS,Santa Rosalía,Vichada,Aeródromo,4.0333,-70.8333,MUNICIPIO,MUNICIPIO,416.0,20.0,2500.0,,400.0," 3660,000",,,1A,Público,7.0,99,99624
437,SCY,,SAN JERONIMO,Flandes,Tolima,Aeródromo,4.1932,-74.8615,ELVIRA PINEDA VERGARA,SANIDAD VEGETAL CRUZ,800.0,10.0,2000.0,,1030.0," 4217,000",,,1A,Fumigación,1.0,73,73275
438,SDG,,LA MANSION,San Carlos de Guaroa,Meta,Aeródromo,,,,,,,,,,,,,,,1.0,50,50680
439,SFA,,SANTAFE DE ANTIOQUIA,Santa Fé de Antioquia,Antioquia,Aeródromo,,,,,,,,,,,,,,,61.0,5,5042
440,SGG,,LA FLORIDA,San Carlos de Guaroa,Meta,Aeródromo,3.912,-73.2956,GILBERTO LOPEZ S.,FARO LTDA.,740.0,10.0,2000.0,,771.0," 1579,000",,,1A,Fumigación,2.0,50,50680
441,SGL,,SAN GIL - LOS POZOS,San Gil,Santander,Aeródromo,6.5812,-73.128,MUNICIPIO,MUNICIPIO,1240.0,15.0,5670.0,,5577.0,"  677,000",,,3A,Público,418.0,68,68679
442,SGU,,YAGUARITO,San Carlos de Guaroa,Meta,Aeródromo,3.8817,-73.3403,ACEITES MANUELITA S.A.,ACEITES MANUELITA S.A.,1000.0,14.0,5670.0,,837.0," 4507,000",,,2A,Fumigación,83.0,50,50680
443,SHL,,SANTA HELENA DE UPIA,Villanueva,Casanare,Aeródromo,4.3397,-72.7428,RUBEN A. PINZON GALINDO,ASAM LTDA.,794.0,10.0,2000.0,,462.0," 3095,000",,2013-08-02,1A,Fumigación,54.0,85,85440
444,SIR,,SIRENAS,Yopal,Casanare,Aeródromo,,,,,,,,,,,,,,,190.0,85,85001
445,SIS,,SANTA ISABEL,Mitú,Vaupés,Aeródromo,,,,,,,,,,,,,,,486.0,97,97001
446,SJE,SJE,JORGE E. GONZALEZ T.,San José del Guaviare,Guaviare,Regional,2.5796,-72.6393,GOBERNACION,DEPARTAMENTO,1450.0,20.0,22000.0,,603.0,"  984,000",,,2B,Público,32581.0,95,95001
447,SJR,,SAN JUAN DE URABA,San Juan de Urabá,Antioquia,Aeródromo,,,,,,,,,,,,,,,11.0,5,5659
448,SKGB,,"MARCO FIDEL SUAREZ  ""AFB""",Cali,Valle del Cauca,Aeródromo,3.45689,-76.496514,,,,,,,,,,,,,117.0,76,76001
449,SKTI,,"TOLEMAIDA ""AFB""",Melgar,Tolima,Aeródromo,,,,,,,,,,,,,,,472.0,73,73449
450,SLM,,SAN LUIS,Granada,Meta,Aeródromo,,,,,,,,,,,,,,,4.0,50,50313
451,SMA,,AGUAS BLANCAS,San Martín,Cesar,Aeródromo,,,,,,,,,,,,,,,5.0,20,20770
452,SMR,SMR,SIMON BOLIVAR,Santa Marta,Magdalena,Internacional,11.1197,-74.2473,AEROCIVIL,AEROCIVIL -ORIENTE S.A.S.,1700.0,40.0,,,22.0,"  352,000",1968-05-17,,3C,Aerocivil,45781.0,47,47001
453,SMT,,LA CAPRICHOSA,San Martín,Meta,Aeródromo,,,,,,,,,,,,,,,20.0,50,50689
454,SNG,,SANTIAGO No.1,Maní,Casanare,Aeródromo,,,,,,,,,,,,,,,125.0,85,85139
455,SNL,,HIPILANDIA,San Martín,Cesar,Aeródromo,7.8899,-73.4588,PALMAS DEL CESAR S.A,PALMAS DEL CESAR S.A.,620.0,18.0,4000.0,,311.0,"  122,000",,2018-02-03,1A,Privado,390.0,20,20770
456,SNM,,LA DIVA,Santa Marta,Magdalena,Aeródromo,11.2448,-73.7165,INVERSIONES TIN S.A.S.,ASA S.A.S.,620.0,10.0,2000.0,,5249.0," 5383,000",,2017-11-07,1A,Fumigación,8.0,47,47001
457,SNP,,SAN PABLO,Lorica,Córdoba,Aeródromo,9.0598,-75.7804,PROAGROCOR  S.A.,AEROPENORT LTDA.,650.0,10.0,2000.0,,15.0,"  707,000",,2017-04-08,1A,Fumigación,14.0,23,23417
458,SNR,,SAN MARTIN,San Martín,Meta,Regional,3.7023,-73.6881,AEROCIVIL,AEROCIVIL,700.0,15.0,3000.0,,1380.0,"  644,000",1967-06-05,,1A,Aerocivil,181.0,50,50689
459,SNU,,SAN MIGUEL,San Carlos de Guaroa,Meta,Aeródromo,,,,,,,,,,,,,,,18.0,50,50680
460,SOR,,EL RINCON DE MUCURA,San Onofre,Sucre,Aeródromo,9.7743,-75.6382,INVERSIONES EL RINCON DE MUCURA,INVER. EL RINCON DE MUCURA,900.0,15.0,6400.0,,10.0," 1443,000",,,2A,Privado,36.0,70,70713
461,SOX,SOX,ALBERTO LLERAS CAMARGO,Firavitoba,Boyacá,Regional,5.6765,-72.9698,MUNICIPIO SOGAMOSO,MUNICIPIO SOGAMOSO,1500.0,24.0,,,8149.0,"  102,000",,,3C,Público,224.0,15,15272
462,SPD,,SAN PEDRO DE URABA,San Pedro de Urabá,Antioquia,Aeródromo,8.2898,-76.3748,MUNICIPIO,MUNICIPIO,853.0,14.0,6400.0,,417.0,"  984,000",,,1A,Público,821.0,5,5665
463,SPE,,SAN PEDRO CORAL,Buenavista,Sucre,Aeródromo,,,,,,,,,,,,,,,35.0,70,70110
464,SRB,,SANTA ROSA DE SIMITI,Simití,Bolívar,Aeródromo,,,,,,,,,,,,,,,3.0,13,13744
465,SRO,SSL,SANTA ROSALIA,Santa Rosalía,Vichada,Aeródromo,5.1337,-70.8718,CORREGIMIENTO,CORREGIMIENTO,800.0,25.0,12202.0,,500.0,"  264,000",,,1A,Público,2018.0,99,99624
466,SRS,SRS,EL ALGARROBO,San Marcos,Sucre,Aeródromo,8.6874,-75.1624,AEROCIVIL,AEROCIVIL,1200.0,136.0,6000.0,,135.0," 3890,000",,,2A,Aerocivil,354.0,70,70708
467,SRV,,LOS COLONIZADORES,Saravena,Arauca,Aeródromo,,,,,,,,,,,,,,,1472.0,81,81736
468,SSC,,SALA 77,Valledupar,Cesar,Aeródromo,10.3522,-73.3298,ALBERTO MARIO VARGAS,AMA LTDA.,600.0,15.0,2000.0,,381.0," 4444,000",,,1A,Fumigación,1.0,20,20001
469,SSL,,FALCON,Saldaña,Tolima,Aeródromo,,,,,,,,,,,,,,,1.0,73,73671
470,STA,,EL EDEN,Santa Ana,Magdalena,Aeródromo,9.5197,-74.3392,JORGE IGNACIO AGUDELO,JORGE I. AGUDELO RESTREPO,840.0,18.0,5700.0,,164.0," 4941,000",,2017-10-01,1A,Privado,8.0,47,47707
471,SVI,SVI,EDUARDO FALLA SOLANO,San Vicente del Caguán,Caquetá,Regional,2.1522,-74.7663,AEROCIVIL,AEROCIVIL,1500.0,26.0,,,875.0,"  141,000",1987-02-02,,3C,Aerocivil,5161.0,18,18753
472,SVT,,SAN VICENTE DE CHUCURI,San Vicente de Chucurí,Santander,Aeródromo,6.9056,-73.4339,MUNICIPIO,MUNICIPIO,540.0,15.0,3000.0,,1784.0," 5854,000",,,1A,Público,974.0,68,68689
473,TAP,TCD,TARAPACA,Tarapacá,Amazonas,Aeródromo,-2.8957,-69.7497,GOBERNACION,EL MISMO,1080.0,14.0,,,243.0," 3788,000",,,2A,Público,891.0,91,91798
474,TAR,,TARAIRA,Taraira,Vaupés,Aeródromo,-0.5679,-69.6381,MUNICIPIO,MUNICIPIO,820.0,20.0,12202.0,,512.0," 7354,000",,,1A,Público,2687.0,97,97666
475,TBQ,TBD,TIMBIQUI,Timbiquí,Cauca,Aeródromo,2.7786,-77.668,MUNICIPIO,MUNICIPIO,1127.0,12.0,,,18.0," 9248,000",,,1B,Público,3315.0,19,19809
476,TBU,,TIBU,Tibú,Norte de Santander,Aeródromo,8.6309,-72.7307,ECOPETROL,ECOPETROL,1400.0,18.0,,,171.0,"  759,000",,2016-03-07,2A,Privado,3994.0,54,54810
477,TCO,,LA FLORIDA,San Andrés de Tumaco,Nariño,Nacional,1.8144,-78.749,AEROCIVIL,AEROCIVIL,1600.0,30.0,,,10.0,"  455,000",1969-05-19,,3C,Aerocivil,12101.0,52,52835
478,TDA,TDA,TRINIDAD,Trinidad,Casanare,Aeródromo,5.4349,-71.6584,AEROCIVIL,AEROCIVIL,1148.0,10.0,12202.0,,560.0,"  644,000",1967-06-05,,2A,Aerocivil,4313.0,85,85430
479,TDI,,ELF TRINIDAD,Trinidad,Casanare,Aeródromo,5.5016,-71.7831,PERENCO COLOMBIA LIMITED,PERENCO COLOMBIA LIMITED,600.0,18.0,5000.0,,629.0," 7235,000",,2017-01-03,1A,Privado,3404.0,85,85430
480,TIB,,TIERRA BLANCA,Roldanillo,Valle del Cauca,Aeródromo,,,,,,,,,,,,,,,34.0,76,76622
481,TLU,TLU,TOLU,Tolú Viejo,Sucre,Regional,9.5095,-75.5859,AEROCIVIL,AEROCIVIL,1350.0,16.0,12202.0,,15.0,"  455,000",1969-05-19,,2A,Aerocivil,1967.0,70,70823
482,TME,TME,GUSTAVO VARGAS,Tame,Arauca,Regional,6.451,-71.7601,AEROCIVIL,AEROCIVIL,2000.0,30.0,33112.0,,1199.0,"  343,000",1968-05-03,,4C,Aerocivil,5850.0,81,81794
483,TNU,,PROVIDENCIA,Tauramena,Casanare,Aeródromo,4.9714,-72.5997,SOCIEDAD VALDERRAMA MOYA,SERFABA S.A.S.,710.0,10.0,2000.0,,793.0," 1207,000",,,1A,Fumigación,39.0,85,85410
484,TPI,,TOMACHIPAN,San José del Guaviare,Guaviare,Aeródromo,2.2757,-72.7747,GOBERNACION,JUNTA DE ACCION COMUNAL,500.0,10.0,5680.0,,580.0," 6254,000",,,1A,Público,1077.0,95,95001
485,TQS,SQF,SOLANO,Solano,Caquetá,Aeródromo,0.7458,-75.2344,CORREGIMIENTO(MUNICIPIO),CORREGIMIENTO(MUNICIPIO),525.0,16.0,2300.0,,860.0," 3660,000",,,1A,Público,1530.0,18,18756
486,TRB,TRB,GONZALO MEJIA,Turbo,Antioquia,Aeródromo,8.0745,-76.741,AEROCIVIL,COMODATO- ARMADA,1004.0,13.0,12202.0,,7.0," 3373,000",,,2A,Aerocivil,2581.0,5,5837
487,TRD,,PALMARITO 2,Trinidad,Casanare,Aeródromo,5.3322,-71.2347,PERENCO COLOMBIA LIMITED,PERENCO COLOMBIA LIMITED,840.0,25.0,12000.0,,459.0," 5603,000",,,1A,Privado,5531.0,85,85430
488,TRI,,LOS TOROS,Trinidad,Casanare,Aeródromo,5.4275,-71.2164,HORACIO PAN BARRAGAN,PERENCO COLOMBIA LIMITED,1100.0,20.0,12202.0,,450.0," 1405,000",,,1A,Privado,6107.0,85,85430
489,TRP,,TARAPACA,Tarapacá,Amazonas,Aeródromo,,,,,,,,,,,,,,,891.0,91,91798
490,TRR,,TRES RIOS,Miraflores,Guaviare,Aeródromo,,,,,,,,,,,,,,,61.0,95,95200
491,TUN,,TUNJA,Tunja,Boyacá,Aeródromo,,,,,,,,,,,,,,,136.0,15,15001
492,UIB,UIB,EL CARAÑO,Quibdó,Chocó,Nacional,5.6908,-76.6412,AEROCIVIL,EN CONCESION-SOACN(Sociedad Operadora de Aeropuertos Centro Norte,1300.0,30.0,63196.0,,192.0,"  522,000",1968-07-03,,3C,Aerocivil,88706.0,27,27001
493,ULQ,ULQ,FARFAN HERIBERTO GIL MAR,Tuluá,Valle del Cauca,Regional,4.0945,-76.2239,MUNICIPIO,MUNICIPIO,1100.0,45.0,33112.0,,3132.0," 1026,000",,,2C,Público,1116.0,76,76834
494,URA,,PUERTO ESTRELLA,Uribia,La Guajira,Aeródromo,12.35,-71.3,CORREGIMIENTO,CORREGIMIENTO,1180.0,25.0,12202.0,,20.0," 3660,000",,,2B,Público,8.0,44,44847
495,URM,URI,URIBE,Uribe,Meta,Aeródromo,3.2369,-74.3463,MUNICIPIO,MUNICIPIO,1000.0,20.0,,,2240.0," 2404,000",,,2B,Público,5192.0,50,50370
496,URR,URR,ALI PIEDRAHITA,Urrao,Antioquia,Regional,6.3273,-76.1409,AEROCIVIL,AEROCIVIL,865.0,10.0,,,6104.0,"  551,000",1968-07-10,,2A,Aerocivil,3524.0,5,5847
497,VAL,,VALENCIA,Valencia,Córdoba,Aeródromo,,,,,,,,,,,,,,,23.0,23,23855
498,VAP,,CAMPO ALEGRE,Valledupar,Cesar,Aeródromo,,,,,,,,,,,,,,,6.0,20,20001
499,VAR,,VARSOVIA,San Vicente del Caguán,Caquetá,Aeródromo,,,,,,,,,,,,,,,1.0,18,18753
500,VCC,,EL DIAMANTE,San Carlos de Guaroa,Meta,Aeródromo,3.8844,-73.1595,EFA LTDA.,EFA LTDA.,800.0,10.0,2000.0,,686.0," 2634,000",,,1A,Fumigación,21.0,50,50680
501,VDF,,VIGIA DEL FUERTE,Vigía del Fuerte,Antioquia,Aeródromo,6.5681,-76.8877,MUNICIPIO,MUNICIPIO,770.0,10.0,,,53.0,"  192,000",,,1A,Público,6466.0,5,5873
502,VDP,,MADACI,Valledupar,Cesar,Aeródromo,,,,,,,,,,,,,,,1.0,20,20001
503,VEL,,VELASQUEZ,Puerto Boyacá,Boyacá,Aeródromo,,,,,,,,,,,,,,,2325.0,15,15572
504,VGP,VGZ,CANANGUCHAL,Villagarzón,Putumayo,Regional,0.9785,-76.6064,AEROCIVIL,AEROCIVIL,1300.0,20.0,,,397.0," 1270,000",1972-05-09,,3B,Aerocivil,5927.0,86,86885
505,VIC,,EL CONVENTO,Villavicencio,Meta,Aeródromo,4.0227,-73.3529,EFA LTDA.,EFA LTDA.,800.0,10.0,2000.0,,837.0," 2634,000",,,1A,Fumigación,64.0,50,50001
506,VIH,,VISTA HERMOSA,Vistahermosa,Meta,Aeródromo,3.1351,-73.7579,MUNICIPIO,MUNICIPIO,870.0,15.0,5670.0,,150.0," 4559,000",,,2A,Público,183.0,50,50711
507,VIL,,PALMAS DEL CASANARE,Villanueva,Casanare,Aeródromo,,,,,,,,,,,,,,,8.0,85,85440
508,VLA,,VILLANUEVA,Villanueva,Casanare,Aeródromo,4.6371,-72.9498,MUNICIPIO,MUNICIPIO,1300.0,23.0,12202.0,,1220.0," 2807,000",,,2B,Fumigación,2140.0,85,85440
509,VLL,,VILLANUEVA,Villanueva,La Guajira,Aeródromo,10.5833,-73.0167,MUNICIPIO,MUNICIPIO,900.0,20.0,4000.0,,600.0," 3660,000",,,1A,Público,1.0,44,44874
510,VLU,,PALMAR DE ORIENTE,Villanueva,Casanare,Aeródromo,4.4924,-72.8408,PALMAR DEL ORIENTE S.A.,PALMAR DEL ORIENTE S.A.,860.0,15.0,3000.0,,643.0," 4892,000",,2014-10-11,1A,Privado,53.0,85,85440
511,VNL,,COLEGIAL,Villanueva,Casanare,Aeródromo,4.4945,-72.7719,SAMOS DE COL. LTDA,FUMIVILLA LTDA,700.0,10.0,2000.0,,574.0," 5913,000",,,1A,Fumigación,11.0,85,85440
512,VNU,,SOCEAGRO,Villanueva,Casanare,Aeródromo,4.4881,-72.8319,SOCEAGRO,ASAM LTDA.,1100.0,12.0,2000.0,,649.0,"  174,000",,,1A,Fumigación,6.0,85,85440
513,VUP,VUP,ALFONSO LOPEZ PUMAREJO,Valledupar,Cesar,Nacional,10.4351,-73.2494,AEROCIVIL,AEROCIVIL -ORIENTE S.A.S.,2100.0,30.0,,,450.0,"  352,000",1968-05-17,,4C,Aerocivil,23158.0,20,20001
514,VVA,,VILLANUEVA,Turbo,Antioquia,Aeródromo,,,,,,,,,,,,,,,69.0,5,5837
515,VVC,VVC,VANGUARDIA,Villavicencio,Meta,Nacional,4.1684,-73.6147,AEROCIVIL,AEROCIVIL,1940.0,30.0,,,1366.0,"  499,000",1968-06-12,,3C,Aerocivil,117754.0,50,50001
516,VVD,,LAS BRISAS,Villavicencio,Meta,Aeródromo,,,,,,,,,,,,,,,114.0,50,50001
517,VVN,,NEIVA YORK - MILENA,Villavicencio,Meta,Aeródromo,4.0903,-73.2342,COMERCIALIZADORA ECO,COMERCIALIZADORA ECO,790.0,15.0,6500.0,,754.0,"  398,000",,,1A,Fumigación,3.0,50,50001
518,VVU,,SANTA ISABEL,Villavicencio,Meta,Aeródromo,3.9873,-73.2091,EFA LTDA.,EFA LTDA.,800.0,10.0,2000.0,,689.0," 2634,000",2012-05-24,,1A,Fumigación,1.0,50,50001
519,YAG,,YAGUARA II,San Vicente del Caguán,Caquetá,Aeródromo,,,,,,,,,,,,,,,5.0,18,18753
520,YOP,,TROMPILLOS,Yopal,Casanare,Aeródromo,5.0932,-72.1807,ALEXANDER RIVERA,CELTA LTDA.,800.0,15.0,2000.0,,623.0," 4736,000",2013-09-06,,1A,Fumigación,4.0,85,85001
521,YPL,,CIENAGA,Yopal,Casanare,Aeródromo,5.2481,-72.8686,ALVARO MALAVER,SER.FUM.AER.CAS-SFA,890.0,10.0,2000.0,,609.0," 4216,000",2014-08-06,2017-09-04,1A,Fumigación,39.0,85,85001
522,YPP,,GERMAN ALBERTO,Yopal,Casanare,Aeródromo,5.1875,-72.3191,JOSE NELSON PEREZ R.,CELTA LTDA.,800.0,15.0,2000.0,,735.0," 4511,000",2012-08-16,2015-09-07,1A,Fumigación,12.0,85,85001
523,YYP,,LOS CABROS,Yopal,Casanare,Aeródromo,,,,,,,,,,,,,,,2.0,85,85001
524,ZPS,AZT,GUILLERMO GOMEZ ORTIZ,Zapatoca,Santander,Aeródromo,6.7674,-73.2846,MUNICIPIO,MUNICIPIO,700.0,14.0,2300.0,,5918.0,"   11,000",1968-01-09,,1A,Público,30.0,68,68895
